PHONE,COLLEGE NAME,STATE,DISTRICT,MAIL ID,PHONE
1,Challengers Academy of S.H.E,Orissa,Khordha,caoshe@gmail.com,8763538842
2,CHINMAYA TECHNICAL ACADEMY,Orissa,Sundargarh,chinmayaacademy@gmail.com,6612560164
3,INSTITUTE OF ENGINEERING & MANAGEMENT,West Bengal,Kolkata,admissions@iemcal.com,3323572969
4,APEX INSTITUTE OF MANAGEMENT AND TECHNOLOGY,Haryana,Karnal,apexkarnal@gmail.com,9992500283
5,ASBM Institute of BBA,Orissa,Khordha,adminips@asbm.ac.in,6742374834
6,"Aastha Polytechnic,YamunaNagar",Haryana,Yamunanagar,aasthapolytechnic@gmail.c,1732340660
7,CHANDANA SCHOOL OF NURSING,Andhra Pradesh,Nalgonda,chandanasuryapet@yahoo.co,9848222109
8,CHANDANA BSC MLT COLLEGE,Andhra Pradesh,Nalgonda,chandanasuryapet@yahoo.co,9848224109
9,ACE College of Engineering & Management,Uttar Pradesh,Agra,acecollegeagra@gmail.com,5622390059
10,MAULANA AZAD NATIONAL INSTITUTE OF TEHCHNOLOGY,Madhya Pradesh,Bhopal,"academice@manit.ac.in , info@manit.ac.inacademic@manit.ac.in",7554051046
11,College of Engineering & Management,Punjab,Kapurthala,cemkapurthala@gmail.com,1822265170
12,Asansol Engineering College,West Bengal,Bardhaman,principal.aecwb@gmail.com,3412253057
13,"INTERNATIONAL INSTITUTE OF INFORMATION TECHNOLOGY, BHUBANESWAR",Orissa,Khordha,offdean@iiit-bh.ac.in,6636008
14,Sri Sai Aditya Institute Of Science & Technology.,Andhra Pradesh,East Godavari,office@saiaditya.edu.in,9959176665
15,Maxim Institute of Technology,Madhya Pradesh,Bhopal,adi.edu@rediffmail.com,4226221
16,Ajmer Institute of  Technology,Rajasthan,Ajmer,ait_ajmer@rediffmail.com,8058642047
17,DHANESWAR RATH INST OF ENGG & MGMT STUDIES,Orissa,Cuttack,driemscuttack@rediffmail.,6712595061
18,MODINAGAR INSTITUTE OF TECHNOLOGY,Uttar Pradesh,Ghaziabad,director@miteducation.org,9760091605
19,Montfort Pvt. Industrial Training Institute,Goa,North Goa,montfortitigoa@gmail.com,2285524
20,PATIALA POLYTECHNIC COLLEGE,Punjab,Patiala,ppcrakhra@gmail.com,46689
21,Bansal College of Engineering,Madhya Pradesh,Bhopal,director@bce.ac.in,7480295890
22,Corporate Institute of Science & Technology,Madhya Pradesh,Bhopal,corporate@corporatebpl.com,7771009742
23,"Institute of Hotel Management,Lucknow",Uttar Pradesh,Lucknow,ihmlucknow@gmail.com,5224077414
24,Deviprasad Goenka Management College of Media Studies Mimbai,Maharashtra,Mumbai,info@dgmcms.org.in,2266812351
25,G.H.RAISONI COLLEGE OF ENGINEERING,Maharashtra,Nagpur,principal.ghrce@raisoni.net,9604787185
26,HINDUSTAN INSTITUTE OF TECHNOLOGY AND MANAGEMENT,Haryana,Ambala,hitm80@gmail.com,47208
27,BHIMESWAR INDUSTRIAL TRAINING CENTRE,Orissa,Kendujhar,bhimeswaritc@rediffmail.com,9439452636
28,SHYAM COLLEGE OF ENGINEERING & TECHNOLOGY,Rajasthan,Dausa,shyamcollege@gmail.com,8890209999
29,Holy Cross College of Nursing,Chhattisgarh,Surguja,holycrosscona@hotmail.com,769754122
30,Vidhyapeeth Institute Of Science And Technology,Madhya Pradesh,Bhopal,vidhyapeeth.bpl@gmail.com,7553255300
31,Asians Institute of Technology,Rajasthan,Tonk,info@ait.edu.in,1415113332
32,ROLAND INSTITUTE OF PHARMACEUTICAL SCIENCES,Orissa,Ganjam,principal@rips.ac.in,6802404199
33,LAZARUS SCHOOL OF NURSING,Andhra Pradesh,Visakhapatnam,principal.lazarus@gmail.c,8912514511
34,nalanda institute of technology,Orissa,Khordha,principalnitbbsr@yahoo.co.in,
35,M. S. Ramaiah Management Institute,Karnataka,Bangalore,dean@msrim.org,23601947
36,Noida Institute of EngineeringTechnology,Uttar Pradesh,Gautam Buddha N,rgeagristrar@niet.co.in,1202320132
37,Murshidabad College  of Engg. & Technology,West Bengal,Murshidabad,mcet.registrar@gmail.com,277267
38,Seemanta Engineering College,Orissa,Mayurbhanj,principal@seemantaengg.ac,222808
39,Millennium Institute Of Technology,Madhya Pradesh,Bhopal,mgiadcell@gmail.com,4026000
40,Gravismeds School of Nursing,Andhra Pradesh,Hyderabad,info@visakha.in,
41,Yashoda School Of Nursing,Andhra Pradesh,Hyderabad,yson2244@gmail.com,40240725
42,Lakshmi School of Nursing,Andhra Pradesh,Hyderabad,lson2244@gmail.com,9866168284
43,Poulomi School of Nurshing,Andhra Pradesh,Hyderabad,poulomihyd@gmail.com,9059506177
44,"VMKVEC, SALEM",Tamil Nadu,Salem,Principal@vmkvenggcollege,4272477218
45,"GANDHI POLYTECHNIC, BERHAMPUR",Orissa,Ganjam,Director@giit.ac.in,
46,FILM AND TELEVISION INSTITUTE OF INDIA,Maharashtra,Pune,tutorial_sec@ftiindia.com,
47,"SHANKARA INSTITUTEOF TECHNOLOGY,",Rajasthan,Jaipur,info@shankaratechnology.org,
48,SUBHARTI INSTITUTE OF TECHNOLOGY & ENGINEERING,Uttar Pradesh,Meerut,subharti.uni@gmail.com,
49,NATIONAL INSTITUTE OF AGRICULTURAL EXTENSION MANAGEMENT,Andhra Pradesh,Hyderabad,helpline@manage.gov.in,
50,School of  Nursing Holy Cross Hospital Kunkuri,Chhattisgarh,Jashpur,hchnursing@gmail.com,
51,"Shri Shankaracharya Engineering College, Durg",Chhattisgarh,Durg,ssgi@ssgi.edu.in,
52,Kanti Darshan Mahavidyalaya,Chhattisgarh,Durg,rkshri41@gmail.com,
53,Agrasen College,Chhattisgarh,Durg,agrasencollege@ymail.com,
54,"Maitri College of Dentistry and Research Center, Durg",Chhattisgarh,Durg,mdcrc@sify.com,
55,Dr. Rajendra Prasad Arts & Commerce College,Chhattisgarh,Durg,rpcollege@gmail.com,
56,"Apollo College, Durg",Chhattisgarh,Durg,info@apollocollegedurg.com,
57,SHIVA COLLEGE,Chhattisgarh,Durg,info@shivacollege.com,
58,Rungta College of Science & Technology,Chhattisgarh,Durg,info@rungtacolleges.com,
59,Vipra Physical Education College,Chhattisgarh,Raipur,vipracollege@gmail.com,
60,St. vincent Pallotti College,Chhattisgarh,Raipur,hr@stvincentpallotticollege.org,
61,"INSTITUTE OF TEACHERS EDUCATION, RAIPUR",Chhattisgarh,Raipur,iteite15@yahoo.in,7712262193
62,"Rungta College of Engineering and Technology, Raipur",Chhattisgarh,Raipur,info@rungta.ac.in,
63,Shri Ram College,Chhattisgarh,Raipur,srcsaragaon@gmail.com,
64,Kruti Institute of Teacher  Education,Chhattisgarh,Raipur,info@kiteindia.in,
65,Aricent B.ed college.,Chhattisgarh,Raigarh,aricenteducation@gmail.com,
66,Kamlakant Shukla Insitute,Chhattisgarh,Baloda Bazaar,info@kksit.in,
67,ZAKIR HUSAIN POST GRADUATE EVENING COLLEGE,Delhi,Central Delhi,zhpge.college@gmail.com,
68,CH. Brahm Prakash Government Engineering College,Delhi,South West Delhi,cbpgec@gmail.com,
69,"SVNIT, Surat",Gujarat,Surat,registrar@svnit.ac.in,
70,"New Kalpana Chawla College of Education, Hisar",Haryana,Hisar,info@kalpanachawlacollege.com,
71,"NATIONAL INSTITUTE OF FASHION TECHNOLOGY, KANGRA (NIFT)",Himachal Pradesh,Kangra,directoradmn.nift@gmail.com,
72,IEC University,Himachal Pradesh,Solan,"deputy.registrar@iecunivesity.com,admissions@iecuniversity.com",9459898200
73,"Symbiosis Institute of Business Management, Bangalore",Karnataka,Bangalore,emba_pgdm@sibm.edu.in,
74,NEW HORIZON COLLEGEOF ENGINEERING,Karnataka,Bangalore,chairman@newhorizonindia.edu,
75,Basavakalyan Engineering College,Karnataka,Bidar,principalbetbkec@gmail.co,8481254264
76,Holy Cross School of Nursing,Karnataka,Chamrajanagar,hcson443@gmail.com,
77,"Indore Institute of Science & Technology, Indore",Madhya Pradesh,Indore,principal@indoreinstitute.com,
78,Vidyasagar Institute of Technology,Madhya Pradesh,Indore,vimbhopal97@gmail.com,
79,Mansarovar Institute of Science & Technology,Madhya Pradesh,Bhopal,info@masarovargroup.com,
80,Aisect University,Madhya Pradesh,Bhopal,info@aisectuniversity.ac.in,
81,"PARMAR INSTITUTE OF PROFESSIONAL STUDIES, GWALIOR",Madhya Pradesh,Gwalior,parmar.prasant91@gmail.com,
82,Vishwakarma Institute of Management Pune  (VIT),Maharashtra,Pune,info@viit.ac.in,
83,"Symbiosis Law School, Pune",Maharashtra,Pune,slspinfo@symlaw.ac.in,
84,MIT College of Engineering,Maharashtra,Pune,mitcoe@mitpune.com,
85,PRIYADARSHINI INSTITUTE OF ENGINEERING & TECHNOLOGY,Maharashtra,Nagpur,principal.piet@ltjss.net,236463
86,Bhubaneswar Institute of Technology,Orissa,Khordha,info@bit.edu.in,9238428842
87,B.I.T Bhubaneswar,Orissa,Khordha,info@bit.edu.in,
88,"Indus College of Engineering,Bhubaneswar",Orissa,Khordha,info@indus.ac.in,
89,IMARAT UMAR TECHNICAL TRAINING CENTRE,Orissa,Sundargarh,nazim_imarat@rediff.com,
90,Rourkela Institute of Technical Education,Orissa,Sundargarh,info@ritrkl.ac.in,
91,Mewar University,Rajasthan,Chittorgarh,admission@mewaruniversity,1471291151
92,Rajdhani Institute of Technology and Management,Rajasthan,Jaipur,principal@rajdhanijaipur.org,
93,Padmavathi College of Nursing,Tamil Nadu,Dharmapuri,"padmavathinursing@gmail.com,sapthagirigroup@hotmail.com",
94,Padmavathi School of Nursing,Tamil Nadu,Dharmapuri,padmavathinursing@gmail.com,
95,NANDHA POLYTECHNIC COLLEGE,Tamil Nadu,Erode,akvelusamy2012@gmail.com,
96,Greater noida college of technology,Uttar Pradesh,Gautam Buddha N,gnairt@gnit.net,
97,ACCURATE INSTITUTE OF MANAGEMENT & TECHNOLOGY,Uttar Pradesh,Gautam Buddha N,ignafor @accurate.in,1202328235
98,Lucknow Institute Of Technology,Uttar Pradesh,Lucknow,contact@litlucknow.ac.in,
99,S.R INSTITUTE OF MANAGEMENT AND TECHNOLOGY,Uttar Pradesh,Lucknow,srimtedu@gmail.com,
100,"IIJMC, Lucknow",Uttar Pradesh,Lucknow,"info@iijmc.com,iijmclko@gmail.com",
101,KASHI  INSTITUTE  OF  TECHNOLOGY,Uttar Pradesh,Varanasi,kashi.inst.tech@gmail.com,
102,BANARAS HINDU UNIVERSITY,Uttar Pradesh,Varanasi,co.masw.bhu@gmail.com,5422369955
103,"ASSAM UNIVERSITY,SILCHAR(A CENTRAL UNIVERSITY)(SCHOOL OF TECHNOLOGY)",Assam,Cachar,registrar@aus.ac.in,
104,"National Institute of Technology, Silchar",Assam,Cachar,akarim@nits.ac.in,
105,Assam Medical College,Assam,Dibrugarh,principalamch@rediffmail.com,
106,Tezpur University,Assam,Sonitpur,admn@tezu.ernet.in,
107,Surguja University,Chhattisgarh,Surguja,registrarsua@yahoo.co.in,
108,JMJ College of Nursing,Andhra Pradesh,Hyderabad,jmjnursing@rediffmail.com,
109,Delhi College of Engineering,Delhi,New Delhi,admission@dspsr.in,
110,Grant Medical College,Maharashtra,Mumbai,gmcacad@gmail.com,
111,Bombay Flying Club,Maharashtra,Mumbai,principal@bfcaviation.com,
112,Ali Yavar Jung National Institute for the Hearing Handicapped,Maharashtra,Mumbai,ayjnihh-mum@nic.in,
113,Tata Institute of Social Science,Maharashtra,Mumbai,"iso@tiss.edu ,shinde@tiss.edu",
114,National Institute of Technology,Andhra Pradesh,Warangal,director@nitw.ac.in,
115,KRUPAJAL ENGINEERING COLLEGE,Orissa,Khordha,"city_office@krupajal.ac.in,kec_principal@krupajal.ac.in",6742465129
116,PRIST UNIVERSITY,Tamil Nadu,Thanjavur,registrar@prist.ac.in,
117,BHARATH INSTITUE OF HIGHER EDUCATION & RESEARCH,Tamil Nadu,Chennai,"office@bharathuniv.ac.in,vc@bharathuni",
118,DURGAPUR INSTITUTE OF ADVANCE TECHNOLOGY AND MANAGEMENT,West Bengal,Bardhaman,"registrar@rahul.ac.in,diatmdgp@gmail.com",2520712
119,ALPHA COLLEGE OF ENGINEERING,Karnataka,Bangalore,alphacollege.engineering@gmail.com,
120,SRI RAWATPURA SARKAR INSTITUTE OF TECH & SCIENCE,Madhya Pradesh,Datia,nationalconsortium.sri@gmail.com,238383
121,MANGALMAY INSTITUTE OF MANAGEMENT & TECHNOLOGY,Uttar Pradesh,Gautam Buddha N,"principal@educationmangal.in,garatulmangal@yahoo.com, info@mimt.org",
122,Bhabha Institute of Technology,Bihar,Gaya,bodhgayabhabha@gmail.com,2210186
123,GURU NANAK INSTITUTE OF TECHNOLOGY,West Bengal,Kolkata,info.gnit@jisgroup.org,25637929
124,DON BOSCO INSTITUTE OF TECHNOLOGY,Karnataka,Bangalore,dbit.ao@gmail.com,
125,KARNAL INSTITUTE OF TECHNOLOGY & MANAGEMENT,Haryana,Karnal,info@kitmkarnal.com,
126,NIMS UNIVERSITY,Rajasthan,Jaipur,registrar@nimsuniversity.org,
127,INSTITUTE OF MANAGEMENT BHUBANESWAR,Orissa,Khordha,imis@imis.ac.in,
128,SATHYABAMA UNIVERSITY,Tamil Nadu,Chennai,registrar@sathyabamauniversity.ac.in,4424503243
129,JAGANNATH INSTITUTE FOR TECHNOLOGY & MANAGEMENT,Orissa,Gajapati,pa2prinicipal@cutm.ac.in,9437647478
130,ST. THOMAS COLLEGE OF ENGINEERING & TECHNOLOGY,West Bengal,Kolkata,stcet@stcet.ac.in,3324481081
131,NATIONAL INSTITUTE OF FASHION TECHNOLOGY,Madhya Pradesh,Bhopal,director.bhopal@nift.ac.in,
132,"GOVERNMENT ENGINEERING COLLEGE, AJMER",Rajasthan,Ajmer,principal@ecajmer.ac.in,26717173
133,IAMR COLLEGE OF ENGINEERING,Uttar Pradesh,Meerut,iamrmeerut08@rediffmail.com,
134,Jan Nayak Ch. Devi Lal College of Engineering,Haryana,Sirsa,principaljcdcoe@gmail.com,299151
135,Bihar College of Pharmacy,Bihar,Patna,info@biharcollegeofpharmacy.com,
136,Indian Institute of Health Education & Research,Bihar,Patna,info@iiher.com,
137,Indraprasth Institute of Aeronautics,Haryana,Gurgaon,"iia7@rediffmail.com,",2214021
138,PRESTON COLLEGE,Madhya Pradesh,Gwalior,www.prestoncollege.in,256930
139,KK Polytechnic,Bihar,Nalanda,info@kkpolytechnic.in,290482
140,NATIONAL INSTITUTE OF TECHNOLOGY  PATNA,Bihar,Patna,skverma@nitp.ac.in,6122687419
141,NITIE,Maharashtra,Mumbai,mdph.nitie@gmail.com,
142,Indian Institute of Management,West Bengal,Kolkata,director@iimcal.ac.in,
143,Al-Falah School of Engineering & Technology (AFSET)?,Haryana,Faridabad,info@alfalahuniversity.edu.in,9818834908
144,Swami Devi Dayal College of Nursing,Haryana,Panchkula,sddiet_panchkula@yahoo.co,258266
145,Swami Devi Dyal College of Technical Education,Haryana,Panchkula,admission@sddgpi.com,9988889031
146,NATIONAL INSTITUTE OF TECHNOLOGY SILCHAR,Assam,Cachar,head.nit.s@gmail.com,
147,NATIONAL INSTITUTE OF TECHNOLOGY KURUKSHETRA,Haryana,Kurukshetra,registrar@nitkkr.ac.in,
148,VISVESVARAYA NATIONAL INSTITUTE OF TECHNOLOGHY NAGPUR,Maharashtra,Nagpur,dr_acd@vnit.ac.in,
149,NATIONAL INSTITUTE OF TECHNOLOGY  CALICUT KERALA,Kerala,Kozhikode,director@nitc.ac.in,
150,NATIONAL INSTITUTE OF TECHNOLOGY  RAIPUR,Chhattisgarh,Raipur,registrar@nitrr.ac.in,
151,INDIAN INSTITUTE OF TECHNOLOGHY DELHI,Delhi,New Delhi,webmaster@admin.iitd.ac.in,
152,NATIONAL INSTITUTE OF FASHION TECHNOLOGY,Delhi,New Delhi,admission@niftindia.com,
153,INDIAN INSTITUTE OF TECHNOLOGY MADRAS,Tamil Nadu,Chennai,registrar@iitm.ac.in,
154,VELLORE INSTITUTE OF TECHNOLOGY,Tamil Nadu,Vellore,director.ir@vit.ac.in,
155,NATIONAL INSTITUTION OF TECHNOLOGY ROURKELA,Orissa,Sundargarh,ar-acaugpg@nitrkl.ac.in,
156,Vidya Vikas Institute of Engineering & Technology,Karnataka,Mysore,info@vidyavikas.edu.in,2471232
157,Dileef College of Nursing,Andhra Pradesh,Nellore,dileefnursing@gmail.com,8612366250
158,Technocrats institute of technology (excellence),Madhya Pradesh,Bhopal,titexcellence0191@gmail.c,8305279360
159,Malaviya National Inst. Of Technology,Rajasthan,Jaipur,ugscholarship.mnit@gmail.com,
160,"School of Planning & Architecture, Delhi",Delhi,New Delhi,spandregistrar@gmail.com,
161,"Institute of Technoloty, Banaras Hindu University",Uttar Pradesh,Varanasi,registrar@iitbhu.ac.in,
162,Indian Institute of Information Technology,Andhra Pradesh,Hyderabad,"placements@iiit.ac.in ,query@iiit.ac.in",
163,Birla Institute of  Technology,Andhra Pradesh,Hyderabad,bits6065@gmail.com,
164,Indian Institute of Management Raipur,Chhattisgarh,Raipur,cao@iimraipur.ac.in,
165,Indian Institute of Forest Management,Madhya Pradesh,Bhopal,pfm@iifm.ac.in,7552775716
166,Bharati Vidyapeeth,Maharashtra,Pune,info@bharatividyapeeth.edu,
167,L.N. Mishra Institute of  Economic Development & Social Change,Bihar,Patna,lnmipat@gmail.com,
168,National Institute of Rural Development,Andhra Pradesh,Hyderabad,"cit@nird.gov.in,admin@nird.gov.in,regr@nird.gov.in,",
169,National Law Institute University,Madhya Pradesh,Bhopal,nliu@nliu.ac.in,
170,Hidayatullah National Law University,Chhattisgarh,Raipur,registrar@hnlu.ac.in,
171,Gandhi Medical College,Andhra Pradesh,Hyderabad,gmc_hyd@ap.nic.in,
172,B J Medical College,Gujarat,Ahmedabad,dean.bjmc@hotmail.com,
173,"Institute of  Medical Sciences, Banaras Hindu University",Uttar Pradesh,Varanasi,directorims@gmail.com,
174,King Edward Memorial Hospital,Maharashtra,Mumbai,websitecontact@kem.edu,
175,Central Institute of Agricultural Engineering,Madhya Pradesh,Bhopal,pst@ciae.res.in,
176,Indian Statistical Institute,West Bengal,Kolkata,postmaster@isical.ac.in,
177,COLLEGE OF ENGINEERING,Orissa,Khordha,principal@oec.ac.in,
178,Emax School of Engg & Applied Research,Haryana,Ambala,info@emaxinstitutes.com,1734269700
179,Rajarajeshwari College Of Nursing,Karnataka,Bangalore,rajarajeswaricollegeofnursing@gmail.co,9448057163
180,National Institute of Fashion Technology,Tamil Nadu,Chennai,admission@niftindia.com,
181,National Institute of Fashion Technology,Andhra Pradesh,Hyderabad,nift.hyderabad@nift.ac.in,
182,National Institute of Fashion Technology,West Bengal,Kolkata,nift.hyderabad@nift.ac.in,
183,National Institute of Fashion Technology,Bihar,Patna,director.patna@nift.ac.in,
184,National Institute of Design,Gujarat,Ahmedabad,academic@nid.edu,
185,"Institute of Hotel Management, Catering & Nutrition",Delhi,New Delhi,ihmpusa@rediffmail.com,
186,"Institute of Hotel Management, Catering Technoloty & Applied Nutrition",Rajasthan,Jaipur,ihm_jpr@rediffmail.com,
187,"Institute of Hotel Management, Catering Technoloty & Applied Nutrition",West Bengal,Kolkata,"mail@ihmkolkata.org,",
188,Andhra Pradesh Flying Club,Andhra Pradesh,Hyderabad,apaahyd@gmail.com,
189,Rajasthan State Flying School,Rajasthan,Jaipur,rsfsengg@gmail.com,
190,National Institute for the Orthopaedically Handicapped,West Bengal,Kolkata,mail@nioh.in,
191,Film and Television Institute  of India,Maharashtra,Pune,"tutorial_sec@ftiindia.commultimedia@ftiindia.com",
192,GANDHI INSTITUTE OF INDUSTRIAL TECHNOLOGY,Orissa,Ganjam,giitberhampur@rediffmail.com,
193,BANSTHALI UNIVERSITY,Rajasthan,Tonk,"saditya@banasthali.ac.in ,pchitra@banasthali.ac.in",
194,B.I.T EXTENTION ALLAHABAD,Uttar Pradesh,Allahabad,bitallahabad@bitmesra.ac.in,
195,TATA INSTITUTE OF SOCIAL SCIENCES,Maharashtra,Mumbai,vikram.bairagi@tiss.edu,
196,"NIFT, MUMBAI",Maharashtra,Navi Mumbai,nift.mumbai@nift.ac.in,
197,SRI SIDDHARTHA INSTITUTE OF TECHNOLOGY,Karnataka,Tumkur,principal@ssit.edu.in,
198,INSTITUTE OF ADVANCED MANAGEMENT,West Bengal,Kolkata,rina.majumder@iam.ac.in,
199,TRUBA INSTITUTE OF ENGG & IT,Madhya Pradesh,Bhopal,registrartieit@trubainsti,7552734691
200,"DAYANANDA SAGAR COLLEGE, BANGALORE",Karnataka,Bangalore,ppl-dsce@dayanandasagar.edu,
201,MARINE ENGINEERING & RESEARCH INSTITUTE,Maharashtra,Mumbai,director.mum@imu.co.in,
202,"ENGINEERING COLLEGE, BIKANER",Rajasthan,Bikaner,principal@ecb.ac.in,
203,VEL TECH DR. RR & DR. SR TECHNICAL UNIVERSIY,Tamil Nadu,Chennai,admission@vel-tech.org,
204,"RURAL ENGG. COLLEGE ,BHALKI",Karnataka,Bidar,bipinji@yahoo.com,
205,"SIKKIM MANIPAL UNIVERSITY,DELHI",Delhi,South Delhi,"info@smudelhi.in ,smucordinator@iacm-india.com, dec@iacm-india.com",
206,DOON PG COLLEGE OF AGRI. SC. & TECH,Uttarakhand,Dehradun,doonmedagri@rediffmail.com,
207,SAGAR INSTITUTE OF RESEARCH & TECHNOLOGY,Madhya Pradesh,Bhopal,registrar.sirte@gmail.com,7553983180
208,MATS UNIVERSITY,Chhattisgarh,Raipur,info@matsuniversity.ac.in,
209,"VNIT,NAGPUR",Maharashtra,Nagpur,dr_acd@vnit.ac.in,
210,SUBAS INSTITUTE OF TECHNOLOGY (SIT),Orissa,Khordha,subas.academic@gmail.com,
211,RATTAN INSTITUTE OF TECHNOLOGY & MANAGEMENT,Haryana,Palwal,info@rattaninstitute.ac.in,
212,KOUSTUV INSTITUTE OF TECHNOLOGY BHUBANESWAR,Orissa,Khordha,kit@koustuvgroup.ac.in,
213,"NIFT, KOLKATA",West Bengal,Kolkata,jointdirectorkolkata@nift.ac.in,
214,SIR MVIT BANGALORE,Karnataka,Bangalore,principal@sirmvit.edu,
215,REVA INSTITUTE OF TECHNOLOGY AND MANAGEMENT,Karnataka,Bangalore,principal@revainstitution,
216,C.V.RAMAN COLLEGE OF ENGINEERING,Orissa,Khordha,dsw@cvrgi.edu.in,
217,SCHOOL OF NURSING DUNCAN HOSPITAL,Bihar,East Champaran,info@ehausa.org,
218,JAIPUR ENGINEERING COLLEGE & RESEARCH CENTER,Rajasthan,Jaipur,info@jecrcmail.com,
219,MALOUT INSTITUTE OF MANAGEMENT & INFO TECH,Punjab,Muktsar,principalmimitmalout@gmail.com,1637504302
220,"ST. THOMAS COLLEGE, BHILAI",Chhattisgarh,Durg,info@stthomascollege.net,
221,BHABHA ENGINEERING RESEARCH INSTITURE,Madhya Pradesh,Bhopal,bhabhaacad0129@gmail.com,7554008887
222,ADESH INSTITUTE OF ENGINEERING & TECHNOLOGY,Punjab,Faridkot,aietfaridkot@gmail.com,1639240001
223,INSTITUTE OF ADVANCED COMPUTER & RESEARCH,Orissa,Rayagada,"iacr_engg@yahoo.com,",
224,FUTURE INSTITUE OF ENGINEERING & MANAGEMENT,West Bengal,Kolkata,fiem.administration@teamfuture.in,
225,AMRITSAR COLLEGE OF ENGINEERING & TECHNOLOGY,Punjab,Amritsar,contact@acetamritsar.org,
226,"FACULTY OF ENGINEERING & TECHNOLOGY,GKU, HARIDWAR",Uttarakhand,Haridwar,registrar@gkv.ac.in,
227,"RKDF INSITUTE OF SCIENCE & TECHNOLOGY, BHOPAL",Madhya Pradesh,Bhopal,rkdfist.95@rediffmail.com,
228,NIFT - GANDHINAGAR,Gujarat,Gandhinagar,"jointdirector.gandhinagar@gmail.com,director.gandinagar@nift.ac.in",
229,SIKKIM MANIPAL INSTITUTE OF TECHNOLOGY,Sikkim,East Sikkim,smit@smu.edu.in,3592246353
230,"NALANDA INSTITUTE OF TECHNOLOGY,BBSR",Orissa,Khordha,nitbbsr_2007@yahoo.co.in,
231,"ST XAVIERS COLLEGE, KOLKATA",West Bengal,Kolkata,principal@sxccal.edu,
232,BHUBANESWAR ENGINEERING COLLEGE (BEC),Orissa,Khordha,info@becbbsr.ac.in,6755211540
233,GLOBAL ACADEMY OF TECHNOLOGY BANGALORE,Karnataka,Bangalore,"info@gat.ac.in,admissions@gat.ac.in",
234,ADVENTIST COLLEGE OF NURSING,Karnataka,Bangalore,acn@acnhs.edu.my,
235,NIT DURGAPUR,West Bengal,Bardhaman,deanac@admin.nitdgp.ac.in,3432755211
236,KOSHYS COLLEGE OF NURSING,Karnataka,Bangalore,info@koshysinstitutions.com,
237,SRI SANT GADGE BABA COLLEGE OF ENGG.&TECH,Maharashtra,Jalgaon,rps125@rediffmail.com,224364
238,KRUPAJAL ENGG. COLLEGE,Orissa,Khordha,kec_principal@krupajal.ac.in,
239,"SILICON INSTITUTE OF TECHNOLOGY, SAMBALPUR",Orissa,Sambalpur,directorwest@silicon.ac.in,
240,BANASTHALI VIDYAPITH,Rajasthan,Jaipur,deanadmin@banasthali.ac.in,
241,NIT TIRUCHIRAPPALLI,Tamil Nadu,Tiruchirappalli,dean@nitt.edu,
242,SEEMANTA INSTITUTE OF PHARMACEUTICAL SCIENCES,Orissa,Mayurbhanj,sipspharmacy@gmail.com,
243,"INSTITUTE OF  HOTEL MANAGEMENT,BANGALORE",Karnataka,Bangalore,ihmbengaluru@gmail.com,
244,GANDHI ENGINEERING COLLEGE,Orissa,Khordha,info@gandhi.ac.in,7381054170
245,HERITAGE INSTITUTE OF TECHNOLOGY,West Bengal,Kolkata,admin@heritageit.Edu,9830014571
246,SAROJ MOHAN INSTITUTE OF TECHNOLOGY,West Bengal,Hooghly,info@smit.ac.in,
247,LOVELY PROFESSIONAL UNIVERSITY,Punjab,Kapurthala,anil.11928@lpu.co.in,8146100818
248,RADHARAMAN INSTITUTE OF TECHNOLOGY & SCIENCE,Madhya Pradesh,Bhopal,directorrits2003@gmail.co,7552896660
249,PURUSHOTTAM INSTITUTE OF ENGINEERING & TECHNOLOGY,Orissa,Sundargarh,rkl_piet@piet.ac.in,
250,"INTEGRAL UNIVERSITY, LUCKNOW",Uttar Pradesh,Lucknow,info@integraluniversity.ac.in,
251,OXFORD COLLEGE OF ENGINEERING & MANAGEMENT,Orissa,Khordha,oxfordcollegeofengg@gmail.com,
252,NETAJI SUBHASH ENGINEERING COLLEGE,West Bengal,Kolkata,director_nsec@yahoo.co.in,3324361285
253,SRI SATYA SAI COLLEGE OF ENGINEERING,Madhya Pradesh,Bhopal,ssscerkdf@gmail.com,9893877564
254,MAHAVIR INSTITUTE OF ENGINEERING & TECHNOLOGY,Orissa,Khordha,info@miet.edu.in,6742556582
255,BENGAL COLLEGE OF ENGINEERING AND TECHNOLOGY,West Bengal,Bardhaman,bcet_dgp@rediffmail.com,3432533187
256,SOBHASARIA ENGINEERING COLLEGE,Rajasthan,Sikar,info@secs.ac.in,
257,MALLABHUM  INSTITUTE OF TECH.,West Bengal,Bankura,info@mitbishnupur.ac.in,
258,RAJEEV GANDHI PROUDYOGIK MAHAVIDYALAYA,Madhya Pradesh,Bhopal,"egov@rgtu.net , vcoffice@rgtu.net",9826910622
259,MAGHNAD SAHA INSTITUTE OF TECHNOLOGY,West Bengal,Kolkata,msitcollege09@gmail.com,
260,STANI MEMORIAL COLLEGE OF ENGINEERING AND TECHNOLOGY,Rajasthan,Jaipur,smcet@smcet.in,
261,ADITYA ENGINEERING COLLEGE,Andhra Pradesh,East Godavari,principal@aec.edu.in,
262,Godavari Institute of Engineering & Technology,Andhra Pradesh,East Godavari,principal@giet.ac.in,
263,Sri Ram School of Nursing,Andhra Pradesh,East Godavari,principal.sriram763@yahoo,8912514511
264,Newtons Institute of Engineering,Andhra Pradesh,Guntur,info@newtona1.com,
265,"Nalanda Institute of  Technology, Siddharth Nagar",Andhra Pradesh,Guntur,nalanda_tech@yahoo.co.in,
266,Amara Institute of Engineering & Technology,Andhra Pradesh,Guntur,aietnrt@gmail.com,9652060000
267,Koneru Lakshmyiah College of Engineering,Andhra Pradesh,Guntur,chairman@klce.ac.in,
268,Nalanda Institute of Engineering & Technology,Andhra Pradesh,Guntur,principal@nalandacolleges.com,
269,GUNTUR ENGINEERING COLLEGE,Andhra Pradesh,Guntur,"principalgec@gmail.com,gunturenggcollege@gmail.com",
270,NRI Institute of Technology  visadala Medikonduru Guntur,Andhra Pradesh,Guntur,nriit.guntur@gmail.com,
271,Chaitanya Bharathi Institute of Technology,Andhra Pradesh,Kadapa,info@cbit.edu.in,
272,NIMRA COLLEGE OF ENGINEERING AND TECHNOLOGY,Andhra Pradesh,Krishna,principal_nimra@yahoo.co.,8662882010
273,Nagarjuna School of Nursing,Andhra Pradesh,Krishna,nagschool@gmail.com,
274,NIMRA INSTITUTE OF SCIENCE AND TECHNOLOGY,Andhra Pradesh,Krishna,principal_w3@yahoo.co.in,8662882911
275,"School of Planning and Architecture, Vijayawada",Andhra Pradesh,Krishna,info@spav.ac.in,
276,Nagarjun Hospital Collage of Nursing,Andhra Pradesh,Krishna,nagschool@gmail.com,
277,Balaji School of Nursing,Andhra Pradesh,Nellore,balajinursingschool@yaho,8612366250
278,Murali Krishna School of Nursing,Andhra Pradesh,Nellore,"muralikrishnanlr4@gmail.com,msdgp@yaho",8612322531
279,RICH COLLEGE OF NURSING,Andhra Pradesh,Nellore,orc.coonmnellore@gmail.com,8612310377
280,"MALYADRI SCHOOL OF NURSING, NELLORE",Andhra Pradesh,Nellore,malyadrisonnlr@gmail.com,8616454409
281,Sri Padmavathi School of Nursing,Andhra Pradesh,Nellore,sripadmavathisonnlr@gmail,8612300823
282,"Sri Bhargavi School of Nursing, Nellore",Andhra Pradesh,Nellore,sribhargavison@gmail.com,8612322531
283,Narayan Nursing Institution,Andhra Pradesh,Nellore,narayana_nursing@yahoo.co.in,
284,Bollineni School of Nursing,Andhra Pradesh,Nellore,bollinenicollege@yahpoo.co.in,
285,Dileef School of Nursing,Andhra Pradesh,Nellore,dileef_nursing@yahoo.com,8612329903
286,J.S. College of Nursing.Ongole,Andhra Pradesh,Prakasam,jsconongole@gmail.com,8592235396
287,S.S.N. ENGINEERING COLLEGE,Andhra Pradesh,Prakasam,ssneco@yahoo.com,
288,Sri Venkateswara College of Engineering & Technology,Andhra Pradesh,Srikakulam,principal_svcet@yahoo.com,
289,Visakha Technical Campus,Andhra Pradesh,Visakhapatnam,vietvsp@gmail.com,
290,Visakha  School of Nursing,Andhra Pradesh,Visakhapatnam,visakhasonvskp@gmail.com,8916457115
291,Murli Krishna School of Nursing,Andhra Pradesh,Visakhapatnam,msdgp@yahoo.com,
292,College of Life Sciences  Nursing Krishi Hospital,Andhra Pradesh,Visakhapatnam,clsvizag@gmail.com,8916522881
293,Manisha College of Nursing Krishi Hospital,Andhra Pradesh,Visakhapatnam,manishanursing.vizag@gmai,8912514511
294,Minerva School of Nursing Krishi Hospital,Andhra Pradesh,Visakhapatnam,minervaoffice27@gmail.com,8912514511
295,ST. Lukes School of Nursing,Andhra Pradesh,Visakhapatnam,admin@stlukesindia.org,
296,Academy of Life Sciences Nursing,Andhra Pradesh,Visakhapatnam,principal.als@gmail.com,8916522881
297,Chaitanya College of Pharmacy,Andhra Pradesh,Prakasam,pharmacychaitanya@gmail.c,7799971207
298,Indira Institute of Technology & Sciences,Andhra Pradesh,Prakasam,iitsmarkapur@gmail.com,7799971200
299,Siddhartha School of Nursing,Andhra Pradesh,Visakhapatnam,thallavrao@yahoo.com,
300,Bethany School of Nursing,Andhra Pradesh,Visakhapatnam,bethanyschoolofnursing@gmail.com,
301,Sagardurga School of Nursing,Andhra Pradesh,Visakhapatnam,sagardurgaschool@gmail.co,8801111011
302,"Indian Maritime University, Visakhapatnam Campus (NSDRC)",Andhra Pradesh,Visakhapatnam,itadmin@nsdrc.com,
303,D D R School of Nursing,Andhra Pradesh,Visakhapatnam,ddrschoolofnursing@gmail.,9492533624
304,"INDIAN INSTITUTE OF TECHNOLOGY,GUWAHATI",Assam,Kamrup,"director@iitg.ernet.in ,registrar@iitg.ernet.in",
305,Dr Zakir Husain Institute,Bihar,Bhagalpur,bhagalpur@zhi.org.in,
306,Bhagalpur Industrial Training Institute,Bihar,Bhagalpur,bhagalpur101@gmail.com,
307,Marwari College .,Bihar,Bhagalpur,info@marwaricollegebgp.ac.in,
308,T.N.B. Law College,Bihar,Bhagalpur,principal@tnblawcollegebgp.org,
309,T. N. B. College,Bihar,Bhagalpur,principaltnb@rediffmail.com,
310,"Maulana Azad College Of Engineering & Technology, Patna",Bihar,Patna,contact@macet.net.in,
311,Krishna Public School,Bihar,Patna,public.krishna@gmail.com,
312,Department of Applied Economics & Commerce,Bihar,Patna,info@deptaecpu.in,
313,SCHOOL OF NURSING KURJI HOLY FAMILY HOSPITAL,Bihar,Patna,khfhcollegeofnursing@gmail.com,
314,Netaji Subhash Institute of Technology,Bihar,Patna,info@nsit.in,
315,"Bihar National College, Patna",Bihar,Patna,biharnationalcollege89@gmail.com,
316,"Loyola Industrial School, Patna",Bihar,Patna,loyolaiti@gmail.com,
317,"B. I. T., Patna Center",Bihar,Patna,bitpatna@bitmesra.ac.in,
318,"The Catalyst Academy, Patna",Bihar,Patna,info@tcaindia.com,
319,Raghunath Prasad Sharma Institute Of Technology,Bihar,Patna,info@rpsit.org.in,
320,Central University of Bihar,Bihar,Patna,so1@cub.ac.in,2226536
321,"St. Xavier s College of  Education,Patna",Bihar,Patna,sxcepatna@gmail.com,
322,"ST. MICHAEL S HIGH SCHOOL,DIGHA GHAT",Bihar,Patna,info@stmichaelspatna.edu.in,
323,Bharat Institute of  Aeronautics,Bihar,Patna,bia_patna@sify.com,
324,"National Institute of Fashion Technology,Bihar",Bihar,Patna,director.patna@nift.ac.in,
325,Takshila College of Education,Bihar,Patna,takshila_patna@yahoo.co.in,
326,"St Xavier s College,Patna",Bihar,Patna,contactus@xaviercollegepatna.org,
327,Tapindu Institute of Higher Studies,Bihar,Patna,director@tihspatna,
328,All India Institute of Medical Sciences Patna,Bihar,Patna,admin@aiimspatna.org,
329,Arcade Business College,Bihar,Patna,abcollege.patna@gmail.com,
330,Mirza Galib Teachers Training College,Bihar,Patna,info@mgttc.org,
331,NALANDA OPEN UNIVERSITY,Bihar,Patna,nalopuni@sancharnet.in,
332,Hari Narain Singh Institute of Teachers Education,Bihar,Rohtas,hnsite_sec@rediffmail.com,
333,Sityog Institute of Technology,Bihar,Aurangabad,sityogengg@yahoo.com,6186292401
334,SRI BHAGWAT PRASAD SINGH MEMORIAL B.Ed. COLLEGE,Bihar,Aurangabad,sri_bps_memorial_trust@yahoo.com,
335,Magadh Teachers Training College,Bihar,Aurangabad,info@mttcollege.co.in,
336,S.Sinha College,Bihar,Aurangabad,principal@ssinhacollege.co.in,
337,"COLLEGE OF  AGRICULTURAL ENGINEERING, PUSA",Bihar,Samastipur,info@raupusa.org,
338,Sant Maalik Memorial Institute,Bihar,Gaya,maalik_memorial@rediffmail.com,
339,MAGADH COLLEGE OF EDUCATION,Bihar,Gaya,mcegaya@gmail.com,
340,"Institute of Physiotherapy, Magadh University",Bihar,Gaya,physiomu@gmail.com,
341,Gyan Prakash College of Education,Bihar,Gaya,gpcegaya@gmail.com,
342,Buddha Institute of Technology,Bihar,Gaya,bodhgayabit@gmail.com,
343,Bhubha Institute of Technology,Bihar,Gaya,bodhgayabit@gmail.com,
344,Rashidiya Rani Sagari Teachers Education,Bihar,Gaya,rashidya.rani@rediffmail.com,
345,"ANUGRAH MEMORIAL COLLEGE, GAYA",Bihar,Gaya,principal@amcollegegya.org,
346,"Millat Teachers Training College, Madhubani",Bihar,Madhubani,info.mttccollege@gmail.com,
347,Mahatma Gandhi Shikshak Prashikshan Mahavidyalaya,Bihar,Banka,muktiniketan@rediffmail.com,
348,"Adwaita Mission Training College,Mandar Vidyapeeth",Bihar,Banka,info@adwaitamission.com,
349,"B.N.College of Education, Dhoraiya",Bihar,Banka,bnce08@gmail.com,9955418905
350,CENTRAL INSTITUTE OF PLASTICS ENGINEERING & TECHNOLOGY,Bihar,Vaishali,hazipur@cipet.gov.in,
351,Millia Institute OF Technology,Bihar,Purnea,info@mitpurnea.org.in,
352,Millia Polytechnic,Bihar,Purnea,info@milliapolytechnic.org,
353,Oriental College of Education,Bihar,Darbhanga,equbal@oceindia.com,
354,Azmet Institute of Technology,Bihar,Kishanganj,jhasan.azmet@gmail.com,
355,Khawaja Shahid Hussain  D.EL. ED. Teachers Training College,Bihar,Katihar,kshes@rediffmail.com,
356,"SAINT XAVIER S COLLEGE OF EDUCATION, AMBIKAPUR",Chhattisgarh,Surguja,xavierambikapur@gmail.com,
357,PARWATI INSTITUTE OF TRAINING RESEARCH & MANAGEMENT,Chhattisgarh,Surguja,parwatiinstituteoftraining@rediffmail.co,
358,"SHRI SAI BABA AADARSH MAHAVIDYALAYA, SARGUJA",Chhattisgarh,Surguja,principal@ssbam.co.in,
359,sarswati shiksha mahavidyalaya,Chhattisgarh,Surguja,ssmvambikapur@yahoo.co.in,
360,Swami Shri Swaroopanand Saraswati Mahavidyalaya,Chhattisgarh,Durg,ssiehudco@gmail.com,7882241600
361,Uday College,Chhattisgarh,Durg,udaycollege@yahoo.co.in,
362,"Bhilai College of Information Technology, Bhilai",Chhattisgarh,Durg,bit@bitdurg.ac.in,
363,Aryavart Shiksha Mahavidyalaya,Chhattisgarh,Durg,aryavartshikshamahavidyalaya@gmail.co,
364,Shri Shankaracharya Institute of technology Management,Chhattisgarh,Durg,ssgi@ssgi.edu.in,
365,Shri Shankaracharya Group of Institution,Chhattisgarh,Durg,ssgi@ssgi.edu.in,7882291605
366,"Khalsa Education Societys, Khalsa College",Chhattisgarh,Durg,khalsa@gmail.com,
367,Chhattisgarh Nursing College,Chhattisgarh,Durg,chhattisgarh91nursingcoll,2272050
368,Bhilai Maitri College,Chhattisgarh,Durg,info@bhilaimaitricollege.com,
369,"M. J. College, Bhilai",Chhattisgarh,Durg,info@mjcit.org,
370,"Chattisgarh Engineering College, Durg",Chhattisgarh,Durg,cecdurg@gmail.com,
371,"bhilai institute of technology, durg",Chhattisgarh,Durg,durgbit@gmail.com,
372,Raipur Institute of Technology,Chhattisgarh,Raipur,registrar@rit.edu.in,7713208842
373,Spectrum College of Education,Chhattisgarh,Raipur,info@spectrumcollege.in,
374,Pt. Harishankar Shukla Smriti college,Chhattisgarh,Raipur,harishankar_shukla95@yahoo.co.in,
375,Columbia College of Nursing,Chhattisgarh,Raipur,info@cietraipur.ac.in,
376,Shri Rawatpura  Sarkar Institute of Technology,Chhattisgarh,Raipur,info@sri.ac.in,
377,Columbia Institute of Engineering And Technology,Chhattisgarh,Raipur,"registrar@cietraipur.ac.in,info@cietraipu",
378,"Gracious college of Nursing, Belbhatha",Chhattisgarh,Raipur,graciouscollege@gmail.com,
379,BHILAI INSTITUTE OF TECHNOLOGY,Chhattisgarh,Raipur,bit@bitdurg.ac.in,
380,Christ College Jagdalpur,Chhattisgarh,Baster,principal_christcollege@yahoo.in,
381,Chattisgarh Dental College & Research Institute,Chhattisgarh,Rajnandgaon,cdcrirjn@gmail.com,
382,Central India College of Nursing,Chhattisgarh,Rajnandgaon,cicotrj@yahoo.in,
383,Dr. C. V. RAMAN UNIVERSITY,Chhattisgarh,Bilaspur,info.cvru@yahoo.com,
384,"Institute of Technology, Guru Ghashi Das University, Bilaspur",Chhattisgarh,Bilaspur,registrar@ggu.ac.in,
385,CHHATRAPATI SHIVAJI INSTITUTE OF TECHNOLOGY - DURG,Chhattisgarh,Durg,info@csitdurg.in,7882320884
386,"SAINT HARKEWAL SHIKSHA MAHAVIDAYALAYA, AMBIKAPUR C.G.",Chhattisgarh,Surguja,principal31shsm@gmail.com,7774231833
387,Ayush College of Education,Chhattisgarh,Bilaspur,admin@ayushcollege.co.in,
388,J.E.S College,Chhattisgarh,Bilaspur,info@jescollegeofeducation.com,
389,D.P. Vipra College of Education,Chhattisgarh,Bilaspur,dpvce_bilaspur@yahoo.co.in,
390,"Department of Education, Guru Ghasidas university",Chhattisgarh,Bilaspur,registrar@ggu.ac.in,
391,"Jagadguru Shankaracharya College of Education, Bhilai",Chhattisgarh,bhilai,jgsce@rediffmail.com,
392,"M.J. COLLEGE, Bhilai",Chhattisgarh,bhilai,info@mjcit.org,
393,Shri Shankaracharya Mahavidyalaya,Chhattisgarh,bhilai,ssmbhilai@hotmail.com,
394,Prism School of Education,Chhattisgarh,bhilai,rkgupta30@hotmail.com,
395,G.D. Rungta College of Science & Technology,Chhattisgarh,bhilai,info@rungta.ac.in,
396,R.S.R Rungta College of Engineering & Technology,Chhattisgarh,bhilai,rcet@rungta.ac.in,7886666666
397,Disha College,Chhattisgarh,bhilai,info@dishamail.com,
398,SHRI SHANKRACHARYA ENGINEERING COLLEGE,Chhattisgarh,bhilai,ssecbhilai@gmail.com,
399,Rungta College of EngineeringTechnology,Chhattisgarh,bhilai,rcet@rungta.ac.in,7886666666
400,Rahod education society,Chhattisgarh,Janjgir-Champa,info@resrahod.com,
401,Utkarsh College of Education,Chhattisgarh,Janjgir-Champa,mrrc01@rediffmail.com,
402,Pandit Harishankar College,Chhattisgarh,Janjgir-Champa,pandeyji.1009@rediffmail.com,
403,Jagrani Devi Siksha Mahavidyalaya,Chhattisgarh,Janjgir-Champa,jrd.cllege@yahoo.co.in,
404,Gyanodaya College of Education,Chhattisgarh,Janjgir-Champa,dist.janjgir-champanfo@gyanoday.com,
405,KONARK COLLEGE OF EDUCATION,Chhattisgarh,Janjgir-Champa,gaurav.goyal@gmail.com,
406,Gyan Roshni Lok Kalyan Sanstha,Chhattisgarh,Janjgir-Champa,"akhileshkatakwar@rediffmail.com,mail@gyanroshni.com",
407,Viswa Bharathi Institute Konta,Chhattisgarh,Dante Wada,link_drrakesh@rediffmail.com,
408,Hasdeo education  college,Chhattisgarh,Korba,des.korba@gmail.com,9425519924
409,OP Jindal Institute of Technology(OPJIT),Chhattisgarh,Raigarh,registrar@opjit.edu.in,304000
410,College of Vocational studies,Delhi,Central Delhi,principal.ij@cvs.du.ac.in,
411,Shyamlal college,Delhi,East Delhi,principal@shyamlal.du.ac.in,
412,GOVINDAM BUSINESS SCHOOL,Delhi,East Delhi,info@govindam.org,
413,Hans Raj College,Delhi,New Delhi,"principal_hrc@yahoo.com,principal@hansrajcollege.co.in",
414,ATM Global business School,Delhi,New Delhi,dg@atm.edu.in,
415,All India Institute of Medical Sciences,Delhi,New Delhi,reg@aiims.ac.in,
416,GURU GOBIND SINGH INDRAPRASTHA UNIVERSITY,Delhi,New Delhi,info@ipu.ac.in,
417,The Institution of Electronics & Telecommunication Engineers,Delhi,New Delhi,president@iete.org,
418,Banarsidas Chandiwala Institute of Information Technology,Delhi,New Delhi,director@bciit.ac.in,
419,"Institute of Hotel Management, Pusa",Delhi,New Delhi,ihmpusa@rediffmail.com,
420,Jamia Millia Islamia University,Delhi,New Delhi,mranjan@jmi.ac.in,
421,HINDU  COLLEGE  DELHI UNIVERSITY,Delhi,North Delhi,"principal@hinducollege.org,hinducol@del3.vsnl.net.in",
422,"DELHI TECHNOLOGICAL UNIVERSITY, Delhi",Delhi,North Delhi,info@dce.edu,
423,Pt. Deendayal Upadhyaya Institute for Physically Handicapped,Delhi,North Delhi,diriph@nic.in,
424,University Of Delhi,Delhi,North Delhi,registrar@du.ac.in,
425,"DELHI TECHNOLOGICAL UNIVERSITY (formerly DELHI COLLEGE OF ENGINEERING),Delhi",Delhi,North West Delhi,info@dce.edu,1127871018
426,Maharaja Agrasen Institute of Technology,Delhi,North West Delhi,nandkgarg@yahoo.com,
427,Keshav Mahavidyalaya,Delhi,North West Delhi,principal@keshav.du.ac.in,
428,"Jagannath International Management School,New Delhi",Delhi,South Delhi,admission@jagannath.org,
429,"NATIONAL INSTITUTE OF FASHION TECHNOLOGY,NEW DELHI",Delhi,South Delhi,nift.ho@nift.ac.in,
430,P.G.D.A.V. College,Delhi,South Delhi,info@pgdavevening.in,
431,College of Professional Courses,Delhi,South Delhi,info@cpceduworld.com,
432,jamia hamdard,Delhi,South Delhi,firdouswani@jamiahamdard.ac.in,
433,"INDIAN INSTITUTE OF TECHNOLOGY, DELHI",Delhi,South Delhi,webmaster@admin.iitd.ac.in,
434,Atma Ram Sanatan Dharma College,Delhi,South West Delhi,principal.arsdcollege@gmail.com,
435,AMITY SCHOOL OF ENGINEERING & TECHNOLOGY,Delhi,South West Delhi,ragarwal@amity.edu,
436,Shri Ram College of Commerce,Delhi,West Delhi,principal@srcc.edu,
437,Rukmini Devi Institute of Advanced Studies,Delhi,West Delhi,admin@rdias.ac.in,
438,Gitarattan International Business School,Delhi,West Delhi,gibs@gitarattan.edu.in,
439,Indira Ghandi Institute of Physical Education and Sports Sciences,Delhi,West Delhi,igipess.delhiuniversity@gmail.com,
440,Dhirubhai Ambani Institute of Information and Communication Technology,Gujarat,Gandhinagar,info@daiict.ac.in,
441,Geeta Engineering College,Haryana,Panipat,cao@geetainstitutes.com,9996623011
442,D.R.COLLEGE OF ENGG & TECH,Haryana,Panipat,drcenggpanipat@kuk.ac.in,
443,"Shri Ram Polytechnic,Panipat",Haryana,Panipat,info@srpolytech.com,9996107220
444,Samalkha Group Of Institutions,Haryana,Panipat,info@sgi.ac.in,
445,Panipat Institute of Engineering &Technology,Haryana,Panipat,info@piet.co.in,
446,GALAXY GLOBAL EDUCATIONAL TRUST s GROUP OF INSTITUTIONS,Haryana,Ambala,info@galaxyglobaledu.com,
447,Shree Ram Mulkh Institute of Engineering & Technology,Haryana,Ambala,srmiet@hotmail.com,
448,Maharishi Markandeshwar University,Haryana,Ambala,info@mmumullana.org,
449,ICL Institute of Diploma & Engineering,Haryana,Ambala,directorgen@iclhitech.com,
450,JAI POLYTECHNIC,Haryana,Ambala,mail@JAIGroup.in,
451,Emax Group of Institutions,Haryana,Ambala,info@emaxinstitutes.com,
452,Shree Birkha Ram College of Education,Haryana,Ambala,srmiet@hotmail.com,
453,G.D. Polytechnic Bhuna,Haryana,Fatehabad,info@gdcollege.org,
454,MM Polytechnic,Haryana,Fatehabad,mmppoly@hry.nic.in,
455,Sat Kabir Institute of Technology & Management,Haryana,Jhajjar,skitm@rediffmail.com,9991187052
456,Gyan Bharti College of Education,Haryana,Karnal,mail@gyanbharticollege.com,
457,DOON VALLEY INSTITUTE OF ENGINEERING & TECHNOLOGY,Haryana,Karnal,info@doonvalley.org,
458,Karnal Institute of Polytechnic,Haryana,Karnal,scholarship@kitmkarnal.co,9215345200
459,Greenwood College of Education,Haryana,Karnal,info@greenwoodinstitutes.com,
460,RASHOBA COLLEGE OF EDUCATION,Haryana,Sirsa,rashobacollege@yahoo.com,
461,Bhiwani Institute of Technology & Sciences,Haryana,Bhiwani,info@bitsbhiwaniindia.org,1664215925
462,BITS College of Polytechnic,Haryana,Bhiwani,info@bitsbhiwaniindia.org,
463,Gurgaon Institute of Technology & Management,Haryana,Gurgaon,info@gitm.ac.in,
464,ITM University.,Haryana,Gurgaon,daulet@itmindia.edu,
465,BM College of Technology & Management,Haryana,Gurgaon,"accounts.technology@bmcollege.ac.in ,info@bmcollege.ac.in",
466,GLOBAL INSTITUTE OF TECHNOLOGY & MANAGEMENT,Haryana,Gurgaon,info@gitmgurgaon.com,
467,World College of Technology and Management,Haryana,Gurgaon,admin@wctmgurgaon.com,
468,Amity University Haryana,Haryana,Gurgaon,info@ggn.amity.edu,
469,Jind Polytechnic College,Haryana,Jind,jpc.jind@gmail.com,9996007595
470,Jai Bharat College Education,Haryana,Jind,mail@jbcoeducation.org,
471,Ram Narayan Institute of Education,Haryana,Jind,contactus@rnesindia.org,
472,J.B.M College of Education,Haryana,Jind,info@jbmcoe.com,
473,Adarsh Polytechnic,Haryana,Jind,adarshcollegeedu@rediffma,9215139636
474,NIT Kurukshetra,Haryana,Kurukshetra,registrar@nitkkr.ac.in,
475,Mahabir College Of Education For Women,Haryana,Kurukshetra,mahabircoe1@indiatimes.com,
476,Ashtvinayak Institute of Technology,Haryana,Kurukshetra,ragarwal@amity.edu,9991922233
477,Technology education & research integrated institutions,Haryana,Kurukshetra,info@terii.in,
478,Adarsh College Of Education,Haryana,Kurukshetra,info@adarshcoe.com,
479,Ladwa College of Education,Haryana,Kurukshetra,ladwacollegeofeducation@yahoo.in,
480,Dr.B R AMBEDKAR COLLEGE OF EDUCATION,Haryana,Kurukshetra,info@brambedkar.in,
481,"Sardar Kewal Singh Polytechnic, Kirmach",Haryana,Kurukshetra,sksmetkkr@gmail.com,
482,Kurukshetra University,Haryana,Kurukshetra,registrarkuk@gmail.com,
483,Ch. Matu Ram College of Education,Haryana,Kurukshetra,cmrcoe2009@yahoo.com,
484,Saraswati College of  Education.,Haryana,Mohindergarh,info@saraswaticollege.com,
485,ICL Institute of Technical Education,Haryana,Ambala,dir.bd@iclhitech.com,8602002229
486,ICL Institute of EngineeringTechnology,Haryana,Ambala,dir.bd@iclhitech.com,8602002229
487,Triupati College of Education,Haryana,Fatehabad,tirupatiedu@rediffmail.com,44124
488,"Delhi College of Technology & Management, Palwal",Haryana,Palwal,info@dctm.edu.in,
489,NGF College of Engineering & Technology,Haryana,Palwal,info@ngfcet.in,9416066717
490,Satya College of Engineering & Technology,Haryana,Palwal,info@satyaedu.org,
491,Mata Raj Kaur Institute Of Engineering & Technology,Haryana,Rewari,"admin@mrk.ac.in, registr",9315244112
492,National Institute of Food Technology Entrepreneurship and Management,Haryana,Sonipat,admission.niftem@gmail.com,
493,Modern College of education  .,Haryana,Sonipat,emailsaurabh@haoo.co.in,
494,Royal Institute of Management & Technology,Haryana,Sonipat,rimtgohana@gmail.com,
495,Delhi Institute of Technology and Management,Haryana,Sonipat,info@dctm.edu.in,
496,P.M. Polytechnic,Haryana,Sonipat,info@pmkami.com,
497,INTERNATIONAL INSTITUTE OF TECHNOLOGY & BUSINESS,Haryana,Sonipat,2008gres@gmail.com,
498,Gateway Institute of Engineering &Technology,Haryana,Sonipat,GIETSONIPAT@GMAIL.COM,9728100231
499,Bhagat Phool Singh Mahila Vishwavidyalaya,Haryana,Sonipat,enquiry@bpswomenuniversity.ac.in,
500,"Bharat Institute of Polytechnic, Sonepat",Haryana,Sonipat,bits.sonepat@gmail.com,
501,Bharat Institute of Technology Sonipat,Haryana,Sonipat,bits.sonepat@gmail.com,
502,"Shri Ram Memorial College of Education, BIDHLAN",Haryana,Sonipat,info@srmesnp.com,
503,"D.B.M College of Education, Sonepat",Haryana,Sonipat,"info@dbmcollege.gmail.com,info@dbmcollege.com",
504,"JAWAHARLAL NEHRU COLLEGE OF EDUCATION, Gohana",Haryana,Sonipat,"jlnc@yahoo.co.in,jlngohana@gmail.com",
505,Mukhi College of Education,Haryana,Sonipat,mukhicollege@gmail.com,
506,MRM College of Education Sonipat,Haryana,Sonipat,info@mrmcollege.in,
507,DCS College of education,Haryana,Sonipat,dcseducation@yahoo.co.in,
508,DELHI INSTITUTE OF TECHNOLOGY MANAGEMENT AND RESEACH,Haryana,Faridabad,ditmr.fbd@gmail.com,
509,FACULTY OF ENGINEERING AND TECHNOLOGY(FET),Haryana,Faridabad,webmaster@fet.edu.jo,
510,Bimla Devi Educational Societys Group of Institution,Haryana,Faridabad,director@jbcollege.in,1292401006
511,"National Power Training Institute, Faridabad",Haryana,Faridabad,akmalik@npti.in,
512,Ambika College of Education,Haryana,Hisar,ambikacoe@gmail.com,
513,City College of Education,Haryana,Hisar,ccoeduhisar@gmail.com,
514,Arya College of Education,Haryana,Hisar,aryacollegeharyana@gmail.com,
515,C.L. College of Education,Haryana,Mahendragarh,clcennl_001@yahoo.co.in,
516,B.R. College of Education,Haryana,Mahendragarh,brcollegeofeducation07@gmail.com,
517,Yaduvanshi College/Institute Of  Education,Haryana,Mahendragarh,yaduvanshigroups@rediffmail.com,
518,Modern College of Education,Haryana,Mahendragarh,moderngroupedu@gmail.com,
519,sarswati college of education .,Haryana,Mahendragarh,askus@mses.info,
520,Rao Lal Singh College of Education,Haryana,Mahendragarh,rls.principal@gmail.com,
521,Aravali College of Education,Haryana,Mahendragarh,aravalikarota@gmail.com,
522,Swami Devi Dayal Institute of Engineering,Haryana,Panchkula,"admission@sddgpi.com,tpc.sddiet@gmai",
523,Swami Devi Dyal College of Education.,Haryana,Panchkula,sddce_panchkula@yahoo.com,
524,"Indian Institute of Management,Rohtak",Haryana,Rohtak,pgpadmission@iimrohtak.ac.in,
525,S S M College of Education,Haryana,Rohtak,info@ssmcollege.info,
526,Yash College of Education,Haryana,Rohtak,info@yashcollege.in,
527,Vaish College,Haryana,Rohtak,veertk@hry.nic.in,
528,Hari om shiv om college of education,Haryana,Yamunanagar,info.hariomshivom@gmail.com,
529,Shree ganesh polytechnic,Haryana,Yamunanagar,ganpatibilaspur@gmail.com,1735306000
530,Swami Vivekanand College of Education.,Haryana,Yamunanagar,swamivivekanandedu@yahoo.in,
531,SHRI BALAJI POLYTECHNIC,Haryana,Yamunanagar,balajipolytechnic@yahoo.com,
532,Tagore College of Education  .,Haryana,Mohindergarh,info@tagoreinstitutions.org,
533,JKP polytechnic,Haryana,Sonipat,info@jkppolytechnic.com,8059000677
534,Bhartiya  College Of  Education,Haryana,Mahendragarh,bhartiyabed@gmail.com,9416348329
535,Ganpati Polytechnic for Engineering,Haryana,Yamunanagar,gpe.ganpati@gmail.com,9315322288
536,Baba Jai Ram Dass College of Education,Haryana,Mohindergarh,secretarybjrd@gmail.com,
537,Akash Institute of Technology,Haryana,Mohindergarh,"akashpolytechnickanina@gmail.com,akashkanina@gmail.com",
538,Delhi Technical Campus,Haryana,Jhajjar,info@dtcmail.in,
539,Himachal Pradesh University Shimla,Himachal Pradesh,Shimla,gad.hpu@gmail.com,
540,SIRDA Institute of Engineering Technology,Himachal Pradesh,Mandi,sirda.edu@gmail.com,
541,National Institute of Technology .,Himachal Pradesh,Hamirpur.,director@nith.ac.in,
542,"Dev Bhumy Group of Institutes, Una",Himachal Pradesh,Una,dbet.edu@gmail.com,8894292236
543,Vishva Bharti College of Education,Jammu,Jammu Kashmir,vbce.principal@gmail.com,
544,University of Jammu,Jammu,Jammu Kashmir,registrar@cujammu.ac.in,
545,Ramisht  College of Education,Jammu,Kathua,ramishtcollegebasohli@rediffmail.com,
546,Lake City College of Education,Jammu,SRINAGAR,anwar_lakecity@yahoo.com,
547,Sai Shyam College of Education,Jammu,Jammu,contact@saishyameducationalsociety.co,
548,Gandhi Memorial College of Education,Jammu,Jammu,"gmcehesk@gmail.com,gmcehesk@rediffmail.com",
549,Guru Nanak College of Education,Jammu,Jammu,info@sgnet.co.in,
550,B.N College of Education,Jammu,Jammu,info@bneducationaltrust.org,
551,Taawish College of Education,Jammu,Jammu,aditya@taawish.com,
552,Hill People College of Education and Training,Jammu,Jammu,hillpeoplecollegeofeducation@gmail.com,
553,"Kalra College of Education,Udhampur",Jammu,Udhampur,kalrabed@gmail.com,
554,Garden City College,Karnataka,Bangalore,gcc@gardencitycollege.edu,
555,Sambhram Institute of Technology,Karnataka,Bangalore,saitprincipal@gmail.com,
556,Sri Krishna Institute of Technology,Karnataka,Bangalore,skit1princi@gmail.com,
557,ACHARYAS BANGALORE B-SCHOOL,Karnataka,Bangalore,admissions@acharyabbs.ac.in,
558,RR Institute,Karnataka,Bangalore,contact@rrinstitutions.com,
559,Faran College & School of Nursing,Karnataka,Bangalore,"info@faraneducationaltrust.org,fet_salimath",
"",,,,@yahoo.co.in,
560,ADMINISTRATIVE MANAGEMENT COLLEGE,Karnataka,Bangalore,admissionamc@amceducation.in,
561,"Indian Institute of Plantation Management, Bangalore",Karnataka,Bangalore,directoriipm@vsnl.net,23211716
562,"JSS ACADEMY OF TECHNICAL EDUCATION,BANGALORE",Karnataka,Bangalore,"jssatebangalore@gmail.co,info@jssateb.ac.i",9686677259
563,CMR Institute of Technology(CMRIT),Karnataka,Bangalore,ninfo@cmrit.ac.in,
564,Sri Venkateshwara College of Engineering,Karnataka,Bangalore,admissons@svcengg.com,
565,Nitte Meenakshi Institute of Technology,Karnataka,Bangalore,principal@nmit.ac.in,8022167800
566,PESIT,Karnataka,Bangalore,admissions@pes.edu,
567,"M S RAMAIYAH COLLEGE OF ARTS,SCIENCE & COMMERCE",Karnataka,Bangalore,principal.msrcasc@gmail.com,
568,Bangalore Institute of Technology,Karnataka,Bangalore,principalbit4@gmail.com,
569,"KNS Institute of Technology,Hedge Nagar",Karnataka,Bangalore,admissions@knsit.com,
570,MVJ COLLEGE OF ENGINEERING,Karnataka,Bangalore,principalengg@mvjce.edu.in,
571,Acharya Institute of Technology,Karnataka,Bangalore,viswasanathan@acharya.ac.in,9242983454
572,EAST WEST INSTITUTE OF TECHNOLOGY,Karnataka,Bangalore,"principal@ewit.edu,ewgi68@yahoo.co.in,eastwestcollege@vsnal.com",
573,HKBK College of Engineering,Karnataka,Bangalore,info@hkbkeducation.org,
574,"T.John College, Bangalore",Karnataka,Bangalore,info@tjohncollege.com,
575,East Point College of Engg & Tech,Karnataka,Bangalore,admissions@eastpoint.ac.in,
576,Sapthagiri College of Engineering,Karnataka,Bangalore,principal @sapthagiri.edu,8028372800
577,M S Ramaiah  Institute of Technology,Karnataka,Bangalore,admn@msrit.edu,8023607902
578,B.N.M Institute of Technology,Karnataka,Bangalore,bnmit.office@gmail.com,
579,K.S. INSTITUTE OF TECHNOLOGY,Karnataka,Bangalore,principal.ksit@gmail.com,
580,Raman Polytechnic,Karnataka,Bangalore,ramanpolytechnic@rediffmail.com,
581,Sir M. Visvesvaraya Institute of Technology,Karnataka,Bangalore,sirmvitbgl@gmail.com,
582,Royal Institutions,Karnataka,Bangalore,royalinstitutionsbangalore@yahoo.co.in,
583,"St. Josephs College of Commerce (Autonomous), Bangalore",Karnataka,Bangalore,admin@sjc.in,
584,Christ University,Karnataka,Bangalore,mail@christuniversity.in,
585,R N S  INSTITUTE OF TECHNOLOGY,Karnataka,Bangalore,principal@rnsit.ac.in,
586,Nagarjuna College of Engineering & Technology,Karnataka,Bangalore,principal@ncetmail.com,
587,Cambridge Institute of Technology,Karnataka,Bangalore,principal@citech.edu.in,
588,T.John Institute of Technology,Karnataka,Bangalore,tjitprincipal@tjohncollege.com,
589,"M.S ENGINEERING COLLEGE, BANGALORE",Karnataka,Bangalore,principal@msec.ac.in,
590,Vydehi Institute of Medical Sciences and Research Centre,Karnataka,Bangalore,info@vims.ac.in,
591,VIJAYANAGAR  COLLEGE  OF  NURSING,Karnataka,Bangalore,vijayanagarnursingcollege@gmail.com,
592,"R.L. Jalappa Institute of Technology,Kodigehali,Doddaballapur",Karnataka,Bangalore,"principal_rljit@rediffmail.com,director_rljit@rediffmail.com",
593,BMS Institute of Technology,Karnataka,Bangalore,principal@bmsit.in,
594,Reva Institute of Science & Management,Karnataka,Bangalore,enquiries@revainstitution.org,
595,R. V. Institute of Management,Karnataka,Bangalore,contact@rvim.in,
596,St. Theresa School of Nursing,Karnataka,Bangalore,contact@sttheresagroupofinstitutions.co,
597,Xavier Institute of Management & Entrepreneurship,Karnataka,Bangalore,xime@xime.org,
598,BMS College of Engineering,Karnataka,Bangalore,principal@bmsce.ac.in,
599,B T L Institute of Technology and Mangement,Karnataka,Bangalore,btladmissions@gmail.com,
600,AMC Engineering College,Karnataka,Bangalore,principal@amcec.edu.in,
601,SJB Institute of Technology,Karnataka,Bangalore,principal@sjbit.edu.in,
602,"S.E.A College of Engineering & Technology, Bangalore",Karnataka,Bangalore,seacetadmin@gmail.com,8025613419
603,HARSHA COLLEGE OF NURSING,Karnataka,Bangalore,"info@harshahospital.org,admission@harshainstitutions.com ,harshahospital@vsnl.net",
604,Rajiv Gandhi Institute of Technology,Karnataka,Bangalore,principal@rgit.ac.in,
605,Smt. Laxmi Devi College of Nursing,Karnataka,Bangalore Rural,smtlakshmidevicollegeofnsg2003@yahoo,
606,Harsha Group of Institute,Karnataka,Bangalore Rural,"contact@harshainstitutions.com,shivakumar@harshainstitution.com",
607,KLS Gogte Institute of Technology,Karnataka,Belgaum,"info@git.edu, principal@git.edu",8312498500
608,Shaikh College of Engineering & Technology,Karnataka,Belgaum,sannkam@sjbjm.org,
609,Ballari Institute of Technology & Management,Karnataka,Bellary,bitmbly@gmail.com,
610,Bilal College of Education For Women,Karnataka,Bidar,bilalbed@gmail.com,
611,Guru Nanak Dev Engineering College,Karnataka,Bidar,inquiry@gndecbidar.in,
612,Adichunchanagiri Institute of Technology,Karnataka,Chickmagalur,ait_ckm@yahoo.co.in,8262220444
613,S.J.M Institute Of Technology,Karnataka,Chitradurga,"principal@sjmit.ac.in,sjmitprincipal@gmail.com",
614,Masood School Of Nursing,Karnataka,Dakshina Kannada,mect_mangalore@yahoo.co.in,
615,National Institute of Technology Ka,Karnataka,Dakshina Kannada,rnath@nitk.ac.in,
616,Masood College of Nursing,Karnataka,Dakshina Kannada,mect_mangalore@yahoo.co.in,
617,St Anns Institute of Health Sciences,Karnataka,Dakshina Kannada,info@saintanns.in,
618,Bapuji Pharmacy College,Karnataka,Davangere,bapujipharmacycollege@yahoo.co.in,
619,S.D.M College of Engineering & Technology,Karnataka,Dharwad,principal@sdmcet.ac.in,
620,Y k d polytechnic,Karnataka,Gulbarga,khusro_200553@yahoo.in,
621,"ANANDA MARGA POLYTECHNIC, MALUR- TALUK",Karnataka,Kolar,anandamargapolytechnic427@rediffmail.,
622,Vijayalakshmi Polytechnic,Karnataka,Kolar,vlpkgf@gmail.com,269632
623,P.E.S. College of Engineering,Karnataka,Mandya,principal@pesce.ac.in,
624,Karnataka State Open University,Karnataka,Mysore,infoksou@yahoo.in,
625,CSIR-Central Food Technological Research Institute,Karnataka,Mysore,ttbd@cftri.res.in,
626,Jawaharlal Nehru National College of Engineering,Karnataka,Shimoga,principal@jnnce.ac.in,
627,Channabasaveshwara Institute of Technology,Karnataka,Tumkur,"scholarships@cittumkur.org,director@cittumkur.org",
628,Siddaganga Institute of Technology,Karnataka,Tumkur,director@sit.ac.in,
629,Shridevi Institute of EngineeringTechnology,Karnataka,Tumkur,info@shrideviengineering,8162212629
630,Shridevi Polytechnic,Karnataka,Tumkur,shridevipolytechnic@gmail.com,
631,H.M.S. Institute of Technology,Karnataka,Tumkur,info@hmsit.ac.in,8162214313
632,Sikkim Manipal University,Karnataka,Udupi,info@smu.edu.in,
633,Manipal Institute of Technology Manipal,Karnataka,Udupi,registrar@manipal.edu,8202922499
634,P.A. College of Engineering,Karnataka,Mangalore,info@pace.edu.in,8242284701
635,K.S.Hegde Medical Academy,Karnataka,Mangalore,dean.kshema@nitte.edu.in,
636,Ghousia College of Engineering.,Karnataka,Ramanagara,principal_gce@hotmail.com,
637,"Sri Venkateshwara College of Engineering, Bengalaru",Karnataka,Bengaluru,admissons@svcengg.com,
638,Cochin University College of Engineering,Kerala,Alappuzha,registrar@cusat.ac.in,
639,"Department of  Computer Applications, C.U.S.A.T",Kerala,Ernakulam,pramod_k_v@cusat.ac.in,
640,International School Of Photonics,Kerala,Ernakulam,info@photonics.cusat.edu,
641,"School of Engineering, Kochi",Kerala,Ernakulam,principal_soe@cusat.ac.in,
642,"National Institute of Technology, Kozhikode",Kerala,Kozhikode,director@nitc.ac.in,
643,Swami Vivekanand College of Engineering,Madhya Pradesh,Indore,info@svceindore.ac.in,
644,IPS Academy,Madhya Pradesh,Indore,director@ipsacademy.org,
645,"Oriental Institute of Science And Technology, Indore",Madhya Pradesh,Indore,scholarship@orientaluniversity.in,
646,"Institute of Management Studies, DAVV, Indore",Madhya Pradesh,Indore,director.ims@dauniv.ac.in,7312470022
647,Vindhya Institute of Technology and Science,Madhya Pradesh,Indore,CONTACTINDORE@VITSDPR.AC.IN,
648,M.I.B.E Graduate School For Nurses,Madhya Pradesh,Indore,mibegsn@sancharnet.in,2700527
649,Prestige Institute of Engineering & Science,Madhya Pradesh,Indore,director@pies.ac.in,
650,R.K.D.F SCHOOL OF ENGINEERING,Madhya Pradesh,Indore,rkdfscholarship@gmail.com,7312802390
651,Central India Institute of Technology,Madhya Pradesh,Indore,ciitpscholarship@gmail.com,
652,BM College of Technology,Madhya Pradesh,Indore,info@bmcollege.ac.in,
653,Medi-Caps Group of Institutions,Madhya Pradesh,Indore,info@medicaps-institute.ac.in,
654,LORD KRISHNA COLLEGE OF TECHNOLOGY,Madhya Pradesh,Indore,lkctindore@rediffmail.co,9977526252
655,Patel College of Science &Technology,Madhya Pradesh,Indore,admissionind@patelcollege.com,
656,Central Institute of Technology (Polytechnic),Madhya Pradesh,Indore,citpscholarship@gmail.com,7312802390
657,Malwa Institute of Science and Technology,Madhya Pradesh,Indore,info@mistindore.com,
658,Astral Institute of Technology & Research,Madhya Pradesh,Indore,info@astral.ac.in,7316450155
659,"INTERNATIONAL INSTITUTE OF PROFESSIONAL STUDIES, DAVV",Madhya Pradesh,Indore,admin@iips.edu.in,
660,Indo German Tool Room,Madhya Pradesh,Indore,indigtr@sancharnet.in,
661,INDIAN INSTITUTE OF MANAGEMENT INDORE,Madhya Pradesh,Indore,director@iimidr.ac.in,
662,Institute of Engineering & Technology.,Madhya Pradesh,Indore,p_atri@rediffmail.com,
663,Lakshmi Narain college of technology,Madhya Pradesh,Indore,info@lnctindore.com,
664,"JAGADGURU DATTATRAY COLLEGE OF TECHNOLOGY, INDORE",Madhya Pradesh,Indore,jdctindore0833@gmail.com,
665,"RISHIRAJ INSTITUTE OF TECHNOLOGY ,INDORE",Madhya Pradesh,Indore,info@ritindore.in,
666,Patel College of Science & Technology,Madhya Pradesh,Bhopal,deputyregistrar@patelcoll,9425605224
667,Shree Institute of Science & Technology,Madhya Pradesh,Bhopal,admission@sistbhopal.net,
668,N I I S T,Madhya Pradesh,Bhopal,contactus@nrigroupindia.com,
669,"SISTech,Ghandhi Nagar",Madhya Pradesh,Bhopal,info@sistec.ac.in,
670,Crescent College of Technology,Madhya Pradesh,Bhopal,cctbpl2007@gmail.com,6055131
671,"Technocrats Institute of Technology, Bhopal",Madhya Pradesh,Bhopal,controlroomtit@gmail.com,9893503585
672,INDIAN MARITIME UNIVERSITY,Kerala,Ernakulam,ganeshram@imu.co.in,4424530345
673,MITTAL INSTITUTE OF TECHNOLOGY,Madhya Pradesh,Bhopal,mitbpl@gmail.com,2735043
674,"Bhabha College of Engineering, Bhopal",Madhya Pradesh,Bhopal,bhabharkdf2014@gmail.com,9425349712
675,"Bhopal Institute of Technology, Bhopal",Madhya Pradesh,Bhopal,bitsoffice5@gmail.com,
676,"Vaishnavi Institute of Technology & Science, Medua",Madhya Pradesh,Bhopal,vits.bhopal@gmail.com,
677,MILLENNIUM COLLEGE OF PHARMACY,Madhya Pradesh,Bhopal,principalmillenniumpharmacy@rediffmail,
678,Vedica institute of technology,Madhya Pradesh,Bhopal,vitrkdf@gmail.com,9753459883
679,Patel Institute Of Technology,Madhya Pradesh,Bhopal,deputyregistrar@patelcollege.com,9425605224
680,madhav proudyogiki mahavidyalaya,Madhya Pradesh,Bhopal,mpmbhopal@gmail.com,
681,"Iasscom Fortune Institute of Technology,Bhopal",Madhya Pradesh,Bhopal,info@iasscom.com,
682,"Rajeev Gandhi College, Shahpura",Madhya Pradesh,Bhopal,chairmanrgc@rediffmail.com,
683,Bhopal School of Social Sciences,Madhya Pradesh,Bhopal,bsssbhopal.edu@gmail.com,
684,SURABHI COLLEGE OF ENGINEERING & TECHNOLOGY,Madhya Pradesh,Bhopal,surabhi.cet@gmail.com,
685,Malhotra College,Madhya Pradesh,Bhopal,malhotracollege@gmail.com,
686,BAGULA MUKHI COLLEGE OF TECHNOLOGY,Madhya Pradesh,Bhopal,bmctbhopal@gmail.com,
687,JAI NARAIN COLLEGE OF TECHNOLOGY,Madhya Pradesh,Bhopal,jnctbploffice@gmail.com,2854641
688,"Surabhi group of institutions,bhopal",Madhya Pradesh,Bhopal,surabhi.cet@gmail.com,7587520441
689,Laxmipati Institute of ScienceTechnology,Madhya Pradesh,Bhopal,trivedi_abhishek2002@hotm,8109016705
690,Kailash Chandra Bansal College of Technology,Madhya Pradesh,Bhopal,kcbctbhopal@gmail.com,
691,Patel College of Pharmacy,Madhya Pradesh,Bhopal,deputyregistrar@patelcoll,9425605224
692,"T.I.T. COLLEGE, BHOPAL",Madhya Pradesh,Bhopal,titcollegebpl2008@gmail.com,
693,MANSAROVAR NURSING COLLEGE,Madhya Pradesh,Bhopal,mist_kolar@mansarovargroup.com,
694,"GANDHI P.R. COLLEGE, BHOPAL",Madhya Pradesh,Bhopal,contact@gandhiprcollege.com,
695,Bhabha College Of Dental Sciences,Madhya Pradesh,Bhopal,beribhopal@gmail.com,
696,Kailash Narayan Patidar College of Science & Technology,Madhya Pradesh,Bhopal,contactknpgroup@gmail.com,
697,oriental college of technology,Madhya Pradesh,Bhopal,Slahirwar@ oriental.ac.in,
698,KOPAL INSTITUTE OF SCIENCE AND TECHNOLOGY,Madhya Pradesh,Bhopal,kistechbhopal@gmail.com,
699,AGNOS COLLEGE OF TECHNOLOGY,Madhya Pradesh,Bhopal,agnosrkdf2014@gmail.com,9425026522
700,NRI Group of Institutions,Madhya Pradesh,Bhopal,contactus@nrigroupindia.com,
701,Alia Polytechnic College,Madhya Pradesh,Bhopal,apcbhopal@tsag.in,
702,Knp College Of Science And Technology,Madhya Pradesh,Bhopal,contactknpgroup@gmail.com,
703,IES College of Education,Madhya Pradesh,Bhopal,iesbpl@gmail.com,9229251422
704,VNS Institute of Pharmacy,Madhya Pradesh,Bhopal,info.vnsit@gmail.com,
705,Acropolis Institute of Technology & Research,Madhya Pradesh,Bhopal,info@acropolis.in,
706,Institute of Hotel Management Catering Technology & Applied Nutrition.,Madhya Pradesh,Bhopal,principal@ihmbpl.com,
707,All Saints College of Engineering,Madhya Pradesh,Bhopal,contact@ asctbhopal.com,2528097
708,Girdhar Siksha Evam Samaj Kalyan Samiti Group of Institutions,Madhya Pradesh,Bhopal,ggibpl@gmail.com,7480295752
709,Iasscom Fortune Institute of Technology,Madhya Pradesh,Bhopal,info@iasscom.com,
710,J.N. College of Technology,Madhya Pradesh,Bhopal,jnctbhopal@lnctgroup.in,
711,Gyan Ganga Institute of Technology And Management,Madhya Pradesh,Bhopal,ggitmbhopal@yahoo.com,
712,Peoples College of Dental ScienceResearch Center,Madhya Pradesh,Bhopal,hoi.nursing@peoplesuniversity.com,4005410
713,Radharaman Institute of ResearchTechnology,Madhya Pradesh,Bhopal,rirt2007@gmail.com,7552896506
714,Makhanlal Chaturvedi National University,Madhya Pradesh,Bhopal,query@mcu.ac.in,
715,R.D. Memorial College of Physical Education,Madhya Pradesh,Bhopal,rdmpebhopal@gmail.com,
716,Vishal Vate Memorial College Of Nursing,Madhya Pradesh,Bhopal,principal@vvmcollege.org,
717,Barkatullah University Institute of Technology,Madhya Pradesh,Bhopal,bubhopalmp@mp.nic.in,
718,Corporate Institute of ResearchTechnology,Madhya Pradesh,Bhopal,corporate@corporatebpl.com,7771009744
719,"Institute of Polytechnic Engineering ,Bhopal",Madhya Pradesh,Bhopal,iperkdf2014@gmail.com,9893698505
720,SAM COLLEGE OF ENGINEERING & TECHNOLOGY,Madhya Pradesh,Bhopal,samcetbpl@yahoo.com,
721,Bhopal Institute of Technology & Science,Madhya Pradesh,Bhopal,bitsoffice5@gmail.com,
722,"VNS Institute of Technology, Bhopal",Madhya Pradesh,Bhopal,info.vnsit@gmail.com,
723,"RADHARAMAN ENGINEERING COLLEGE, RATIBAD",Madhya Pradesh,Bhopal,directorrec158@gmail.com,7552896303
724,Carporate Institute of Science & Technology,Madhya Pradesh,Bhopal,corporate@corporatebpl.com,
725,GLOBUS ENGINEERING COLLEGE,Madhya Pradesh,Bhopal,bitsoffice4@gmail.com,9826298850
726,Satyam Educational & Social Welfare Society Group of Institutions,Madhya Pradesh,Bhopal,satyam123sch@gmail.com,
727,ORIENTAL INSTITUTE OF SCIENCE & TECHNOLOGY,Madhya Pradesh,Bhopal,Slahirwar@ oriental.ac.in,
728,IES Institute of Technology & Management,Madhya Pradesh,Bhopal,iesbpl@gmail.com,9229251422
729,All Saints College of Technology,Madhya Pradesh,Bhopal,contact@asctbhopal.com,7552528853
730,TRINITY INSTITUTE OF TECHNOLOGY & RESEARCH,Madhya Pradesh,Bhopal,info@trinitycampus.in,
731,UJJAIN COLLEGE,Madhya Pradesh,Ujjain,principal@uecu.ac.in,
732,Sewak Shri Ram College of Education,Madhya Pradesh,Gwalior,directorsrcem@srgoc.org,
733,IPS College Of Technology and Management shivpuri Gwalior,Madhya Pradesh,Gwalior,admissionips@yahoo.com,
734,Jai Institute of Nursing and Research,Madhya Pradesh,Gwalior,vism_gwalior@rediffmail.com,
735,Training Ship Chanakya,Maharashtra,Navi Mumbai,tschanakya.mumbaicampus@imu.co.in,
736,Vijayaraje Institute of Science and Management,Madhya Pradesh,Gwalior,info@vismgwalior.com,
737,BVM College of Technology and Management,Madhya Pradesh,Gwalior,bvmctm@gmail.com,
738,Miss Sill College of Education,Madhya Pradesh,Gwalior,misssillcollege54@gmail.com,
739,Bright College of Education,Madhya Pradesh,Gwalior,brightcollege1@gmail.com,
740,"Shri Ram College of Education, Gwalior",Madhya Pradesh,Gwalior,directorsrcem@srgoc.org,
741,Institute of Technology & Management,Madhya Pradesh,Gwalior,registrar@iiitm.ac.in,
742,Dayal Nursing College,Madhya Pradesh,Gwalior,admin@dayalnursingcollege.org,
743,GWALIOR ENGINEERING COLLEGE,Madhya Pradesh,Gwalior,gec_gwl@rediffmail.com,
744,Shri Ram College of engineering & management,Madhya Pradesh,Gwalior,directorsrcem@srgoc.org,
745,Gwalior Institute of Technology and Science (GITS),Madhya Pradesh,Gwalior,info@gicts.org,
746,LAXMI NARAYAN INSTITUTE OF TECHNOLOGY,Madhya Pradesh,Gwalior,lnitgwalior@yahoo.com,7583801007
747,"Lakshmi Narain Academy of Technology, Gwalior",Madhya Pradesh,Gwalior,lnatgwalior@gmail.com,7583801001
748,J.B. Institute of Nursing and Research,Madhya Pradesh,Gwalior,admin@jbitm.com,
749,"IITTM,Govindpuri",Madhya Pradesh,Gwalior,iittm@sancharnet.in,
750,Maharana Pratap College of Technology,Madhya Pradesh,Gwalior,info@mpct.org,
751,ITM UNIVERSITY,Madhya Pradesh,Gwalior,scst.cell@itmuniversity.a,7516560664
752,Awadh Madhav College of Nursing Science,Madhya Pradesh,Gwalior,devnursinggwl@gmail.com,
753,Lakshmibai National University of Physical Education,Madhya Pradesh,Gwalior,registrar@lnipe.gov.in,
754,Atal Bihari Vajpayee IIIT&M,Madhya Pradesh,Gwalior,registrar@iiitm.ac.in,
755,St. Aloysis Institute of Technology,Madhya Pradesh,Jabalpur,saitjbp@gmail.com,
756,Gyan Ganga Institute of Technology & Science,Madhya Pradesh,Jabalpur,ggcojbp@yahoo.com,7612673655
757,"Oriental Institute Of Science And Technology, Jabalpur",Madhya Pradesh,Jabalpur,orientaljbp@oriental.ac.i,7612645022
758,S.G .B.M. Institute of technology & science,Madhya Pradesh,Jabalpur,sgbmitsjabalpur@gmail.com,9926303240
759,XIDAS,Madhya Pradesh,Jabalpur,xavierinstitute@ximj.ac.i,7612606341
760,Jabalpur Public College,Madhya Pradesh,Jabalpur,jabalpurpubliccollegejbp@gmail.com,
761,Bansal Institute of Science & Technology,Madhya Pradesh,Bhopal,bistscho2011@gmail.com,7552922697
762,Scope College of Engineering,Madhya Pradesh,Bhopal,registrar.scope@gmail.com,7552432917
763,SAGAR INSTITUTE OF SCIENCE TECHNOLOGY & ENGINEERING,Madhya Pradesh,Bhopal,sistecsiptec@gmail.com,7554206035
764,BANSAL INSTITUTE OF RESEARCH & TECHNOLOGY,Madhya Pradesh,Bhopal,birtbpl@gmail.com,7552808161
765,Sardar Patel Institute Of Education,Madhya Pradesh,Jabalpur,spctgroup.bgt2000@gmail.com,
766,"Dr. Radha Krishnan College of Education, Jabalpur",Madhya Pradesh,Jabalpur,radhakrishnanedu@yahoo.co.in,
767,Vindhya Institute of Technology & Science,Madhya Pradesh,Jabalpur,VINDHYAJBP@GMAIL.COM,
768,Takshshila Institute of Engg. & Technology Jabalpur,Madhya Pradesh,Jabalpur,takshshila.engg@gmail.com,
769,Amar Jyoti Institute of Nursing Sciences & Research,Madhya Pradesh,Jabalpur,info@amarjyotinursing.com,
770,"shree ram institute of Technology,jabalpur",Madhya Pradesh,Jabalpur,sritjabalpur2014@gmail.co,7614001932
771,Laxminarayan College Of Technology,Madhya Pradesh,Jabalpur,LNCTJABALPUR@LNCTGROUP.IN,
772,Vijayshree Educational Institute,Madhya Pradesh,Jabalpur,sthapakrajesh@gmail.com,
773,OJASWINI INSTITUTE OF MANAGEMENT & TECHNOLOGY,Madhya Pradesh,Damoh,oimt_damoh@yahoo.co.in,9575304029
774,Siddhi vinayak Paramedical and Nursing college,Madhya Pradesh,Datia,svncdatia@gmail.com,
775,AISECT Institute of Science & Technology,Madhya Pradesh,RAISEN,info@aisectuniversity.ac.in,
776,"BANSAL COLLEGE OF ENGINEERING,MANDIDEEP",Madhya Pradesh,RAISEN,director@bce.ac.in,
777,Shri Satya Sai College of Education,Madhya Pradesh,Sehore,sehoresssist@yahoo.in,
778,Jaytee University of Engineering & Technology,Madhya Pradesh,Guna,registrat@juet.ac.in,267051
779,Swami Vivekanand University,Madhya Pradesh,Sagar,info@svnuniversity.ac.in,
780,Dr. Hari Singh Guor Vishwavidyalaya,Madhya Pradesh,Sagar,admissiondhsgsu@gmail.com,
781,Gyan Sagar College of Engineering,Madhya Pradesh,Sagar,info@gsce.in,
782,"AKS University, Sherganj",Madhya Pradesh,Satna,Scholarship@aksuniversity,8889617776
783,Nes Hoshangabad,Madhya Pradesh,Hoshangabad,nesc_2005@rediffmail.com,
784,N.E.S College of physical Education,Madhya Pradesh,Hoshangabad,nesc_2005@rediffmail.com,
785,Sardar Patel College of Technology,Madhya Pradesh,Balaghat,spctgroup.bgt2000@gmail.com,
786,St. Xavier s College Mumbai,Maharashtra,Mumbai,ait@aitpune.edu.in,
787,"Indian Institute of Technology, Bombay",Maharashtra,Mumbai,registrar@iitb.ac.in,2225722545
788,Dr.D.Y.Patil,Maharashtra,Mumbai,chancellor@dypatil.com,
789,Maharashtra Academy of Engineering,Maharashtra,Pune,atssitc@yahoo.co.in,
790,G.H. Raisoni Institute of Engineering & Technology,Maharashtra,Pune,ghrietpune@raisoni.net,
791,Sinhgad College of Engineering,Maharashtra,Pune,admissions@sinhgad.edu,
792,N.B.N. Sinhgad School of Engineering,Maharashtra,Pune,dkte@sancharnet.in,
793,"D.Y. PATIL, PUNE",Maharashtra,Pune,"registrar@dpu.edu.in ,vc@dpu.edu.in",
794,Maharastra Academy of  Naval Education & Training (manet),Maharashtra,Pune,info@raisoni.net,
795,SINHGAD INSTITUTE OF MANAGMENT,Maharashtra,Pune,ghrpolynag@raisoni.net,
796,Indira College of Engineering and Management,Maharashtra,Pune,ibmrwakadpune@gmail.com,
797,Sinhgad Institute of Technology,Maharashtra,Pune,principal_sit@sinhgad.edu,2114304356
798,"JSPM JAYAWANTRAO SAWANT COLLEGE OF ENGINEERING, PUNE",Maharashtra,Pune,anjali.kalkar@iccs.ac.in,
799,"SINHGAD TECHNICAL EDUCATION SOCIETY, SINHGAD INSTITUTE OF MANAGEMENT",Maharashtra,Pune,registrar.siom@sinhgad.ed,9860088496
800,Mitcon Institute of Management,Maharashtra,Pune,info@indiraicem.ac.in,
801,"ATSS, IICMR, Pune",Maharashtra,Pune,info@iicmr.org,
802,IBMR College Pune,Maharashtra,Pune,vbdatarkar@rediffmail.com,
803,MKSSSs Cummins College of Engineering for Women,Maharashtra,Pune,principal@kdkce.edu.in,
804,MIT Arts Commerce & Science College,Maharashtra,Pune,manojbade@mitpune.com,
805,"Symbiosis Institute of Technology, Pune",Maharashtra,Pune,adminofficer@sitpune.edu.in,
806,SINHGAD INSTITUTE OF BUSINESS ADMINISTRATION & RESEARCH,Maharashtra,Pune,nbnssoe@sinhgad.edu,
807,Sinhgad Management School,Maharashtra,Pune,rmdsms@sspm.co.in,645330
808,Indira College of Commerce & Science,Maharashtra,Pune,anjali.kalkar@iccs.ac.in,
809,G.H Raisoni College of Engeneering and Management,Maharashtra,Pune,ghrcem.pune@raisoni.net,
810,ARMY INSTITUTE OF TECHNOLOGY,Maharashtra,Pune,registrar@aitpune.edu.in,
811,Institute of ManagementEnterpreneurship Development,Maharashtra,Pune,imed@bharatividyapeeth.ed,25448005
812,G.H.Raisoni Polytechnic,Maharashtra,Nagpur,ghrpolynag@raisoni.net,
813,Karmavir Dadasaheb Kannamwar College of Engineering,Maharashtra,Nagpur,principal@kdkce.edu.in,
814,Kavikulguru Institute of TechnologyScience,Maharashtra,Nagpur,principal@kits.edu,7114255309
815,Wainganga College of Engineering and Management,Maharashtra,Nagpur,wcem@rediffmail.com,
816,Jyotiba College of Physical Education,Maharashtra,Nagpur,jcpengp@rediffmail.com,
817,Pryadarshini College of Engineering,Maharashtra,Nagpur,principal@priyadarshini.org,
818,Priyadarshini Indira Gandhi College,Maharashtra,Nagpur,principal.pice@ltjss.net,
819,"Tulsiramji Gaikwad-Patil College of Engineering & Technology, Nagpur",Maharashtra,Nagpur,placement@tgpcet.com,
820,Yeshwantrao Chavan College of Engineering,Maharashtra,Nagpur,principal@ycce.edu,
821,"G.H.Raisoni Institute of Engg. & Technology, for women",Maharashtra,Nagpur,ghrietw@raisoni.net,
822,Vidarbha Institute of Technology,Maharashtra,Nagpur,info@vitnagpur.edu.in,
823,"Smt. Bhagwati Chaturvedi College of Enggineering, Nagpur",Maharashtra,Nagpur,principalpbcoe@gmail.com,
824,Chirayu. K. C Bajaj College of Education,Maharashtra,Nagpur,"chirayukcbajbaj@hotmail.com ,info@kcbajajbedcollege.com",
825,Nagpur Institute of Technology,Maharashtra,Nagpur,placement@nitengg.edu.in,
826,Shri Madhaorao Wankhade Sharirik Shikshan Mahavidyalaya,Maharashtra,Nagpur,mwssmk@yahoo.com,
827,Priyadarshini Institute of Architecture & Design Studies,Maharashtra,Nagpur,principal.piads@ltjss.net,
828,"Priyadarshini Indira Gandhi College of Engineering, Nagpur",Maharashtra,Nagpur,principal.pice@ltjss.net,
829,"J.T. Mahajan College of Engineering, Faizpur",Maharashtra,Jalgaon,jtmcoef@rediffmail.com,2585248256
830,"Tata Institute of Social Sciences ,Osmanabad",Maharashtra,Osmanabad,sparasuraman@tiss .edu,
831,DKTE Societys Textile & Engineering,Maharashtra,Kolhapur,dkte@sancharnet.in,
832,D.Y.Patil College of Engg. & Tech,Maharashtra,Kolhapur,info@dypkopeng.ac.in,
833,"Manoharbhai Patel Institute of Engineering & Technology, Gondia",Maharashtra,Gondia,deanscholmiet@gmail.com,
834,Degree College of Physical Education Amravati,Maharashtra,Amravati,principal@dcpehvpm.org,
835,Marathwada Institute of Technology,Maharashtra,Aurangabaad,info@mit.asia,
836,Symbiosis Institute of Operations Management,Maharashtra,Nashik,assistantadminofficer@siom.in,
837,Shri Shankarprasad Agnihotri College of Engineering,Maharashtra,Wardha,info@agnihotrigroup.com,
838,"GANDHI INSTITUTE OF SCIENCE AND TECHNOLOGY, RAYAGADA",Orissa,Rayagada,gistcollege@yahoo.com,6856211455
839,Rayagada Institute of Technology and Management,Orissa,Rayagada,principal@ritamindia.net,
840,College of pharmaceutical sciences,Orissa,Puri,puri_cps@yahoo.co.in,250804
841,GHANSHYAM HEMALATA INSTITUTE OF TECHNOLOGY & MANAGEMENT,Orissa,Puri,ghitm@hotmail.com,6752246613
842,Milandevi Industrial Training Center,Orissa,Mayurbhanj,milandeviiti.05@gmail.com,9437380354
843,G .C Bala Industrial Training Center,Orissa,Mayurbhanj,gcbalaitc@gmail.com,6792240064
844,Maharaja Purna Chandra College,Orissa,Mayurbhanj,mpcautocollege@gmail.com,
845,Rinkulraj  ITC,Orissa,Mayurbhanj,rinkulrajitc@yaho.com,
846,Seemanta Mahavidyalaya,Orissa,Mayurbhanj,seemanta.mahavidyalaya991@gmail.co,6791222226
847,SEEMANTA  I.T.C,Orissa,Mayurbhanj,seemanthaitc@yahoo.in,222207
848,Gorumahi Sane I.T.C,Orissa,Mayurbhanj,principalgorumahisaniitc@gmail.com,
849,SEC JHARPOKHRIA,Orissa,Mayurbhanj,principal@seemantaengg.ac.in,
850,Mayurbhanj Industrial Training Centre,Orissa,Mayurbhanj,mbjitc@rediffmail.com,9938724270
851,Little Flower  I T C,Orissa,Mayurbhanj,littlefloweritc@gmail.com,9437609698
852,Mayurbhanj Medical Academy,Orissa,Mayurbhanj,mmabpd@rediffmail.com,9437039228
853,"Divine Institute of Engineering & Technology, Baripada",Orissa,Mayurbhanj,dietbaripada@gmail.com,256805
854,"Maa Saraswati College of Professional Education, ITC",Orissa,Mayurbhanj,maasaraswatiitc7@gmail.com,
855,Ritayani Industrial Training Center,Orissa,Mayurbhanj,ritayaniitc@gmail.com,9437082220
856,Rakhal Chandra Industrial Training Centre,Orissa,Mayurbhanj,rcitcbpd@gmail.com,9437037421
857,Samanta Chandrasekhar Institute of Technology and Management,Orissa,Koraput,nfo@scitm.org,
858,Mayurbhanj School Of Engineering,Orissa,Mayurbhanj,msebaripada@gmail.com,6792278148
859,MITS,Orissa,Rayagada,principalofmits@gmail.com,6856233497
860,SSB Regional Institute of Science & Technology,Orissa,Mayurbhanj,ssbrahmaednt@rediffmail.c,9437744676
861,Regional College of Management,Orissa,Khordha,info@rcmspace.com,
862,Gandhi Institute of Excellent Technocrats,Orissa,Khordha,principal@gietbbsr.edu.in,7894424149
863,Barrister Ranjit Mohanty International Institute Of Technology,Orissa,Khordha,admission@brm.edu.in,
864,CENTRAL INSTITUTE OF PLASTIC ENGINEERING.,Orissa,Khordha,hocipetolc@gmail.com,
865,"GANDHI INSTITUTE FOR EDUCATION AND TECHNOLOGY, KHURDA",Orissa,Khordha,info@gietbbsr.com,6742301562
866,Ganesh Institute Of Engineering & Technology,Orissa,Khordha,info@ganeshpolytechnic.edu.in,8059000677
867,"Silicon Institute of Technology, Bhubaneswar",Orissa,Khordha,director@silicon.ac.in,6742725448
868,NILACHAL POLYTECHNIC COLLEGE,Orissa,Khordha,principal@nilachalpolytec,6742725416
869,KIIT School of Management,Orissa,Khordha,kiit@kiit.ac.in,
870,C.V.Raman Polytechnic,Orissa,Khordha,infopolytechnic@cvrgi.edu.in,6743260602
871,"VIVTECH, Orissa",Orissa,Khordha,info@vivtech.co.in,
872,Eastern Academy of Science & Technology (EAST),Orissa,Khordha,info@eastodissa.ac.in,2356721
873,School of Pharmaceutical Sciences,Orissa,Khordha,dean.spsiter@soauniversity.ac.in,
874,KIIT School of Biotechnology,Orissa,Khordha,kiit@kiit.ac.in,
875,National Institute Of Social Works and Social Sciences,Orissa,Khordha,niswass1@bsnl.in,
876,Regional Institue Of Education,Orissa,Khordha,riebbs@yahoo.in,
877,MODERN INSTITUTE OF TECHNOLOGY AND MANAGEMENT,Orissa,Khordha,info@mitm.edu.in,9439864386
878,College of Engineering Bhubneshwar (CEB),Orissa,Khordha,ceb_academic@koustuvgroup.ac.in,
879,The Techno School,Orissa,Khordha,tts_bbsr@yahoo.in,9238102898
880,HI-TECH COLLEGE OF ENGINEERING,Orissa,Khordha,info@hce.ac.in,2371604
881,Biju Patnaik Institute of Information Technology & Management Studies,Orissa,Khordha,biitm.bbabca@gmail.ac.in,
882,KMBB College of Engineering and Technology,Orissa,Khordha,admission@kmbb.in,
883,NM INSTITUTE OF ENGINEERING AND TECHNOLOGY,Orissa,Khordha,mailtonmiet@yahoo.com,6742471649
884,MAHARAJA INSTITUTE OF TECHNOLOGY,Orissa,Khordha,samser.mitbbsr@gmail.com,6755242490
885,"Centurion Institute of Technology, Jatni",Orissa,Khordha,gjena.cgi.org@gmail.com,
886,"Synergy Institute of Technology , Bhubaneswar",Orissa,Khordha,contact@synergyinstitute.ac.in,6712356150
887,"College of Engineering & Technology, Bhubaneswar (CET)",Orissa,Khordha,info@cet.edu.in,
888,Bhubaneswar Polytechnic,Orissa,Khordha,info@bhubaneswarpolytechnic.com,
889,KIIT,Orissa,Khordha,kiit@kiit.ac.in,
890,Orissa Engineering College,Orissa,Khordha,principal@oec.ac.in,
891,Rama Devi Womens College,Orissa,Khordha,principal@rdwc.org,
892,INDIC INSTITUTE OF DESIGN &  RESEARCH,Orissa,Khordha,"mail@indicindia.com,shinu",9238106469
893,Institute of Medical Sciences & SUM Hospital,Orissa,Khordha,sumhospital@soauniversity.ac.in,
894,SOPHITORIUM ENGINEERING COLLEGE,Orissa,Khordha,info@sophitorium.org,
895,"Srusti Academy of Management, Bhubaneswar",Orissa,Khordha,mail@srustiacademy.org,7894197061
896,Indian Institute of Tourism and Travel Management,Orissa,Khordha,saratlenka@rediffmail.com,
897,Bhubaneswar Institute of Industrial Technology,Orissa,Khordha,biitcollege@yahoo.com,
898,"NMIET, Bhubaneswar",Orissa,Khordha,mailtonmiet@yahaoo.com,
899,Shibani Institute Of Technical Education,Orissa,Khordha,principal@shibaniinstitute.org,
900,Institute of management & information science,Orissa,Khordha,infocentre@imis.ac.in,6542257
901,Asian School Of Technology,Orissa,Khordha,purusottam_ast@yahoo.in,9238109155
902,Orissa University Of Agriculture,Orissa,Khordha,ouatmain@hotmail.com,
903,EINSTEIN ACADEMY OF TECHNOLOGY & MANAGEMENT,Orissa,Khordha,principal@eatm.in info@e,6755243623
904,Gandhi Institute For Technology,Orissa,Khordha,gift_bbsr@yahoo.co.in,7873008291
905,Raajdhani Engineering College,Orissa,Khordha,rec_bbsr@yahoo.co.in,6444583
906,Hi-Tech Institute of Technology(H.I.T),Orissa,Khordha,info@hit.ac.in,211331
907,TempleCity Institute of Technology & Engineering,Orissa,Khordha,info@tite.ac.in,223367
908,KONARK INSTITUTE OF SCIENCE & TECHNOLOGY,Orissa,Khordha,info@kist.ac.in,2490965
909,GURUKULA INSTITUTE OF TECHNOLOGY,Orissa,Khordha,Gurukul_bbsr@yahoo.co.in,9238102900
910,SUDDHANANDA ENGINEERING & RESEARCH CENTER (SERC),Orissa,Khordha,principalserc@rediffmail.,9237003444
911,Asian School of Business Management,Orissa,Khordha,institute @asbm.ac.in,
912,Gurukula Engineering School,Orissa,Khordha,Gurukulaenggschool09@gmai,9238102899
913,Swami Vivekananda School of Engineering & Technology,Orissa,Khordha,svset_in@yahoo.com,9338761490
914,"Trident Academy Of Technology,Bhubaneswar",Orissa,Khordha,info@trident.ac.in,
915,Maharaja Polytechnic,Orissa,Khordha,info.mp09@gmail.com,6755242490
916,Indus School Of Engineering,Orissa,Khordha,info@indus.ac.in,
917,KIIT University,Orissa,Khordha,kiit@kiit.ac.in,
918,College of Agriculture,Orissa,Khordha,deanca@rediffmail.com,
919,Gandhi Institute OF Technology And Management,Orissa,Khordha,principalgitam@yahoo.com,2113255
920,Trident Academy Of Creative Technology,Orissa,Khordha,", rteagcitsitnrdaira@@giytahmo.eod.cuom",
921,Aryan Institute of Engg. & Technology,Orissa,Khordha,aryan.edu23@gmail.com,
922,Spintronic Technology & Advance Research,Orissa,Khordha,admission@spintronicbbsr.org,
923,Dadhibamana ITC,Orissa,Kendujhar,info@helpuindia.com,
924,Baitarani Industrial Training Centre,Orissa,Kendujhar,baitaraniitc2007@gmail.co,238138
925,"Orissa School of Mining Engineering, Keonjhar",Orissa,Kendujhar,principalgcekjr08@gmail.c,
926,Rajiv Gandhi South Campus,Uttar Pradesh,Mirzapur,chairman.cgrgsc@bhu.ac.in,
927,Chandrasekhar industrial training centre,Orissa,Kendujhar,chandrashekharitc50@gmai,9178670709
928,GOVERNMENT COLLEGE OF ENGINEERING KALAHANDI,Orissa,Kalahandi,principalgcek@gmail.com,
929,Black Diamond School of Engineering,Orissa,Jharsuguda,amirkabdse@gmail.com,986106604
930,"National Institute Of ScienceTechnology, Ganjam",Orissa,Ganjam,scholarship@nist.edu,9437044480
931,Pharmaceutical Science Mohuda,Orissa,Ganjam,principal_cpsbam@yahoo.co.in,
932,GANDHI ACADEMY OF TECHNOLOGY AND ENGINEERING(GATE),Orissa,Ganjam,gateinformation@gmail.com,
933,Synergy Institute of Engineering & Technology,Orissa,Dhenkanal,sietdkl@synergyinstitute.net,6762226708
934,"Deogarh Industrial Training Centre, Deogarh",Orissa,Deogarh,deogarhitc1996@gmail.com,226034
935,Dhabaleswar institute of polytechnic,Orissa,Cuttack,info@ditcorissa.com,
936,Suddhananda Residential Polytechnic,Orissa,Cuttack,principalsrp@sgoi.org,
937,"National Law College, Odisha",Orissa,Cuttack,registrar@nluo.ac.in,
938,"AJAY-BINAY INSTITUTE OF TECHNOLOGY- PILOO MODY COLLEGE OFARCHITECTURE",Orissa,Cuttack,abitew@yahoo.co.in,
939,Royal Industrial Training Centre,Orissa,Bhadrak,principal@royaliti.in,
940,BHADRAK INSTITUTE OF ENGINEERING & TECHNOLOGY,Orissa,Bhadrak,principalbiet@rediffmail.com,
941,MAA RANI ITC,Orissa,Bhadrak,mr2itc@yahoo.in,
942,Hi-Tech Institute of Engineering & Management,Orissa,Bhadrak,principal@hiem-bdk.org,
943,Baba Rameswar & Ragunath Industrial Training Centre,Orissa,Bhadrak,babarameswarandraghunathi,9438355663
944,"Padmashree Krutartha Acharya College of Engineering , Bargarh",Orissa,Bargarh,pkace@rediffmail.com,
945,Adarsha College of Engineering,Orissa,Angul,ace.angul@yahoo.com,9185990053
946,KALINGA INSTITUE OF MINING ENGINEERING & TECHNOLOGY,Orissa,Angul,kimet_cpd@rediffmail.com,
947,shree Dhriti Industrial Training Center,Orissa,Angul,principalsitc@hotmail.com,9338892117
948,"Pavitramohan Institute of Technology, Talchar",Orissa,Angul,pmit.orissa@gmail.com,
949,Sushree Institute of Technical Education,Orissa,Balangir,sushree_diploma@bsnl.in,
950,Satyasai Engineering College,Orissa,Balasore,satyasaienggcollege@rediffmail.com,
951,Balasore Technical School,Orissa,Balasore,shekhainah@hotmail.com,
952,BIT Polytechnic,Orissa,Balasore,"bit_balasore@rediffmail.com,admission@bitpolytech.org",
953,Jhadeswar Institute of Engineering & Technology,Orissa,Balasore,principaljiet@gmail.com,
954,RajaKishore Chandra Academy of Technology,Orissa,Balasore,rkcat2008@yahoo.com,
955,Koustuv School of Engineering,Orissa,Khordha,kse@koustuvgroup.ac.in,6742743599
956,Vivekananda Institute of Technology,Orissa,Khordha,principal@vivtech.co.in,6545304
957,BALASORE COLLEGE OF ENGINEERING,Orissa,Balasore,bcetbalasore@yahoo.co.in,
958,Basanti Industrial Training Center,Orissa,Balasore,basantiitc@gmail.com,
959,Bonaigarh Industrial Training Centre,Orissa,Sundargarh,bonaigarhitc1996@gmail.com,244057
960,Jalda Industrial Training centre,Orissa,Sundargarh,jitcrkl@rediffmail.com,
961,Modern Industrial Training Centre,Orissa,Sundargarh,modernitc04@gmail.com,2664734
962,"Sundargarh Engineering College, Sundargarh",Orissa,Sundargarh,bijaytrupti@yahoo.co.in,
963,Indira Memorial Industrial Training Centre Jhirpani,Orissa,Sundargarh,imitc.rkl@gmail.com,6612470223
964,Rourkela Institute of Technology,Orissa,Sundargarh,info@ritrkl.ac.in,
965,"Don Bosco ITC, Kuarmunda",Orissa,Sundargarh,donboscokmd@gmail.com,801884071
966,BUDHUVIR INDUSTRIAL TRAINING CENTRE,Orissa,Sundargarh,budhuviriti_bartoli@yahoo.com,
967,Khandadhar Industrial Training Centre,Orissa,Sundargarh,khandadharitc1996@gmail.c,232697
968,"Nirman Institute of Technology, Nuagaon",Orissa,Sundargarh,nirman.nit@rediffmail.com,
969,"Industrial Training Centre, Raghunath Palli",Orissa,Sundargarh,rnpalliitc@rediffmail.com,
970,Bramhani Industrial Training Centre,Orissa,Sundargarh,bitcrkl@rediffmail.com,2664727
971,"BANWARILAL MEMORIAL ITC, RAJGANGPUR",Orissa,Sundargarh,principalbmitc@rediffmail.com,
972,Koel Industrial Training Centre,Orissa,Sundargarh,koelitc@gmail.com,6612472790
973,Progati ITC,Orissa,Sundargarh,progotiitc@gmail.com,
974,Utkal Industrial Training Center,Orissa,Sundargarh,utkalitc@gmail.com,
975,Guru Nanak Public school Rourkela,Orissa,Sundargarh,gnps21rkl@gmail.com,
976,IB Industrial Training Centre,Orissa,Sundargarh,ibitcsng@gmail.com,
977,ROURKELA INSTITUTE OF MANAGEMENT STUDIES,Orissa,Sundargarh,admin@rims-edu.com,
978,"Dr. Ambedkar Memorial Institute of Information Technology & ManagementScience",Orissa,Sundargarh,damits.jagda@gmail.com,
979,Chhend Industrial Training Centre,Orissa,Sundargarh,contact@citc.org,
980,CITY Institute of Technical Education,Orissa,Sundargarh,cite_rkl@rediffmail.com,9238107778
981,Kanak Manjari Institute of Pharmaceutical Sciences,Orissa,Sundargarh,rkl_kmips@rediffmail.com,
982,Global Industrial Training Centre,Orissa,Sundargarh,globalitc.rkl@gmail.com,9937109404
983,Kalinga Industrial Training Centre,Orissa,Sundargarh,kalingaitc1996@gmail.com,6612616533
984,Veer Surendra Sai University of Technology,Orissa,Sambalpur,info@vssut.ac.in,6632430573
985,Gayatri College of Pharmacy,Orissa,Sambalpur,gaycop1986@rediffmail.com,9238735640
986,"Orissa Engineering college, Nabajyoti Bihar",Orissa,Bhubaneswar,principal@oec.ac.in,239723
987,Regional College of Management Autonomous,Orissa,Bhubaneswar,principal@rcm.ac.in,2300421
988,U. C. Industrial Training Institute Birikuan,Orissa,Koenjhar,uciti2006@gmail.com,
989,Bhimeshwar Industrial Training Center,Orissa,Koenjhar,bhimeswaritc@rediffmail.com,
990,Koenjhar school of Engineering,Orissa,Koenjhar,itckeonjhar.dani@rediffmail.com,
991,Panchayat Samiti Industrial Training Institute,Orissa,Koenjhar,psiti2010@gmail.com,9777122169
992,JIPMER INSTITUTE OF POST GRADUATE MEDICAL EDUCATION AND RESEARCH,Puducherry,Pondicherry,dean@jipmer.edu.in,
993,Pondicherry Engineering College,Puducherry,Pondicherry,info@pec.edu,
994,Regency Institute of Technology,Puducherry,Pondicherry,rit_dean@yahoo.in,
995,Pondicherry Central University,Puducherry,Pondicherry,registrar@pondiuni.edu.in,
996,Dr. Ambedkar Memorial Industrial Training Centre,Orissa,Sundargarh,damitc.org@gmail.com,6612471892
997,Rourkela Industrial Training Centre (RITC),Orissa,Sundargarh,ritcbmt@gmail.com,2645625
998,ISPAT INDUSTRIAL TRAINING CENTRE,Orissa,Sundargarh,ispatitc@gmail.com,6612470981
999,Rayat Institute of Engineering and Information Technology .,Punjab,Nawanshahar,rieit@rayatbahra.com,
1000,KC COLLEGE OF ENGINEERING & IT,Punjab,Nawanshahar,kcceit@kcinstitutes.com,8872088406
1001,KC POLYTECHNIC COLLEGE,Punjab,Nawanshahar,principal.poly@kcinstitu,
1002,Guru Kashi University,Punjab,Bathinda,info@gurukashiuniversity.in,
1003,Bhai Mani Singh Polytechnic College,Punjab,Bathinda,bms.polytechnic@gmail.com,
1004,Saraswati Polytechnic College,Punjab,Bathinda,saraswatipolytechnic@yahoo.in,
1005,Guru Ram Das Polytechnic College,Punjab,Bathinda,grdpc@in.com,
1006,Guru Teg Bahadur Khalsa Institute of Engineering & Technology,Punjab,Muktsar,principal@gtbkiet.org,
1007,Bhai Maha Singh College of Engineering,Punjab,Muktsar,principalbmsce@yahoo.co.in,
1008,Adesh Polytechnic College,Punjab,Muktsar,office_apm@rediffmail.com,
1009,ABBNOOR POLYTECHNIC COLLEGE,Punjab,Faridkot,abbnoor@abbnoor.com,
1010,MALWA POLYTECHNIC COLLEGE,Punjab,Faridkot,admissionmpf@malwapolytechnic.com,
1011,shiv shankar institute of engineering & technology,Punjab,Amritsar,ssietpatti@yahoo.co.in,
1012,Global Institute of Management and Emerging Technologies,Punjab,Amritsar,info@globalinstitutes.org,
1013,Shaheed Bhagat Singh Polytechnic College,Punjab,Amritsar,sbspoly@yahoo.com,
1014,C T Institute of Engineering Management & Technology,Punjab,Jalandhar,aoctiemt@ctgroup.in,1815055127
1015,Punjab Technical University,Punjab,Jalandhar,registrar@ptu.ac.in,
1016,"Lovely Professional University, Jalandhar",Punjab,Jalandhar,info@lpu.co.in,
1017,CT POLYTECHNIC COLLEGE JALANDHAR,Punjab,Jalandhar,aoctpc@ctgroup.in,9914003901
1018,Dr. B.R. Ambedkar National Institute of Technology Jalandhar,Punjab,Jalandhar,nitj.ac.in,1812690301
1019,Bhai Gurdas Institute of EngineeringTechnology,Punjab,Sangrur,info@bgiet.ac.in,278528
1020,Gian Jyoti Group of Institutions,Punjab,Patiala,gjiet@gmail.com,
1021,Swami Vivekanand Institute of Engineering & Technology,Punjab,Patiala,director@svsm.in,
1022,Aryans College of Engineering,Punjab,Patiala,info@aryans.ed.in,8427013388
1023,Surya School of Engineering & Technology,Punjab,Patiala,info@suryaworld.edu.in,
1024,RIMT-Maharaja Agrasen Engineering College,Punjab,Fatehgarh Sahib,principalrimtmaec@yahoo.com,
1025,CONTINENTAL INSTITUTE OF ENGINEERING & TECHNOLOGY,Punjab,Fatehgarh Sahib,info@continental.ac.in,1762505600
1026,RIMT Polytechnic MandiGobindgarh,Punjab,Fatehgarh Sahib,rimtpolytechnic@gmail.com,
1027,RIMT Institute of Engineering Technology,Punjab,Fatehgarh Sahib,info@rimtengg.com,
1028,Baba Banta Singh Bahadur Engineering College,Punjab,Fatehgarh Sahib,principal @ bbsbec . ac . in,
1029,Desh Bhagat Engineering College,Punjab,Fatehgarh Sahib,contactus@dbec.org,
1030,Shaheed Bhagat Singh State Technical Campus,Punjab,Ferozepur,director@sbsstc.ac.in,
1031,Ghubaya College of Engineering & Technology,Punjab,Ferozepur,gcetpb@gmail.com,
1032,Sri Sukhmani Institute of Engineering & Technology,Punjab,SAS Nagar,principal@srisukhmanigrou,1762506445
1033,Longowal Polytechnic & Pharmacy College,Punjab,Mohali,lppcderabassi@gmail.com,
1034,Swami Parmanand Polytechnic,Punjab,Mohali,swamiparmanandpolytechnic@yahoo.co,
1035,"GGS Polytechnic, Kharar",Punjab,Mohali,ggs_polytechnic@yahoo.co.in,
1036,Swami Parmanand Engineering College,Punjab,Mohali,infospec.lalru08@gmail.com,1762277124
1037,GGS College of Modern Technology,Punjab,Mohali,ggscollege@yahoo.com,
1038,Universal Institute of Enginering & Technology,Punjab,Mohali,info@ugi.ac.in,
1039,Longowal Polytechnic College,Punjab,Mohali,lppcderabassi@gmail.com,
1040,Punjab College Of Engineering & Technology,Punjab,Mohali,contact@pcet.org,
1041,Chandigarh Engineering College,Punjab,Mohali,info@cecmohali.org,
1042,Chandigarh Group of Colleges,Punjab,Mohali,",icngfco.@regcigsctr.eard@u.ginmail.com",
1043,PUNJAB COLLEGE OF ENGINEERING & APPLIED RESEARCH,Punjab,Mohali,contact@pgc.edu.in,
1044,"Aryabhatta Group of Institutes, Barnala",Punjab,Barnala,aryabhatta.barnala@gmail.,1679288019
1045,Paras Institute of Information Technology & Management Studies,Punjab,Gurdaspur,pwf_bamial@yahoo.in,8146208000
1046,"Sukhjinder Technical Campus, Tehsil Dhar Kalan, Dunera",Punjab,Gurdaspur,"info@stcgurdaspur.org,admission@stcgurdaspur.org",
1047,S. Sukhbinder singh Engineering & Technology,Punjab,Gurdaspur,sssetc@rediffmail.com,9317899015
1048,Gurunanak Dev university of Regionl Campus,Punjab,Gurdaspur,admn@gndu.ernet.in,
1049,Gulzar Group of InstitutesG T Road Khanna Ludhiana Punjab,Punjab,Ludhiana,info @ggi.ac.in,
1050,Indian Institute of Technology Ropar,Punjab,Ropar,sham@iitrpr.ac.in,1881227078
1051,Adesh Institute of Technology,Punjab,SAS Nagar,aitgharuan@gmail.com,
1052,Panjab University Swami Sarvanand Giri Regional Centre,Punjab,Hoshiarpur,bains.harminder63@gmail.com,
1053,Advanced Technical Training Centre,Sikkim,East Sikkim,"palden_1@yahoo.com,tenzingpradhan@gmail.com",
1054,"National Institute of Technology, Sikkim",Sikkim,South Sikkim,fisa.nitsikkim@gmail.com,
1055,Bhagwant University,Rajasthan,Ajmer,aresttbhagwant@gmail.com,8058642047
1056,School of Aeronautics (Neemrana),Rajasthan,Alwar,info@soaneemrana.com,
1057,"Laxmi Devi Institute of Engineering & Technology,Chikani",Rajasthan,Alwar,directorliet@gmail.com,1442883476
1058,"Institute of Engineering & Technology, Alwar",Rajasthan,Alwar,ietalwar@ietalwar.com,9929110008
1059,Siddhi Vinayak College of Science & Hr. Education,Rajasthan,Alwar,gma@gmcolleges.com,
1060,"Government Engineering College,Bharatpur",Rajasthan,Bharatpur,principal.gecbharatpur@gmail.com,
1061,"MLV Textile & Engineering College, Bilwara",Rajasthan,Bhilwara,mlvti_jp1@sancharnet.in,
1062,Marudhar Engineering College,Rajasthan,Bikaner,info@marudhar.ac.in,
1063,Faculty of Engineering & Department of Life Science,Rajasthan,Churu,oncampus@iaseuniversity.org.in,
1064,KAUTILYA INSTITUTE OF TECHNOLOGY AND ENGINEERING,Rajasthan,Jaipur,info@kautilya.net,
1065,Manipal University Jaipur,Rajasthan,Jaipur,registrar@jaipur.manipal.edu,
1066,"MJRP UNIVERSITY, JAIPUR",Rajasthan,Jaipur,info@mjrpuniversity.com,
1067,Global Institute of Technology,Rajasthan,Jaipur,support@gctjaipur.com,
1068,Apex Institute of Management & Science,Rajasthan,Jaipur,info@apexedu.org,
1069,"BMIT,Jaipur",Rajasthan,Jaipur,inquiry@bmitjaipur.org,
1070,Amity University.,Rajasthan,Jaipur,admissionsjpr@amity.edu,
1071,Jaipur Institute of Technology (group of Institution),Rajasthan,Jaipur,info@jitjaipur.com,
1072,Regional Institute of Polytechnic Studies,Rajasthan,Jaipur,info@deepshikha.org,
1073,Poddar International College.,Rajasthan,Jaipur,admission@poddarinstitute.org,
1074,"BIRLA INSTITUTE OF TECHNOLOGY, EXTENSION CENTRE JAIPUR",Rajasthan,Jaipur,bitjaipur@bitmesra.ac.in,
1075,Jaipur National University,Rajasthan,Jaipur,info@jnujaipur.ac.in,1412779016
1076,Poornima College Of Engineering,Rajasthan,Jaipur,info@poornima.org,1412770790
1077,Dr Radhakrishnan Polytechnic College,Rajasthan,Jaipur,drpcjaipur@gmail.com,
1078,Poornima University,Rajasthan,Jaipur,info@poornima.edu.in,
1079,"Compucom Institute of Information Technology & Management, Jaipur",Rajasthan,Jaipur,adm@ciitm.org,
1080,Jagannath University,Rajasthan,Jaipur,admission@jagannathuniversity.org,
1081,Vivekananda  Institute  of  Technology,Rajasthan,Jaipur,info@vitej.ac.in,4077900
1082,Jagannath Gupta Institute of Engineering & Technology,Rajasthan,Jaipur,jnit@jimsindia.org,1414071500
1083,"APEX INSTITUTE OF ENGINEERING & TECHNOLOGY,JAIPUR",Rajasthan,Jaipur,info@apexcollege.in,
1084,MJRP College Of Engineering & Technology,Rajasthan,Jaipur,info@mjrpuniversity.com,
1085,"Jaipur college of engineering,kukas",Rajasthan,Jaipur,jeckukas@yahoo.com,
1086,Arya College of Engg. & IT,Rajasthan,Jaipur,principal@aryacollege.in,1412621967
1087,"Guru Nanak Dev Engineering College, Ludhiana",Punjab,Ludhiana,director@gndec.ac.in,2502700
1088,LALA LAJPAT RAI INSTITUTE OF ENGINEERING & TECHNOLOGY,Punjab,Moga,llrmpc_principal@yahoo.co,981443816
1089,Pratap University,Rajasthan,Jaipur,info@pratapuniversity.in,6213582
1090,Govt. College of Engineering and Technology,Rajasthan,Bikaner,principal@cet-gov.ac.in,15122509
1091,Siddharth Institute of Technology,Rajasthan,Jaipur,sitc.jaipur@gmail.com,14165077
1092,Universal Technical College,Rajasthan,Jaipur,bhomia9yogesh@rediffmail.,8696904321
1093,Swami Keshwanand Institute Of Technology,Rajasthan,Jaipur,info@skit.ac.in,
1094,"UNIVERSITY OF ENGINEERING AND MANAGEMENT,JAIPUR",Rajasthan,Jaipur,DIRECTOR@IEMCAL.COM,1423516106
1095,SURESH GYAN VIHAR UNIVERSITY,Rajasthan,Jaipur,registrar@gyanvihar.org,
1096,Biyani School Of Nursing Para Medical Science,Rajasthan,Jaipur,info@biyanicolleges.org,
1097,"NIMS INSTITUTE OF ENGINEERING AND TECH, NIMS UNIVERSITY",Rajasthan,Jaipur,"registrar@nimsuniversity.org,admissions@nimsuniversity.org",
1098,International College for Girls,Rajasthan,Jaipur,vc@iisuniv.ac.in,
1099,Maharani Girls Engineering College,Rajasthan,Jaipur,mgijaipur@gmail.com,
1100,Maharishi Arvind Institute of Engineering & Technology,Rajasthan,Jaipur,info@maietjaipur.com,2784311
1101,Rajeshthan Institute of Engineering & Technology,Rajasthan,Jaipur,admission@rietjaipur.com,
1102,Dr. RadhaKrishnan Institute of Technology,Rajasthan,Jaipur,dritjaipur@gmail.com,
1103,Jaipur Institute of Engineering & Technology,Rajasthan,Jaipur,jietkukas@yahoo.in,
1104,Rajsthan college of Engineering for womens,Rajasthan,Jaipur,admin@rcew.ac.in,
1105,"JAYOTI VIDYAPEETH WOMENS UNIVERSITY, JAIPUR",Rajasthan,Jaipur,admission@jvwu.ac.in,
1106,"Sri Balaji College of Engineering & Technology, Jaipur",Rajasthan,Jaipur,admin@sbss.ac.in,
1107,"A C E R C, Jaipur",Rajasthan,Jaipur,admission@aryacollege.org,
1108,Government Engineering College,Rajasthan,Jhalawar,govtecj@gmail.com,
1109,Shridhar University Pilani,Rajasthan,Jhunjhunu,Registrar@shridharunivers,510000
1110,Jodhpur Engineering College & Research Centre,Rajasthan,Jodhpur,info@jietjodhpur.com,
1111,Marwar BEd College,Rajasthan,Jodhpur,info@mecrc.org,
1112,Jodhpur National University,Rajasthan,Jodhpur,info@jodhpurnationaluniversity.com,
1113,Raj Engineering College,Rajasthan,Jodhpur,mkvssic@gmail.com,2271198
1114,Mayurakshi Institute of Engineering and Technology,Rajasthan,Jodhpur,info@mayurakshi.in,
1115,University College of Engineering,Rajasthan,Kota,vcofficertu@yahoo.co.in,
1116,NATHDWARA INSTITUTE OF ENGINEERING AND TECHNOLOGY,Rajasthan,Rajsamand,info@nathdwarainstitute.c,9571345444
1117,Govindam Polytechnic College,Rajasthan,Sikar,info@govindamcolleges.com,
1118,"Dr. K. N. Modi University, Tonk",Rajasthan,Tonk,registrar@dknmu.org,8875010008
1119,"S S College of Engineering, Udaipur",Rajasthan,Udaipur,sscollege08@rediffmail.com,
1120,S.S. Polytechnic College,Rajasthan,Udaipur,info@sspolytechnic.com,
1121,College of Technology and Engineering,Rajasthan,Udaipur,bpnand@yahoo.com,
1122,"Indian Institute of Management,Udaipur",Rajasthan,Udaipur,pgp@iimu.ac.in,
1123,Pacific Academy of Higher Education & Research University,Rajasthan,Udaipur,admission@pahersociety.org,
1124,Institute of Hotel Management Catering Technology & Applied Nutrition,Tamil Nadu,Chennai,ihmchen@dataone.in,
1125,SRM University Chennai,Tamil Nadu,Chennai,srmufet.rmp@gmail.com,
1126,"BHARATH UNIVERSITY,SELAIYUR",Tamil Nadu,Chennai,office@bharathuniv.ac.in,
1127,DR. M G R Educational And Research Institute University,Tamil Nadu,Chennai,registrar@drmgrdu.ac.in,
1128,Dhanalakshmi College of Engineering,Tamil Nadu,Chennai,principal.dcengg@gmail.com,
1129,"HINDUSTAN INSTITUTE OF TECHNOLOGY & SCIENCE, CHENNAI",Tamil Nadu,Chennai,hetc@vsnl.com,
1130,Bharath Polytechnic College,Tamil Nadu,Chennai,office@bharathuniv.ac.in,
1131,Dr MGR University,Tamil Nadu,Chennai,registrar@drmgrdu.ac.in,
1132,"Arya Institute of Engineering & Technology, Kukas",Rajasthan,Jaipur,registrar@aietm.com,8432100111
1133,Agni college of technology,Tamil Nadu,Chennai,mail@act.edu.in,4432903293
1134,Yagyavalkya Institute of Technology (YIT),Rajasthan,Jaipur,"yitjpr@hotmail.com,",9314070598
1135,Chanakya Technical Campus,Rajasthan,Jaipur,chanakyaengineering@yahoo,1412970700
1136,Bharath Institute of Science and Technology,Tamil Nadu,Chennai,office@bharathuniv.ac.in,
1137,Karunya University,Tamil Nadu,Coimbatore,studentsection@karunya.edu,
1138,ANNAMALAI UNIVERSITY,Tamil Nadu,Cuddalore,auhscholarship@gmail.com,
1139,"Pee Gee Polytechnic college, Periyanahalli",Tamil Nadu,Dharmapuri,pee-gee_polytechnic@hotmail.com,
1140,SRM INSTITUTE OF SCIENCE AND TECHNOLOGY,Tamil Nadu,Kanchipuram,director.et@srmuniv.ac.in,4427452270
1141,St. Josephs Residential School,Tamil Nadu,Kanchipuram,mail.sjrs@gmail.com,
1142,Hindustan Institute of Technology & Science,Tamil Nadu,Kanchipuram,registrar@hindustanuniv.ac.in,
1143,P.B. College of Engineering,Tamil Nadu,Kanchipuram,pbce@pbce.in,
1144,Bharath University,Tamil Nadu,Kanchipuram,office@bharathuniv.ac.in,
1145,Sri Chandrasekharendra Saraswathi Viswa Mahavidyalaya,Tamil Nadu,Kanchipuram,registrar@kanchiuniv.ac.in,
1146,Aarupadai Veedu Institute of Technology,Tamil Nadu,Kanchipuram,contactus@avit.ac.in,
1147,Dhanlakshmi Srinivasan College of Engg. & Tech,Tamil Nadu,Kanchipuram,dscet@yahoo.co.in,
1148,Hindustan University,Tamil Nadu,Kanchipuram,registrar@hindustanuniv.ac.in,
1149,"Archana Institute of Technology, Thimmapuram",Tamil Nadu,Krishnagiri,archnagroup2009@gmail.com,4343253668
1150,Madurai Kamaraj University,Tamil Nadu,Madurai,ramkrishod@mkuniversity,2458406
1151,Dhanlakshmi Srinivasan Engg. College,Tamil Nadu,Perambalur,dsengg_p829@yahoo.co.in,
1152,Vinayaka Missions University,Tamil Nadu,Salem,vmu@vinayakamission.com,
1153,SASTRA UNIVERSITY,Tamil Nadu,Thanjavur,admissions@sastra.edu,
1154,SHIVANI ENGINEERING COLLEGE,Tamil Nadu,Tiruchirappalli,shivani 844@gmail.com,2914308
1155,"DR. MGR EDUCATION & RESEARCH INSTITUTE, TIRUVALLUR",Tamil Nadu,Tiruvallur,contact@drmgrdu.ac.in,
1156,GRT Institute of Engineering and Technology,Tamil Nadu,Tiruvallur,info@grt.edu.in,
1157,S.R.I. Polytechnic college,Tamil Nadu,Tiruvannamalai,sricetcse@gmail.com,4183292881
1158,Sri Nandhanam College of Engineering & Technology,Tamil Nadu,Vellore,info@nandhanam.in,
1159,VIT UNIVERSITY,Tamil Nadu,Vellore,ugadmission@vit.ac.in,
1160,KALASALINGAM UNIVERSITY,Tamil Nadu,Virudhunagar,info@kalasalingam.ac.in,
1161,"National Institute of Technology, Agartala",Tripura,North Tripura,nitaaracademic@gmail.com,
1162,NIT AGARTALA,Tripura,West Tripura,nitadeanacademic@gmail.com,
1163,I.I.M.T. Medical college & Hospital,Uttar Pradesh,Agra,iimtgroup@gmail.com,
1164,Dayalbagh Educational Institute,Uttar Pradesh,Agra,admin@dei.ac.in,
1165,Dulari Devi Institute of Pharmacy,Uttar Pradesh,Aligarh,ddip.chandaus@rediffmail.com,0121-24057580
1166,zakir hussain college of engg & technology,Uttar Pradesh,Aligarh,tpo.zhcet@amu.ac.in,
1167,NIT Allahabad,Uttar Pradesh,Allahabad,secretary@mnnit.ac.in,
1168,"INDIAN INSTITUTE OF INFORMATION TECHNOLOGY ,ALLAHABAD (IIIT-A)",Uttar Pradesh,Allahabad,director@iiita.ac.in,
1169,University of Allahabad,Uttar Pradesh,Allahabad,registrar@allduniv.ac.in,
1170,Allahabad Agriculture Institute,Uttar Pradesh,Allahabad,registrar@shiats.edu.in,
1171,"SAM HIGGINBOTOM INSTITUTE OF AGRICULTURE, TECHNOLOGY & SCIENCE",Uttar Pradesh,Allahabad,registrar@shiats.edu.in,
1172,LDC INSTITUTE OF TECHNICAL STUDIES,Uttar Pradesh,Allahabad,info@ldcinstitute.com,
1173,Jahangirabad Institute of Technology (JIT),Uttar Pradesh,Barabanki,info@jit.edu.in,
1174,Future Institute of Engineering & Technology,Uttar Pradesh,Bareilly,fietbly@rediffmail.com,9012313333
1175,Invertis Institute of Engineering & Technology,Uttar Pradesh,Bareilly,info@invertis.org,
1176,Allahabad College of Engineering & Management,Uttar Pradesh,Fatehpur,ACEM_EDU@REDIFFMAIL.COM,991961455
1177,GNIT Girls Institute of Technology,Uttar Pradesh,Gautam Buddha N,ggairt@ggit.net.in,
1178,Heritage Institute of Hotel & Tourism,Uttar Pradesh,Agra,rajtomar.hiht@gmail.com,5622962415
1179,OM SAI INSTITUTE OF TECHNOLOGY &S CIENCE,Uttar Pradesh,Bagpat,directorosits@gmail.com,1212966064
1180,Swaraj Institute of Management & Technology,Uttar Pradesh,Allahabad,tosimtald@gmail.com,2542835
1181,Shri Krishna College of Engineering,Uttar Pradesh,Bagpat,info@skcp.in,2969066
1182,I.T.S Detal College Hospital and Research Center Knowledge Park Greater Noida,Uttar Pradesh,Gautam Buddha N,"gardentalgn@its.edu.in",0120-2481609
1183,APEEJAY INSTITUTE OF TECHNOLOGY (School of Management),Uttar Pradesh,Gautam Buddha N,agiat.rmgmtw@apj.edu,
1184,IMS-Design & Innovation Academy,Uttar Pradesh,Gautam Buddha N,ignafor @diaindia.co.in,
1185,Sarvottam Instititute of Technology & Management,Uttar Pradesh,Gautam Buddha N,rgeagristrar1sitm@gmail.com,9717621504
1186,"IIMT College of Engineering, Greater Noida",Uttar Pradesh,Gautam Buddha N,rgeagristrar_gn@gmail.com,1202475015
1187,Galgotias University,Uttar Pradesh,Gautam Buddha N,cgeaor@galgotiasuniversity.edu.in,
1188,"INSTITUTE OF MANAGEMENT STUDIES, NOIDA",Uttar Pradesh,Gautam Buddha N,ignafor @imsnoida.com,
1189,IEC COLLEGE OF ENGINEERING AND TECHNOLOGY,Uttar Pradesh,Gautam Buddha N,rgeagristrar@ieccollege.com,9818332793
1190,Sharda University,Uttar Pradesh,Gautam Buddha N,gaadrmission@sharda.ac.in,
1191,I.T.S Engineering College,Uttar Pradesh,Gautam Buddha N,rgeagristrar.ec@itc.edu.in,2331000
1192,Galgotia College of Engineering and Technology,Uttar Pradesh,Gautam Buddha N,Sguaprport@galgotiacollege.edu,
1193,Footwear Design & Development Institute (FDDI),Uttar Pradesh,Gautam Buddha N,cgoanrtact@fddiindia.com,
1194,SKYLINE INSTITUTE OF ENGINEERING & TECHNOLOGY,Uttar Pradesh,Gautam Buddha N,ignafor @skylineinstitute.com,2326203
1195,DIT School of Engineering,Uttar Pradesh,Gautam Buddha N,dgiatr@dignoida.edu.in,
1196,Amity University,Uttar Pradesh,Gautam Buddha N,gaadrmissions@amity.edu,
1197,IIMT College of Management,Uttar Pradesh,Gautam Buddha N,mgaaril@iimtindia.net,
1198,Noida International University,Uttar Pradesh,Gautam Buddha N,ignafor @niu.ac.in,
1199,KCC Institute of Technology & Management,Uttar Pradesh,Gautam Buddha N,dgiarrkccitm492@gmail.com,9911149692
1200,N.I.E.T Greater Noida,Uttar Pradesh,Gautam Buddha N,"agdamrission@niet.co.in",
1201,Aryan Institute of Technology,Uttar Pradesh,Ghaziabad,admissionaryans@gmail.com,
1202,"SRM University( NCR Campus), Modinagar",Uttar Pradesh,Ghaziabad,director@ncr.srmuniv.ac.in,
1203,K S Jain Institute of Engineering & Technology,Uttar Pradesh,Ghaziabad,ksjiet@rediffmail.com,9368226032
1204,MAHARAJA AGARSAIN INSTITUTE OF TECHNOLOGY,Uttar Pradesh,Ghaziabad,mait.mailgroup@gmail.com,
1205,"R. D. Engineering College (RDEC), Ghaziabad",Uttar Pradesh,Ghaziabad,info@rdec.in,
1206,Kedar Nath Ginni Devi Modi Engineering College,Uttar Pradesh,Ghaziabad,admissions@knmodifoundation.com,
1207,D. J. College of Engineering & Technology,Uttar Pradesh,Ghaziabad,director.djcet@gmail.com,1232325052
1208,HR GROUP OF INSTITUTE GHAZIABAD,Uttar Pradesh,Ghaziabad,admission2013@hrit.ac.in,
1209,Acme College of Engineering,Uttar Pradesh,Ghaziabad,acmece@gmail.com,293333
1210,MONAD UNIVERSITY,Uttar Pradesh,Ghaziabad,admissions@monad.edu.in,
1211,Institute of Technology and Science,Uttar Pradesh,Ghaziabad,itsmn@its.edu.in,
1212,Sree Bankey Bihari Dental College & Research Centre,Uttar Pradesh,Ghaziabad,sbbdentalcollegehospital@gmail.com,
1213,Devendra Singh Institute Of Technology and Management,Uttar Pradesh,Ghaziabad,director.dsitm@gmail.com,
1214,Institute of Professional Excellence & Management,Uttar Pradesh,Ghaziabad,info@ipemgzb.ac.in,1204174500
1215,Divya Jyoti College of Engineering & Technology,Uttar Pradesh,Ghaziabad,aarti.sharma@djengineering.org,
1216,Sri Ganpati Institute of Technology,Uttar Pradesh,Ghaziabad,info@sgit.ac.in,
1217,Vedant Institute of Management & Technology,Uttar Pradesh,Ghaziabad,info@vedant.edu.in,
1218,vivekanand institute of technology & science,Uttar Pradesh,Ghaziabad,"registrar@vitsgzb.com,director@vitsgzb.",
1219,Hi-Tech Institute of Engineering & Technology,Uttar Pradesh,Ghaziabad,director@hiet.org,
1220,ABES Engineering College,Uttar Pradesh,Ghaziabad,info@abes.ac.in,
1221,V B S Purvanchal University,Uttar Pradesh,Jaunpur,"ivnicfoe@chbaunncdeellkohr.avnbdsupnuiv@.ogrgm ,ail.com",
1222,Bundelkhand University,Uttar Pradesh,Jhansi,bhujhansi@up.nic.in,
1223,Maharaja Agrasen College of EngineeringTechnology,Uttar Pradesh,Jyotiba Phule Nag,rmacet493@gmail.com,9639001784
1224,D.N.S. College of Engineering & Technology,Uttar Pradesh,Jyotiba Phule Nag,rdnscollege256@gmail.com,
1225,Indraprastha Institute of Technology,Uttar Pradesh,Jyotiba Phule Nag,ripexeducation@rediffmail.com,
1226,PRANVEER SINGH ACADEMY OF TECHNOLOGY,Uttar Pradesh,Kanpur Dehat,connect@psit.ac.in,
1227,"IIT, Kanpur",Uttar Pradesh,Kanpur Nagar,head_ce@iitk.ac.in,
1228,Pranveer Singh Institute of Technology,Uttar Pradesh,Kanpur Nagar,director@psit.in,
1229,Naraina Vidyapeeth Engineering & Management,Uttar Pradesh,Kanpur Nagar,info@narainagroup.net,9918601145
1230,Krishna Institute of Technology,Uttar Pradesh,Kanpur Nagar,krishna.kiot@gmail.com,
1231,Chandra Sekhar Azad University of Agriculture & Technology,Uttar Pradesh,Kanpur Nagar,info@csauk.ac.in,
1232,AXIS INSTITUTE OF  TECHNOLOGY AND MANAGEMENT,Uttar Pradesh,Kanpur Nagar,contact@axiscolleges.in,
1233,Maharana Pratap Engineering College,Uttar Pradesh,Kanpur Nagar,director.mpec@mpgi.in,
1234,AMITY UNIVERSITY UTTAR PRADESH LUCKNOW CAMPUS,Uttar Pradesh,Lucknow,admissionslko@amity.edu,
1235,"BABU BANARSI DAS INSTITUTE OF ENGINEERING TECHNOLOGY & RESEARCHCENTER",Uttar Pradesh,Lucknow,info@bbit.edu.in,
1236,"Indian Institute of Management, Lucknow",Uttar Pradesh,Lucknow,diroffice@iiml.ac.in,
1237,Dr M. C. Saxena College of Engineering & Technology,Uttar Pradesh,Lucknow,mcscet@redoffmail.com,
1238,Sanskriti Institute of  ManagementTechnology,Uttar Pradesh,Mathura,info@sanskriti.edu.in,5662308220
1239,Sachdeva institute of technology,Uttar Pradesh,Mathura,sit@sitmathura.org,
1240,"Tirthankar Mahabir University, College of Engineering, Bagarpur",Uttar Pradesh,Moradabad,dir.engg@tmu.ac.in,
1241,Moradabad Institute Of Technology,Uttar Pradesh,Moradabad,registrar@mitmoradabad.edu.in,
1242,Radha Govind Institutes of Technology,Uttar Pradesh,Moradabad,info@radhagovindinstitute.com,
1243,Institute of Foreign Trade and Management College Moradabad,Uttar Pradesh,Moradabad,directoriftm@hotmail.com,
1244,Kothiwal Dental College And Research Centre,Uttar Pradesh,Moradabad,kdc_rc@kothiwaldentalcollege.com,
1245,BANSAL INSTITUTE OF ENGINEERING AND TECHNOLOGY,Uttar Pradesh,Meerut,bansaliet@rediffmail.com,9699721339
1246,IIMT ENGINEERING COLLEGE,Uttar Pradesh,Meerut,director_engg@iimtindia.n,1212793535
1247,Radha Govind Group Of Institutions,Uttar Pradesh,Meerut,info@rggi.edu.in,
1248,JP Institute of Hotel Management & Catering Technology,Uttar Pradesh,Meerut,jpihm@rediffmail.com,
1249,CERT COLLEGE,Uttar Pradesh,Meerut,cert_9@rediffmail.com,
1250,Shanti Institute Of Technology,Uttar Pradesh,Meerut,"info@shantiedu.com,",1212880041
1251,"INSTITUTE OF TECHNOLOGY AND MANAGEMENT,MEERUT",Uttar Pradesh,Meerut,itmmeerut@rediffmail.com,
1252,Meerut Institute of Technology,Uttar Pradesh,Meerut,contact@miet.ac.in,
1253,Kalka Engineering College,Uttar Pradesh,Meerut,alkagroup.meerut@yahoo.com,
1254,IIMT Management College,Uttar Pradesh,Meerut,mail@iimtindia.net,
1255,Bharat institute of technology,Uttar Pradesh,Meerut,dg@bitmeerut.edu.in,
1256,J.P. Institute of EngineeringTechnolog,Uttar Pradesh,Meerut,director@jpiet.com,1212623007
1257,Master School of Management,Uttar Pradesh,Meerut,info@msmindia.org,
1258,Institute of Engineering & Technology,Uttar Pradesh,Meerut,contact@miet.ac.in,
1259,"Rajiv Gandhi Institute of Petroleum Technology,Rae Bareli",Uttar Pradesh,RaeBareli,registrar@rgipt.ac.in,
1260,INDIRA GANDHI RASHTRIYA URAB AKADEMI,Uttar Pradesh,RaeBareli,sachintandon.moca@nic.in,
1261,INDIAN INSTITUTE OF CARPET TECHNOLOGY,Uttar Pradesh,Sant Ravidas Naga,registrar _iict1@yahoo.in,5414228404
1262,Sitapur Siksha Sansthan Group of Institutions,Uttar Pradesh,Sitapur,sssgi.query@gmail.com,
1263,"Sant kinaraam p.g college,robertsganj",Uttar Pradesh,Sonbhadra,skrmdc@gmail.com,
1264,Kamal Institute of Higher Education,Uttar Pradesh,Unnao,"kitmaneeshkumar@gmail.com,info@kitedu.org,    enquiry@kitedu.org",9918443311
1265,"Basant Kanya Mahavidyalaya, Varanasi",Uttar Pradesh,Varanasi,vkmdegree.college@gmail.com,
1266,Ambition Institute of Technology,Uttar Pradesh,Varanasi,ambitiontech.vns@gmail.com,
1267,Dewan v.s. institute of engg & tech,Uttar Pradesh,Meerut,info@dewaninstitutes.org,1212440315
1268,Neelkanth College of Engineering,Uttar Pradesh,Meerut,info@neelkanth.edu.in,2575185
1269,DEWAN INSTITUTE OF MANAGEMENT STUDIES,Uttar Pradesh,Meerut,info@dewaninstitutes.org,250103
1270,Neelkanth institute of engineering & technology,Uttar Pradesh,Meerut,info@neelkanth.edu.in,2575187
1271,Dewan v.s. institute of hotel management & catering technology,Uttar Pradesh,Meerut,info@dewaninstitutes.org,1212440315
1272,NEELKANTH INSTITUTE OF TECHNOLOGY,Uttar Pradesh,Meerut,info@neelkanth.edu.in,2575186
1273,Grace Institute for Advanced Studies,Uttar Pradesh,Unnao,graceinstituteuno@gmail.c,9919609458
1274,Sakshi Institute for Higher Studies,Uttar Pradesh,Unnao,Inquiresihs@gmail.com,9956599277
1275,Hastinapur Institute of Technology & Management,Uttar Pradesh,Meerut,infohitm@gmail.com,1233280910
1276,Arya Mahila P.G College,Uttar Pradesh,Varanasi,rd7@rediffmail.com,
1277,Vasanta College for Women,Uttar Pradesh,Varanasi,vasantakfi@rediffmail.co,5422441187
1278,DAV Post Graduate college,Uttar Pradesh,Varanasi,dav_degvns@sify.com,
1279,Phonics School of Engineering Roorkee,Uttarakhand,Haridwar,info@phonicsedu.com,
1280,INDIAN INSTITUTE OF TECHNOLOGY ROORKEE,Uttarakhand,Haridwar,regis@iitr.ernet.in,
1281,Roorkee College of Polytechnic Roorkee (RCP)- A,Uttarakhand,Haridwar,"info@rcpuniverse.com ,",01332 232 977
1282,Roorkee Institute Of Technology,Uttarakhand,Haridwar,info@ritroorkee.com,
1283,Institute of Technology Roorkee (ITR)  A,Uttarakhand,Haridwar,rcpuniverse09@gmail.com,
1284,Graphic Era Institute of Technology,Uttarakhand,Dehradun,registrar@geu.ac.in,
1285,College of Engineering Roorkee,Uttarakhand,Dehradun,coeradmin@coer.ac.in,
1286,ICFAI OR FACULTY OF SCIENCE AND TECHNOLOGY,Uttarakhand,Dehradun,admissions@iudehradun.edu.in,
1287,BFIT Technical Campus Dehradun,Uttarakhand,Dehradun,info@bfitdoon.com,
1288,JB Institute of Technology,Uttarakhand,Dehradun,info@jbitdoon.com,
1289,UNIVERSITY OF PETROLEUM & ENERGY STUDIES,Uttarakhand,Dehradun,SRDAS@UPES.AC.IN,
1290,"DIBNS, Dehradun",Uttarakhand,Dehradun,mail@dolphininstitute.in,
1291,UTTARANCHAL INSTITUTE OF TECHNOLOGY,Uttarakhand,Dehradun,uit@uttaranchaluniversity.ac.in,
1292,Shivalik College of Engineering,Uttarakhand,Dehradun,info@sce.org.in,
1293,Dehradoon Institute of Technology,Uttarakhand,Dehradun,"registrar@dituniversity.edu.in,dit@dituniversity.edu.in",
1294,"Dev Bhoomi Institute of Technology, Dehradun",Uttarakhand,Dehradun,hr_dbgi@rediffmail.com,1352694242
1295,Tulas Institute the Engineering & Management college,Uttarakhand,Dehradun,info@tulasinstitute.edu.in,
1296,"National Institute of Technology,Pauri Garhwal",Uttarakhand,Pauri Garhwal,nituttarakhand@gmail.com,
1297,Govind Ballabh Pant Engineering College,Uttarakhand,Pauri Garhwal,principal@gbpec.ac.in,
1298,Haldia Law College,West Bengal,West Medinipur,principal@hlc.in,
1299,Institute of Science & Technology,West Bengal,West Medinipur,director@istonline.org.in,
1300,Techno Global Balurghat,West Bengal,South Dinajpur,technoglobalbalurghat@gma,3522271101
1301,Footware DesignDevelopment Institute,West Bengal,South 24 Parganas,mblakra@fddiindia.com,9733467301
1302,Institute of Technology and Marine Engineering,West Bengal,South 24 Parganas,info@itmeindia.org,
1303,"Dream Institute Of Technology, Kolkata",West Bengal,South 24 Parganas,placement@dreaminstituteonline.com,
1304,Greater Kolkata College of EngineeringManagement,West Bengal,South 24 Parganas,info.gkcem@jisgroup.org,9433040407
1305,Adamas institute of technology,West Bengal,North 24 Parganas,ait@adamas.co.in,3364501430
1306,CAMELLIA INSTITUTE OF ENGINEERING,West Bengal,North 24 Parganas,dganguly1950@gmail.com,9007030136
1307,National Institute for the Orthpaedically Handicapped,West Bengal,North 24 Parganas,abhishekpmr@gmail.com,
1308,CAMELLIA INSTITUTE OF TECHNOLOGY,West Bengal,North 24 Parganas,director@camelliait.ac.in,
1309,B.P. Poddar Institute of Management and Technology,West Bengal,North 24 Parganas,info@bppimt.ac.in,
1310,Narula institute of technology,West Bengal,North 24 Parganas,info@nit.ac.in,
1311,Institute of Technology & Marine Engineering,West Bengal,North 24 Parganas,info@itmeindia.org,
1312,CAMELLIA SCHOOL OF ENGINEERING & TECHNOLOGY,West Bengal,North 24 Parganas,admin@cset.org.in,
1313,International Institute of Hotel Management,West Bengal,North 24 Parganas,admin@iihm.ac.in,
1314,Techno India College of Technology,West Bengal,North 24 Parganas,info@tict.edu.in,
1315,Institute of Hotel Mgt. Catering Technology & Applied Nutrition,West Bengal,North 24 Parganas,mail@ihmkolkata.org,
1316,Global Institute of ManagementTechnology,West Bengal,Nadia,Email:-admin@gimt-india.c,3472271211
1317,JIS College of Engineering,West Bengal,Nadia,principal_jisce@jisgroup.org,3325822865
1318,Bidhan Chandra Krishi Vishwavidyalaya,West Bengal,Nadia,deanofag.bckv@gmail.com,3325870551
1319,Dumkal Institute of Engineering,West Bengal,Murshidabad,dietnet@hotmail.com,
1320,"Dumkal Polytechnic, Basantpur",West Bengal,Murshidabad,polytechnicdumkal@yahoo.c,230899
1321,Techno India Banipur,West Bengal,North 24 Parganas,tiuhodconnects@gmail.com,9836544417
1322,IMPS College of Engineering & Technology,West Bengal,Malda,impscet@live.in,3512271555
1323,"College Of Engineering & Management, Kolaghat",West Bengal,East Medinipur,webmaster@cemk.ac.in,
1324,BIRBHUM INSTITUTE OF ENGINEERING & TECHNOLOGY,West Bengal,Birbhum,dir.biet@yahoo.com,9434558197
1325,"Vinaya-Bhavan,Visva-Bharati, Santiniketan",West Bengal,Birbhum,registrar@visva-bharati.ac.in,
1326,IGNOU Study Center,West Bengal,Birbhum,ignourd28@yahoo.com,
1327,aryabhatta institute of Eng & Mgm,West Bengal,Bardhaman,aiemdcode171@rediffmail.c,3432526415
1328,Paramedical College Durgapur,West Bengal,Bardhaman,info@paramedicalcollege.org,
1329,"NHIT ,Durgapur",West Bengal,Bardhaman,nhit@nhit.in,
1330,NSHM Knowledge Campus,West Bengal,Bardhaman,pratyush.kumar@nshm.com,3432533813
1331,Rajendra Nath College of Polytechnic,West Bengal,Bardhaman,admin@rpcollege.ind.in,
1332,KANAD INSTITUTE OF ENGINEERING AND MANEGEMENT,West Bengal,Bardhaman,kanadinstituteofengg@gmail.com,
1333,Kanksa Academi of Technology & management,West Bengal,Bardhaman,principal_katm@rediffmail.com,
1334,"Bengal College of Engineering for Womens, Durgapur",West Bengal,Bardhaman,principal@bcetw.ac.in,
1335,Burdwan University,West Bengal,Bardhaman,registrar@buruniv.ac.in,
1336,Institute of Engineering & Industrial Technology,West Bengal,Bardhaman,sanakaeducationaltrust@gmail.com,
1337,Durgapur Society of Management Science,West Bengal,Bardhaman,info@dsmsindia.com,
1338,N.S.H.M Academy Durgapur,West Bengal,Bardhaman,pratyush.kumar@nshm.com,
1339,DURGAPUR INSTITUTE OF MANAGEMENT AND SCIENCE,West Bengal,Bardhaman,contact@dims.ac.in,
1340,University institute of technology,West Bengal,Bardhaman,principal@uit.buruniv.ac,3422658776
1341,"Sanaka Educational Trust Group of Institutions, Durgapur",West Bengal,Bardhaman,"sanakaeducationaltrust@gmail.com,info@se",8348486328
"",,,,tgoi.com,
1342,NATIONAL SCHOOL OF MANAGEMENT STUDIES,West Bengal,Bardhaman,nsmsdc@gmail.com,
1343,Management Institute of Durgapur,West Bengal,Bardhaman,mid@rahul.ac.in,
1344,Gobindpur Sephali Memorial Polytechnic,West Bengal,Bardhaman,gsmpolytech@rediffmail.com,
1345,Camellia Institute of Engineering & Technology,West Bengal,Bardhaman,info@camelliagroup.in,
1346,"National Power Training Institute (NPTI), Durgapur",West Bengal,Bardhaman,info@nptidurgapur.com,
1347,ABS Academy of Polytechnic Sagarbhanga,West Bengal,Bardhaman,info@absacademy.com,
1348,Bankura Unnayani Institute of Engineering,West Bengal,Bankura,buie.bankura@gmail.com,
1349,ACADEMY OF TECHNOLOGY,West Bengal,Hooghly,academy@aot.edu.in,26840003
1350,HOOGHLY ENGINEERING & TECHNOLOGY COLLEGE (HETC),West Bengal,Hooghly,mail@hetc.ac.in,
1351,Supreme Knowledge Foundation Group Of Institutions,West Bengal,Hooghly,mankundu@skf.edu.in,3326831141
1352,SURENDRA INSTITUTE OF ENGINEERING AND MANAGEMENT,West Bengal,Darjeeling,siemslg@gmail.com,3532574687
1353,SILIGURI INSTITUTE OF TECHNOLOGY (T.I.G.),West Bengal,Darjeeling,sit99@rediffmail.com,3532778002
1354,"MCKV Institute of Enginering, Liluah",West Bengal,Howrah,mckvie@vsnl.net,3326549315
1355,Seacom Engineering College,West Bengal,Howrah,registrar@seacomengineeri,
1356,"Bengal EngineeringScience University,Shibpur",West Bengal,Howrah,director_rc@becs.ac.in,3326684561
1357,CALCUTTA INSTITUTE OF TECHNOLOGY,West Bengal,Howrah,cit@bciedu.co.in,26610736
1358,The Institution of Engineers,West Bengal,Kolkata,pe@ieindia.org,
1359,Goenka College of Commerce and Business Administration,West Bengal,Kolkata,info@goenkacollege.net,
1360,Bengal Institute of Technology,West Bengal,Kolkata,bitkolkata@yahoo.co.in,3323458004
1361,"Birla Institute of Technology, Extension Center Kolkata",West Bengal,Kolkata,bitkol@bitmesra.ac.in,
1362,Medical College Kolkata,West Bengal,Kolkata,prin_kmch@wbhealth.gov.in,
1363,Jadavpur University,West Bengal,Kolkata,registrar@admin.jdvu.ac.in,
1364,ANNEX COLLEGE,West Bengal,Kolkata,info@annexcollege.ac.in,
1365,Tecno India,West Bengal,Kolkata,tiuhodconnects@gmail.com,
1366,West Bengal University of Technology,West Bengal,Kolkata,partha@digitekindia.co.in,
1367,"Modern Institute of Engineering & Technology, Barol, Malipur",West Bengal,Hooghly,info@mietcollege.org,9836931253
1368,Haldia Institute of Technology,West Bengal,East Medinipur,admin@hithaldia.in,252900
1369,BENGAL INSTITUTE OF TECHNOLOGY & MANAGEMENT,West Bengal,Birbhum,director@bitm.org.in,9007030104
1370,Regent Education & Research Foundation,West Bengal,Kolkata,info@rerf.co.in,
1371,Swami Vivekananda Institute of Science & Technology,West Bengal,Kolkata,info@svist.org,8335043359
1372,"BIT,Kolkata",West Bengal,Kolkata,bitkol@bitmesra.ac.in,
1373,BUDGE BUDGE INSTITUTE OF TECHNOLOGY,West Bengal,Kolkata,contact@bbit.edu.in,
1374,RCC INSTITUTE OF INFORMATION TECHNOLOGY,West Bengal,Kolkata,administration@rcciit.org,
1375,Aliah University,West Bengal,Kolkata,infodesk@aliah.ac.in,
1376,Brainware Group of Institutions,West Bengal,Kolkata,info@brain-tech.org,
1377,DR. SUDHIR CHANDRA SUR DEGREE ENGINEERING COLLEGE & SPORTS COMPLEX,West Bengal,Kolkata,info@dsec.ac.in,
1378,CALCUTTA INSTITUTE OF ENGINEERING AND MANAGEMENT,West Bengal,Kolkata,principalciem@gmail.com,3324286365
1379,Vishva Bharti  University,West Bengal,Santiniketan,"info@visva-bharati.ac.in,vice-chancellor@visva-bharati.ac.in",
1380,ACN  COLLEGE OF ENGINEERING & MANAGEMENT STUDIES,Uttar Pradesh,Aligarh,acncemsaligarh@gmail.com,
1381,ADARSHA SCHOOL OF ENGINEERING & INTERNATIONAL POLYTECHNIC,Orissa,Angul,ace.angul@yahoo.com,
1382,AISHWARYA COLLEGE OF ENGINNERING & TECHNOLOGY,Tamil Nadu,Erode,acetdr@gmail.com,256533
1383,AISHWARYA POLYTECHNIC COLLEGE,Tamil Nadu,Erode,aishwaryapoly@gmail.com,
1384,APEX INSTITUTE OF TECHNOLOGY & MANAGEMENT,Orissa,Khordha,principal@apexorissa.com,2113236
1385,ARYAN INSTITUTE OF ENGINEERING AND TECHNOLOGY,Orissa,Cuttack,info@aryanpoly.ac.in,
1386,ASIA PACIFIC INSTITUTE OF INFORMATION TECHNOLOGY (APIIT),Haryana,Panipat,info@apiit.edu.in,
1387,AURANGABAD B.ED TRAINING COLLEGE,West Bengal,Murshidabad,secretary@abtcollege.com,
1388,"B.P PODDAR INSTITUTE OF MANAGEMENT AND TECHNOLOGY,KOLKATA",West Bengal,Kolkata,info@bppimt.ac.in,
1389,"BABA HIRA SINGH BHATTAL INSTITUTE OF ENGINEERING & TECHNOLOGYLEHRAGAGA ( SANGRUR), PUNJAB",Punjab,Sangrur,bhsbiet.director@gmail.com,
1390,"BALAJI COLLEGE OF ENGINEERING, BHIWANI (HARYANA)",Haryana,Bhiwani,bcep_bhiwani@rediff.com,
1391,BALASORE COLLEGE OF ENGINEERING AND TECHNOLOGY,Orissa,Balasore,bcetbalasore@yahoo.com,
1392,BANGALORE CITY COLLEGE,Karnataka,Bangalore,admin@bangalorecitycollege.org,
1393,BAPUJI INSTITUTE OF ENGINEERING AND TECHNOLOGY,Karnataka,Davangere,principal@bietdvg.edu,
1394,BHANGABHUMI  INDUSTRIAL TRAINING CENTRE,Orissa,Mayurbhanj,bhanjabhumiitc.07@gmail.com,9937630025
1395,C.T INSTITUTE OF TECHNOLOGY,Punjab,Jalandhar,aoctit@ctgroup.in,1815055122
1396,"CENTRAL INDIA INSTITUTE OF TECHNOLOGY AND PHARMACY, INDORE",Madhya Pradesh,Indore,ciitpscholarship@gmail.co,7312802390
1397,COLLEGE OF AGRICULTURAL ENGINEERING AND TECHNOLOGY,Gujarat,Junagadh,caet@jau.in,
1398,"COLLEGE OF EDUCATION, MEDUKA",Chhattisgarh,Bilaspur,coedu.medka1@gmail.com,7751202083
1399,D.A.V MODEL COLLEGE,Chhattisgarh,Durg,contactdavmc@gmail.com,
1400,"DALMIA INDUSTRIAL TRAINING  CENTRE, RAJGANGPUR",Orissa,Sundargarh,diti@ocl.in,
1401,DATTA MEGHE INSTITUTE OF ENGINEERING TECHNOLOGY & RESEARCH,Maharashtra,Wardha,"principal_dmietr@yahoo.co,principal@dmietr.edu.in",7152287892
1402,DAYANANDA SAGAR ACADEMY OF TECHNOLOGY AND MANAGEMENT,Karnataka,Bangalore,principaldsatm@gmail.com,
1403,DEEPSIKHA KALA SANSTHAN GROUP OF INSTITUTIONS,Rajasthan,Jaipur,info@deepshikha.org,
1404,DR M. C. SAXENA INSTITUTE OF ENGINEERING & MANAGEMENT,Uttar Pradesh,Lucknow,mcsiem526@gmail.com,5224095761
1405,"DR. B.C.ROY ENGINEERING COLLEGE,DURGAPUR",West Bengal,Bardhaman,principal@bcrec.ac.in,8348694450
1406,G H RAISONI ACADEMY OF ENGINEERING AND TECHNOLOGY,Maharashtra,Nagpur,ghraetnag@raisoni.net,237688
1407,G L A UNIVERSITY,Uttar Pradesh,Mathura,glauniversity@gla.ac.in,
1408,G L BAJAJ INSTITUTE OF TECHNOLOGY & MANAGEMENT,Uttar Pradesh,Gautam Buddha N,ignafor @glbitm.org,
1409,GANDHI INSTITUTE OF ENGINEERING & TECHNOLOGY,Orissa,Rayagada,principal@giet.edu,6857250172
1410,GEORGE COLLEGE OF MANAGEMENT AND SCIENCE,West Bengal,Kolkata,gcms164@gmail.com,
1411,GREATER NOIDA INSTITUTE OF TECHNOLOGY,Uttar Pradesh,Gautam Buddha N,gnairot@gniot.net.in,
1412,CBS GROUP OF INSTITUTIONS,Haryana,Jhajjar,director@cbscolleges.com,8053111444
1413,DR. S.J.S. PAUL MEMORIAL COLLEGE OF ENGINEERING & TECHNOLOGY,Puducherry,Pondicherry,drsjspaulmcet@gmail.com,4132660702
1414,BAISINGA INDUSTRIAL TRAINING CENTRE,Orissa,Mayurbhanj,baisingaitc@gmail.com,9937125271
1415,GANPATI INSTITUTE OF TECHNOLOGY AND MANAGEMENT,Haryana,Yamunanagar,ganpatibilaspur@gmail.com,9315149022
1416,GANGA INSTITUTE OF TECHNOLOGY AND MANAGMENT,Haryana,Jhajjar,gitmkablana@gmail.com,8684000090
1417,"GHANDHI INSTITUTE FOR TECHNOLOGICAL ADVANCEMENT ,BHUBANESHWAR",Orissa,Khordha,scholarship@gita.edu.in,3295904
1418,"GWALIOR  INSTITUTE OF  INFORMATION TECHNOLOGY, GWALIOR (GIIT)",Madhya Pradesh,Gwalior,giitgwl@yahoo.com,
1419,HIMALAYAN GROUP OF PROFESSIONAL INSTITUTIONS,Himachal Pradesh,Sirmour,info@himalayaninstitution,9315325599
1420,"HINA COLLEGE OF NURSING,BANGLORE",Karnataka,Bangalore,HINACOLLEGENURSING@GMAIL.,8041757157
1421,HINA SCHOOL OF NURSING,Karnataka,Bangalore,sbinstitutions@gmail.com,
1422,"IES COLLEGE OF TECHNOLOGY, BHOPAL",Madhya Pradesh,Bhopal,iesbpl@gmail.com,9229251422
1423,INDIRA GANDHI INSTITUTE OF TECHNOLOGY,Orissa,Dhenkanal,igit@stpbh.soft.net,
1424,"INSTITUTE OF TECHNICAL EDUCATION & RESEARCH, BHUBANESWAR",Orissa,Khordha,info@soauniversity.ac.in,
1425,J.L CHATURVEDI COLLEGE OF ENGINEERING,Maharashtra,Nagpur,principal.jlcce@ltjss.net,
1426,JAGAD GURU RAMBHADRACHARYA HANDICAP UNIVERSITY,Uttar Pradesh,Chitrakoot,jrhuniversity@yahoo.com,
1427,KALAM INSTITUTE OF TECHNOLOGY,Orissa,Ganjam,apkitp@gmail.com,9237436037
1428,KOUSTUV INSTITUTE OF SELF DOMAIN,Orissa,Khordha,kisd_2001@rediffmail.com,
1429,KRUPAJAL ENGINEERING SCHOOL,Orissa,Khordha,kes_principal@krupajal.ac,6743253140
1430,LAXMI NARAYAN COLLEGE OF TECHNOLOGY,Madhya Pradesh,Bhopal,lnctbhopal@lnctgroup.in,
1431,MALAVIYA  NATIONAL INSTITUTE OF TECHNOLOGY,Rajasthan,Jaipur,"registrar@mnit.ac.in ,",1412529087
1432,MARINE ENGINEERING AND RESEARCH INSTITUTE,West Bengal,Kolkata,"director@merical.ac.in , drkolkata@imu.co.in",(033) 2401 4673
1433,MODERN INSTITUTE OF ENGINEERING & TECHNOLOGY,Haryana,Kurukshetra,mietkuk@mietkuk.edu.in,
1434,NEW DELHI INSTITUTE OF MANAGEMENT,Delhi,New Delhi,ndimbba@gmail.com,
1435,NMAM INSTITUTE OF TECHNOLOGY,Karnataka,Udupi,principal_nmamit@nitte.edu.in,
1436,"NORTHERN INDIA ENGINEERING COLLEGE, NEW DELHI",Delhi,New Delhi,info@niecdelhi.ac.in,
1437,PADMANAVA COLLEGE OF ENGINEERING,Orissa,Sundargarh,info@pcerkl.ac.in,
1438,PATEL INSTITUTE OF ENGINEERING AND SCIENCE,Madhya Pradesh,Bhopal,deputyregistrar@patelcoll,9425605224
1439,POORNIMA GROUPS OF INSTITUTIONS,Rajasthan,Jaipur,info@poornima.org,
1440,PUNJAB POLYTECHNIC,Punjab,Mohali,admission@pgc.edu.in,
1441,PURNA CHANDRA INSTITUTE OF ENGINEERING AND TECHNOLOGY,Orissa,Angul,pciet_cpd@rediffmail.com,6761252307
1442,R.K.D.F  COLLEGE OF ENGINEERING,Madhya Pradesh,Bhopal,rkdfce_bhopal@rediffmail.com,4017768
1443,R.V.COLLEGE OF ENGINEERING,Karnataka,Bangalore,principal@rvce.edu.in,
1444,RATTAN INSTITUTE OF TECHNOLOGY AND MANAGEMENT.,Haryana,Palwal,info@rattaninstitute.ac.in,
1445,"SAGAR INSTITUTE OF SCIENCE,TECHNOLOGY & RESEARCH, BHOPAL",Madhya Pradesh,Bhopal,sistecr.accounts@sistec.ac.in,7552896785
1446,SANDIPANI ACADEMY,Chhattisgarh,Durg,sandipani.achhoti@gmail.com,
1447,SANSKRITI INSTITUTE OF POLYTECHNIC,Uttar Pradesh,Mathura,info@sanskriti.edu.in,5662308220
1448,SANSKRITI SCHOOL OF POLYTECHNIC,Uttar Pradesh,Mathura,sanskriti.group@yahoo.com,
1449,SANT LONGOWAL INSTITUTE OF ENGINEERING AND TECHNOLOGY,Punjab,Sangrur,dracad@sliet.ac.in,253140
1450,SAPTHAGIRI COLLEGE  ENGINEERING.,Tamil Nadu,Dharmapuri,sapthagiricolleggeofengg@gmail.com,
1451,SATHYABAMA  UNIVERSITY,Tamil Nadu,Kanchipuram,"registrar@sathyabamauniversity.ac.in,vc@sathyabamauniversity.ac.in",
1452,SHASHI BHUSHAN INDUSTRIAL TRAINING CENTRE,Orissa,Jharsuguda,sbitcprincipal@gmail.com,
1453,SHOBHIT UNIVERSITY,Uttar Pradesh,Meerut,mail@shobhituniversity.ac.in,
1454,SHREE RAM MULKH COLLEGE OF TECHNICAL EDUCATION,Haryana,Ambala,srmctep74@yahoo.com,
1455,SILICON INSTITUTE OF TECHNOLOGY,Orissa,Sambalpur,directorwest@silicon.ac.in,
1456,SRI COLLEGE OF ENGINEERING AND TECHNOLOGY,Tamil Nadu,Tiruvannamalai,sricetcse@gmail.com,4183292881
1457,SRI JAYA CHAM RAJENDRE COLLEGE OF ENGINEERING,Karnataka,Mysore,admn@sjce.ac.in,
1458,PEOPLES COLLEGE OF RESEARCH AND TECHNOLOGY,Madhya Pradesh,Bhopal,puso@peoplesgroup.in,7554005488
1459,KRISHNA POLYTECHNIC COLLEGE,Haryana,Yamunanagar,kpcynr@gmail.com,1735274867
1460,SHRI JEET RAM SMARAK  INSTITUTE OF ENGINEERING AND TECHNOLOGY,Uttar Pradesh,Bareilly,sunilpundhir@rediffmail.c,5812602201
1461,ROORKEE ENGINEERING & MANAGEMENT TECHNOLOGY INSTITUTE,Uttar Pradesh,Muzaffarnagar,info@remtech.in,1398268606
1462,MILLENNIUM INSTITUTE OF TECHNOLOGY & SCIENCE,Madhya Pradesh,Bhopal,dharmendra.mgi@gmail.com,7554026000
1463,RAIRANGPUR INDUSTRIAL TRAINING CUM PRODUCTION CENTRE,Orissa,Mayurbhanj,rairangpuriti@gmail.com,9937066994
1464,SRI SATYA SAI INSTITUTE OF SCIENCE & TECHNOLOGY,Madhya Pradesh,Sehore,"sehoresssist@yahoo.in,",9752135004
1465,ST PETERS UNIVERSITY,Tamil Nadu,Chennai,sspsiihstesre@hosrtep@etgemrsauiln.ciovemrsity.org,
1466,STAR ACADEMY OF TECHNOLOGY & MANAGEMENT,Madhya Pradesh,Indore,satmindore0857@gmail.com,
1467,"TECHNOCRATS INSTITUTE OF TECHNOLOGY & SCIENCE (TITS), BHOPAL",Madhya Pradesh,Bhopal,titscontrolroom@gmail.comm,9893312460
1468,VISHVEHWARYA GROUP OF INSTITUTIONS,Uttar Pradesh,Gautam Buddha N,dgiarrector@vgi.ac.in,
1469,Nagaji Institute of Technology & Management,Madhya Pradesh,Gwalior,"info@nagajiinstitutes.org,",
1470,MESS Institute of managementcareer courses(IMCC),Maharashtra,Pune,directorimcc@vsnl.net,2025463453
1471,Nuva College of engineering & Technology,Maharashtra,Nagpur,info@nuvaedu.com,7118661117
1472,Rajdhani engineering College,Rajasthan,Jaipur,recjpr@gmail.com,
1473,Manasa College Of Education,Chhattisgarh,Durg,mansacollege2009@yahoo.in,
1474,"Jaipur Engineering College,Kukas",Rajasthan,Jaipur,jeckukas@yahoo.com,247345
1475,"DDR Para Medical College, Visakhapatnam",Andhra Pradesh,Visakhapatnam,remo_157@yahoo.com,
1476,"Geetam School of International Business, GITAM University",Andhra Pradesh,Visakhapatnam,registrar@gitam.edu,
1477,M.K. School of Nursing Visakapatnam,Andhra Pradesh,Visakhapatnam,mksonvskp@gmail.com,9949116116
1478,Visakha Institute of Engineering & Technology,Andhra Pradesh,Visakhapatnam,vitscollege@gmail.com,
1479,Vitam college of engineering,Andhra Pradesh,Visakhapatnam,admissions@vitam.edu.in,
1480,Mother College of Nurshing,Andhra Pradesh,Visakhapatnam,mothercollegeofnursing4@gmail.com,
1481,Gonna Institute of Information Technology & Sciences,Andhra Pradesh,Visakhapatnam,giitscollege@gmail.com,
1482,"Gokul Institute of Technology and Sciences, Vizianagaram",Andhra Pradesh,Vizianagaram,gitas@gokulcollege.com,
1483,Venkatapadma School of Nursing,Andhra Pradesh,Vizianagaram,venkatapadmaschoolofnursing99@yahoo,8922237000
1484,PREVEENYA INSTITUTE OF MARINE ENGINEERING & MARITIME STUDIES.,Andhra Pradesh,Vizianagaram,primevisakha@yahoo.co,
1485,Swamy Vivekananda Engineering College,Andhra Pradesh,Vizianagaram,sveb.college@gmail.com,
1486,Thandra Paparaya Institute of Science Technology,Andhra Pradesh,Vizianagaram,princitpist@gmail.com,
1487,Laxmi Nursing College,Andhra Pradesh,Vizianagaram,lsn.vzm@gmail.com,
1488,Sri Sai Aditya Institute Of Science & Technology,Andhra Pradesh,West Godavari,office@saiaditya.edu.in,
1489,Sri Venkateshwara school of Nursing Malkajgiri,Andhra Pradesh,Rangareddy,svsnhyd@gmail.com,9666935596
1490,Mumtaz College of Engineering & Technology,Andhra Pradesh,Hyderabad,mumtazcet@gmail.com,
1491,Archana School of Nursing,Andhra Pradesh,Hyderabad,mtcn.director@gmail.com,
1492,"Rajeshwari School of Nursing, Vanasthal ipuram",Andhra Pradesh,Hyderabad,md.yusuf@mail.com,
1493,GREENFORT ENGINEERING COLLEGE,Andhra Pradesh,Hyderabad,gfec.j0@gmail.com,
1494,"CIPTE, Central Institute of Plastics Engineering & Technology",Andhra Pradesh,Hyderabad,cipethyderabad@yahoo.co.in,
1495,MOGHAL COLLEGE OF ENGINEERING AND TECHNOLOGY,Andhra Pradesh,Hyderabad,moghaledusociety@yahoo.com,
1496,Ellenki College Of Engineering & Technology,Andhra Pradesh,Hyderabad,ellenkienggcollege@gmail,9392500124
1497,Little Flower School Of Nursing,Andhra Pradesh,Hyderabad,"littleflowernsg@yahoo.com,info@littleflowerschoolofnursing.co.in",
1498,St. Marys College of Engineering and Technolog,Andhra Pradesh,Hyderabad,compass@stmarysgroup.com,
1499,Vignana Jyothi Institute of Management,Andhra Pradesh,Hyderabad,vignanajyothi@hotmail.com,
1500,Maulana Azad National Urdu University,Andhra Pradesh,Hyderabad,directorddemanuu@gmail.com,
1501,Aditya School Of Nursing,Andhra Pradesh,Hyderabad,aditya4nursing@gmail.com,9391222471
1502,SWAMI PARMANAND COLLEGE OF ENGINEERING & TECHNOLOGY,Punjab,Mohali,principalspcet1@gmail.com,9216799021
1503,Indira Gandhi Institute of Pharmaceutical Sciences,Orissa,Bhubaneswar,info@igips.edu.in,2556582
1504,GANDHI INSTITUTE OF ADVANCED COMPUTER & RESEARCH,Orissa,Rayagada,":mail@giacr.ac.in,iacr_enggcollege@yah",236350
1505,AERP INSTITUTE OF TECHNOLOGY & MANAGEMENT,Haryana,Palwal,sunilbainsla55@gmail.com,30003208
1506,purushottam school of enginnering & Technology,Orissa,Sundargarh,principal.pset@gmail.com,9337108588
1507,Sigma College Of Nursing,Andhra Pradesh,Hyderabad,aanihyd@gmail.com,9391222471
1508,Vidya Vikas Technology,Andhra Pradesh,Hyderabad,principal_vvit@yahoo.co.in,
1509,Mangamma Memorial School Of Nursing,Andhra Pradesh,Hyderabad,mangammamemorial@gmail.com,
1510,BBR School of Nursing,Andhra Pradesh,Hyderabad,bbr4gnm@gmail.com,9030888596
1511,Healing Touch School of Nursing,Andhra Pradesh,Hyderabad,htson4nursing@gmail.com,9966990708
1512,Thatha School of Nursing,Andhra Pradesh,Hyderabad,thathagnm@gmail.com,9966990708
1513,SIVANI  SCHOOL OF NURSING,Andhra Pradesh,Karimnagar,sivanischoolofnursing@gmail.com,
1514,syed hashim college of science & technology,Andhra Pradesh,Medak,exams.shcst@gmail.com,
1515,Ellenki College of Engineering For Women,Andhra Pradesh,Medak,ellenkiwomens@gmail.com,9441178082
1516,Medak College of Engineering & Technology,Andhra Pradesh,Medak,medakenggcollege@gmail.com,
1517,Arvindaksha Educational Societys Group of Institutions,Andhra Pradesh,Nalgonda,principal@aravindakshagroup.org,
1518,Nizam Institute of EngineeringTechnology,Andhra Pradesh,Nalgonda,nizamenggnlg@rediffmail.c,9291612476
1519,Sana College of Teacher Education,Andhra Pradesh,Nalgonda,sanam8kdd@yahoo.co.in,
1520,St. Mary Engineering College,Andhra Pradesh,Nalgonda,compass@stmarysgroup.com,
1521,St Marys Engineering College,Andhra Pradesh,Nalgonda,compass@stmarysgroup.com,
1522,E.V.R COLLEGE OF ENGG. AND TECHNOLOGY,Andhra Pradesh,Nalgonda,evrcet60@gmail.com,
1523,Sana Engineering College,Andhra Pradesh,Nalgonda,sanam8kdd@yahoo.co.in,
1524,St.Mary College of Engineering and Technology,Andhra Pradesh,Nalgonda,compass@stmarysgroup.com,
1525,P INDRA REDDY MEMORIAL ENGINEERING COLLEGE,Andhra Pradesh,Rangareddy,principal.pirmec@gmail.com,
1526,Younis Sultan College Of Engineering,Andhra Pradesh,Rangareddy,yuns_eng@yahoo.com,
1527,NISHITHA COLLEGE OF ENGINEERING & TECHNOLOGY,Andhra Pradesh,Rangareddy,"info@nishitha.in,      iqbal@nishitha.in",
1528,"Guru Nanak Engineering College, Ibrahimpatnam",Andhra Pradesh,Rangareddy,gnitprincipal@gmail.com,8414202120
1529,S.V. College of Engineering & Technology,Andhra Pradesh,Rangareddy,svcet33@gmail.com,
1530,NOBLE SCHOOL OF NURSING,Andhra Pradesh,Rangareddy,nobleschool83@gmail.com,954250566
1531,THE LITTLEFLOWER SCHOOL OF NURSING,Andhra Pradesh,Rangareddy,littleflowernsg@gmail.com,
1532,Kasireddy Narayan Reddy College of Engineering & Research,Andhra Pradesh,Rangareddy,knrexams@gmail.com,9704200019
1533,St. Marys College of Engineering and Technology,Andhra Pradesh,Rangareddy,admissions@stmarysengg.org,
1534,SHAAZ College of Engineering & Technology,Andhra Pradesh,Rangareddy,info@shaaz.org,
1535,Kasireddy Narayan Reddy College of Engineering,Andhra Pradesh,Rangareddy,knrrengg@gmail.com,
1536,Sagar Institute of Technology,Andhra Pradesh,Rangareddy,accounts @svvr.org,9848787055
1537,Sagar Group of Institutions,Andhra Pradesh,Rangareddy,"principal@svvr.org,laxmanreddy@svvr.org",
1538,kite college of professional engineering sciences,Andhra Pradesh,Rangareddy,principal.kpes@gmail.com,
1539,Holy Mary Institute of Technology & Science,Andhra Pradesh,Rangareddy,"hmgi2014@gmail.com, princ",9848511063
1540,BITS PILANI HYDERABAD CAMPUS,Andhra Pradesh,Rangareddy,swd@hyderabad.bits-pilani,4066303820
1541,Vidya Vikas Institute of Technology,Andhra Pradesh,Rangareddy,principal_vvit@yahoo.co.in,
1542,Annamacharya Institute of Technology & Science,Andhra Pradesh,Rangareddy,principalaith@gmail.com,
1543,netaji subhas college,Chhattisgarh,Raipur,"nspe@rediifmail.com,director_nsec@yahoo.",212070
1544,NAUMAN COLLEGE OF ELEMENTARY TEACHER EDUCATION FOR WOMEN,Andhra Pradesh,Nalgonda,cnoamumanprincipal786@gmail.com,8683250273
1545,LORDS INSTITUTE OF ENGINEERING AND TECHNOLOGY,Andhra Pradesh,Hyderabad,exams@lords.ac.in,
1546,Guru nanak Institutions,Haryana,Ambala,info@gni.edu.in,9996500140
1547,chaitanya enginnering college,Andhra Pradesh,Visakhapatnam,principal@cec.ac.in,9949993477
1548,Gurukul Vidyapeeth Institute of Engg. & Tech.,Punjab,Patiala,gurukul.schlorship@guruku,9876469000
1549,Dronacharya Group of Institutions,Uttar Pradesh,Gautam Buddha N,rgeagristrar.gnindia@dronach,2253144
1550,Prasad engineering College,Andhra Pradesh,Warangal,pricipalprasadengineering,9396733345
1551,The Little flower school of nursing,Andhra Pradesh,Hyderabad,littleflowernsg@gmail.com,4024020762
1552,Hasvita Institute of Science & Technology,Andhra Pradesh,Rangareddy,hasvitagroup18@gmail.com,9948211644
1553,Sri Sai Educational Societys Group of Institutions,Andhra Pradesh,Nalgonda,principal.8b@gmail.com,8498053408
1554,Gandhi Academy of Technical Education(Polytechnic),Andhra Pradesh,Nalgonda,principal.qe@gmail.com,8498053357
1555,BHAGYANAGAR SCHOOL OF NURSING,Andhra Pradesh,Rangareddy,bhagyanagar_son@yahoo.in,9542383666
1556,Haryana college of Education,Haryana,Sirsa,haryanacollegofeducation@gmail.com,222021
1557,Aravali Institute of Technical Studies,Rajasthan,Udaipur,"info@aravallieducation.org,office@aravalieducation.org",2650131
1558,Jyoti ITC,Orissa,Mayurbhanj,jyoti.itc.mbi@gmail.com,8895575125
1559,BUDHUVIR PRIVATE INDUSTRIAL TRAINING INSTITUTE,Orissa,Sundargarh,budhuviriti_bartoli@yahoo.in,66124711
1560,Asia Pacific Institute ofInformation Technology(APIIT) SD INDIA,Haryana,Panipat,info@apiit.edu.in,180653244
1561,MILLENNIUM INSTITUTE OF TECHNOLOGY,Uttar Pradesh,Saharanpur,mituniverse@gmail.com,9368204707
1562,Nalanda University,Bihar,Nalanda,vcoffice@nalandauniv.com,61122553
1563,NRI INSTITUTE OF RESEARCH AND TECHNOLOGY,Madhya Pradesh,Bhopal,contactus@nrigroupindia.com,7554085500
1564,Shivalik Institute of Engineering & Technology,Haryana,Ambala,shivalik.ambala@gmail.com,17130546
1565,"Jaya School of Nursing ,Secundrabad",Andhra Pradesh,Rangareddy,json2244@gmail.com,9866168284
1566,Arjun College of TechnologyScience,Andhra Pradesh,Rangareddy,arjun_acts05@yahoo.co.in,9246150854
1567,Tirumala Engineering College,Andhra Pradesh,Rangareddy,trmloffice@gmail.com,
1568,Global Institute of Mangement,Andhra Pradesh,Rangareddy,globalsecretary@yahoo.co.in,
1569,Vivekananda Institute of Engineering & Technology,Andhra Pradesh,Rangareddy,info@sviet.ac.in,
1570,Bhandari Sriniwas Institute of Technology,Andhra Pradesh,Rangareddy,bsit999@gmail.com,9866222406
1571,Joseph Sriharsha and Mary Indraja Education Societys Group of Institutions,Andhra Pradesh,Rangareddy,rev_kvkrao@yahoo.co.in,
1572,J J Institute of Information technology,Andhra Pradesh,Rangareddy,principal.jjiit@gmail.com,
1573,Al-Hadeeb College of Engineering & Technology,Andhra Pradesh,Rangareddy,admin.officer@alhabeebcol,
1574,"Central Institute of Tool Design, Dalanagar",Andhra Pradesh,Rangareddy,citdplacements@citdindia,402377615
1575,Narayana Engineering & Technical Campus,Andhra Pradesh,Rangareddy,99mprincipal@gmail.com,
1576,GIET COLLEGE OF ENGINEERING,Andhra Pradesh,East Godavari,principal6r@gmail.com,9849146655
1577,SAI KRISHNA POLYTECHNIC,Andhra Pradesh,Vizianagaram,info@educrib.com,
1578,HARSHITH GROUP OF INSTITUTIONS,Andhra Pradesh,Rangareddy,principalhgih@gmail.com,
1579,Jagnanath Institute of engineering & Technology,Orissa,Cuttack,abc@abc.com,
1580,R.K.D.F. college of technology and research,Madhya Pradesh,Bhopal,rkdfctr_be@rediffmail.com,9826048401
1581,Vikramaditya Ploytechnic,Haryana,Rohtak,vikramadityaedu@yahoo.in,216107
1582,Shekhawati Institute of Engineering & Technology,Rajasthan,Sikar,ranjeet3333@rediffmail.co,246024
1583,Madras School of Economics,Tamil Nadu,Chennai,info@mse.ac.in,4422300304
1584,Index School of Nursing,Madhya Pradesh,Indore,nursing@index group.co.in,4013751
1585,INNOVATIVE INSTITUTE OF TECHNOLOGY AND MANAGEMENT,Haryana,Sonipat,innovative.stm@gmail.com,9729998053
1586,CMS POLYTECHNIC COLLEGE,Tamil Nadu,Namakkal,"cmspc.prl@gmail.com ,  vs",7639596008
1587,JSM SCHOOL OF NURSING,Andhra Pradesh,Hyderabad,jsm4gnm@gmail.com,9849586053
1588,CHAKRADHAR INDUSTRIAL TRAINING CENTER,Orissa,Mayurbhanj,chakradharitc@gmail.com,212024
1589,"Bheemanna Khandre Institute of Technology,Bhalki (Formerly Rural EngineeringCollege,Bhalki)",Karnataka,Bidar,bkitbhalki@gmail.com,8484262288
1590,MATA RAJ KAURINSTITUTE OF ENGG.& TECHNOLOGY,Haryana,Rewari,admin@mrk.ac.in,931524411
1591,GNANESWARI SCHOOL OF NURSING,Andhra Pradesh,Rangareddy,SAMBIREDDYD82@YAHOO.COM,9550495111
1592,BHOPAL INSTITUTE OF TECHNOLOGY & SCIENCE PHARMACY,Madhya Pradesh,Bhopal,bitspharmacy@gmail.com,74802623
1593,SRS COLLEGE OF ENGINEERING AND TECHNOLOGY,Tamil Nadu,Salem,Principal812@gmail.com,8148199999
1594,SVS POLYTECHNIC,Uttar Pradesh,Meerut,kesncr@gmail.com,8958020304
1595,Roorkee College of Polytechnic Roorkee ( A Christian Minority Institution),Uttarakhand,Haridwar,rcpuniverse09@gmail.com,13322329
1596,ADVAIT VEDANTA INSTITUTE OF TECHNOLOGY,Rajasthan,Jaipur,md@adved.org,8875018051
1597,Swami Vivekanand Nursing School,Madhya Pradesh,Sagar,svnsgr123@gmail.com,8982715186
1598,KODADA INSTITUTE OF TECHNOLOGY & SCIENCE FOR WOMEN,Andhra Pradesh,Nalgonda,kits4women@rediffmail.com,86892509
1599,Tirupati College of Polytechnic and Pharmacy,Haryana,Fatehabad,tirupatiratia@gmail.com,9214444124
1600,ANASUYA DEVI INSTITUTE OF TECHNOLOGY &SCIENCES,Andhra Pradesh,Nalgonda,adit.principal@gmail.com,9849798674
1601,ROURKELA INSTITUTE OF NURSING,Orissa,Sundargarh,rin.rourkela@gmail.com,66126647
1602,Grecian Institute for Higher Studies,Uttar Pradesh,Unnao,infogihs@gmail.com,7309380608
1603,VEDANT COLLEGE OF ENGG & TECH,Rajasthan,Bundi,vcetbundi08@yahoo.com,9414055557
1604,VATHSALYA INSTITUTE OF SCIENCE &TECHNOLOGY,Andhra Pradesh,Nalgonda,vathsalyaao@gmail.com,9248089801
1605,Hooghly Engineering & Technology College,West Bengal,Hooghly,mail@hetc.ac.in,26810505
1606,RIMTECH Itc,Orissa,Mayurbhanj,rimtechitc1@gmail.com,9437320446
1607,JAKIR HOSSAIN INSTITUTE OF POLYTECHNIC,West Bengal,Murshidabad,jhipoffice@gmail.com,263921
1608,JAGRUTI INSTITUTE OF ENGINEERING & TECHNOLOGY,Andhra Pradesh,Rangareddy,info@jagruti.ac.in,7207555596
1609,Gandhi Institute of Managements Study,Orissa,Rayagada,principal@giet.edu,6857250172
1610,"GLOBAL Nature Care Sangathans Group of Institution, Jabalpur",Madhya Pradesh,Jabalpur,registrar@global.org.in,4062326
1611,SHRI KRISHAN POLYTECHNIC,Haryana,Kurukshetra,skpkkr@rediffmail.com,223825
1612,"BANKI COLLEGE (AUTONOMOUS), BANKI",Orissa,Cuttack,bankiautocol@yahoo.co.in,240221
1613,Ludhiana Group of  Colleges,Punjab,Ludhiana,groupofcolleges@gmail.com,8872335555
1614,ASRAM College of Nursing,Andhra Pradesh,West Godavari,asramnursingcollege@gmail,232000
1615,ASRAM School of Nursing,Andhra Pradesh,West Godavari,asramnursingcollege@gmail,8813232000
1616,Padmashree Dr.D.Y.Patil Institute of Engineering &Technology.,Maharashtra,Pune,info.engg@dypvp.edu.in,27421095
1617,Shivalik Polytechnic,Haryana,Ambala,shivalikpoly@gmail.com,3054600
1618,"M.G.R. COLLEGE, HOSUR",Tamil Nadu,Krishnagiri,mgrprincipal@yahoo.co.in,261004
1619,KK COLLEGE OF ENG & MANAGEMENT,Bihar,Nalanda,info@kkcemnalanda.ac.in,290206
1620,NBN Sinhgad School Of Management Studies,Maharashtra,Pune,nbnssoms@sinhgad.edu,24355042
1621,"ST JOSEPHS SCHOOL OF NURSING,MAHARANIPETA",Andhra Pradesh,Visakhapatnam,dorastjosephs@yahoo.com,6531245
1622,Gravismeds School of School of Nursing,Andhra Pradesh,Visakhapatnam,gravismeds@gmail.com,8912535337
1623,RSC COLLEGE OF NURSING,Madhya Pradesh,Gwalior,info@rsccollege.org,2811205
1624,Chaitanya Post graduate college(Autonomous),Andhra Pradesh,Warangal,chaitanya@chaitanyacolleg,9848667555
1625,Tudi Ram Reddy Institute of Technology&Sciences,Andhra Pradesh,Nalgonda,trrit.principal@gmail.com,659111
1626,shekhawati polytechnic college,Rajasthan,Sikar,ranjeet3333@rediffmail.co,246024
1627,shekhawati college sikar.,Rajasthan,Sikar,"info@sigsikar.org,  director@sgisikar.org",
1628,TRINITY COLLEGE FOR MANAGEMENT AND  TECHNOLOGY,Uttar Pradesh,Ghaziabad,trinity.gzb@gmail.com,9311647712
1629,CHAITANYA COLLEGE OF PHARMACY EDUCATION & RESEARCH,Andhra Pradesh,Warangal,chaitanya@chaitanyacolleg,9848667555
1630,CHAITANYA INSTITUTE OF TECHNOLOGY & SCIENCE,Andhra Pradesh,Warangal,chaitanya@chaitanyacolleg,9848667555
1631,Oriental college of Managment Bhopal,Madhya Pradesh,Bhopal,Directoroct @oriental.ac.,2529026
1632,"SINHGAD INSTITUTE OF BUSINESS ADMINISTRATION & COMPUTER APPLICATION,(SIBACA) LONAVALA",Maharashtra,Pune,director_sibaca@sinhgad.e,304308
1633,VIJAY KRISHNA COLLEGE OF NURSING,Andhra Pradesh,Visakhapatnam,vijaykrishnanursing@gmail,8179310146
1634,VISHNUSREE INSTITUTE OF TECHNOLOGY,Andhra Pradesh,Nalgonda,vsitpolytechnic@gmail.com,7730084030
1635,MANDAVA INSTITUTE OF ENGINEERING AND TECHNOLOGY,Andhra Pradesh,Krishna,mietenggcollege@gmail.com,8654226768
1636,Pune Institution of Business Management,Maharashtra,Pune,datta.j@pibm.in,66575041
1637,KRISHNA INSTITUTE OF TECHNOLOGY & MANAGEMENT,Uttar Pradesh,Allahabad,contactkrishnainstitute@g,8090428367
1638,P.N.School of Nursing,Madhya Pradesh,Morena,pnnursingschool@gmail.com,9414879024
1639,"BIRLA INSTITUTE OF TECHNOLOGY -MESRA, JAIPUR CAMPUS",Rajasthan,Jaipur,bitjaipur@bitmesra.ac.in,4019798
1640,Pragathi College of Nursing,Karnataka,Bangalore,pion_bm@rediffmail.com,9845470034
1641,SVS GROUP OF INSTITUTIONS,Uttar Pradesh,Meerut,kesncr@gmail.com,8958020304
1642,GYAN GANGA POLYTECHNIC,Haryana,Kurukshetra,gyanganga_poly@yahoo.com,9996012695
1643,Rajasthan Institute of Engineering & Technology,Rajasthan,Jaipur,rietjaipur@yahoo.com,2250066
1644,Pragathi Institute of Nursing,Karnataka,Bangalore,pion_bm@rediffmail.com,9880795263
1645,TEJA COLLEGE OF PHARMACY,Andhra Pradesh,Nalgonda,tejacollegepharm@gmail.co,9985596727
1646,CAMELLIA INSTITUTE OF  TECHNOLOGY & MANAGEMENT,West Bengal,Hooghly,citmhooghly09@gmail.com,9007030121
1647,International School of Management,Bihar,Patna,ismpatna.patna@gmail.com,3222100
1648,SLCS COLLEGE OF PHARMACY,Andhra Pradesh,Rangareddy,slciet@yahoo.com,9866502063
1649,SCHOOL OF ENGINEERING,Madhya Pradesh,Sehore,info@sssutms.co.in,222482
1650,B.V.KRISHNA POLYTECHNIC,Andhra Pradesh,Nalgonda,principal.bvkrishna@gmail,8498053321
1651,"School of Physical Education, SSSUTMS",Madhya Pradesh,Sehore,info@sssutms.co.in,223647
1652,AGNIHOTRI SCHOOL OF TECHNOLOGY (POLYTECHNIC) WARDHA,Maharashtra,Wardha,ast695@rediffmail.com,25888
1653,BHAGATH COLLEGE OF DIPLOMA IN ENGG & TECH.-303,Andhra Pradesh,Nalgonda,bhagatpoly303@gmail.com,9640722788
1654,INSTITUTE OF PROFESSIONAL EDUCATION AND RESEARCH,Madhya Pradesh,Bhopal,ipermba@iper.ac.in,660301
1655,Sanghvi Institute of Management & Science,Madhya Pradesh,Bhopal,contact@sims-indore.com,2580000
1656,Shri Sardari Lal College of Education,Haryana,Ambala,sslcehry@gmail.com,25725
1657,RSC SCHOOL OF NURSING,Madhya Pradesh,Gwalior,INFO@RSCCOLLEGE.ORG,2811205
1658,ELLENKI INSTITUTE OF ENGINEERING & TECHNOLOGY,Andhra Pradesh,Medak,ssriet@gmail.com,9347550240
1659,Uttaranchal University,Uttarakhand,Dehradun,university@uttaranchaluni,2772135
1660,ARULMURUGAN POLYTECHNIC COLLEGE,Tamil Nadu,Karur,principal@arulmurugan.edu.in,9842980789
1661,GRAPHIC ERA UNIVERSITY,Uttarakhand,Dehradun,registrar@geu.ac.in,2642727
1662,"MAKHANLAL CAHTURVEDI NATIONAL UNIVERSITY OF JOURNALISM ANDCOMMUNICATION",Madhya Pradesh,KHANDWA,karmveervidyapeeth@ gmail,7332248895
1663,Sri Bhargavi School Of Nursing Ongole,Andhra Pradesh,Prakasam,sribhargavischoolofnursingogl@gmail.co,
1664,NARSIMHA REDDY ENGINEERING COLLEGE,Andhra Pradesh,Rangareddy,nrengineeringcollege@gmai,9849775454
1665,Radhika  M.P.H.W. (F) Training Institute,Andhra Pradesh,Prakasam,radhikamphwtraininginstitute@gmail.co,8592235396
1666,Sri Durga School Of Nursing Ongole,Andhra Pradesh,Prakasam,sridugraschoolofnursingogl@gmail.com,9440211331
1667,SHRI DATTA MEGHE POLYTECHNIC,Maharashtra,Nagpur,sdmpoly@hotmail.com,9764996498
1668,KALKA INSTITUTE FOR RESEARCH & ADVANCED STUDIES,Uttar Pradesh,Meerut,kalkanursingcollege@gmai,1213263762
1669,D.G.R. SCHOOL OF NURSING,Andhra Pradesh,Nellore,dgrnursingschool@gmail.com,9885237101
1670,ROYAL INSTITUTE OF TECHNOLOGY & SCIENCE,Andhra Pradesh,Rangareddy,royalprincipal@gmail.com,8790393629
1671,VITS ENGINEERING COLLEGE,Orissa,Khordha,vitstech@gmail.com,2542136
1672,College of Engineering & Technology(IILM Academy of Higher Learning),Uttar Pradesh,Gautam Buddha N,igilamr_ahl@iilm.ac.in,6002159
1673,TRUBA COLLEGE OF ENGINEERING & TECHNOLOGY,Madhya Pradesh,Indore,mitesh.soni@trubainstitute.ac.in,3240041
1674,saraswati professionalhigher education college of nursing,Punjab,Mohali,sphegharuan@gmail.com,7696377788
1675,sinhgad school of business studies,Maharashtra,Pune,ssbsoffice@sinhgad.edu,2066831822
1676,"Vaishnavi Institute of Technology & Science,Bhopal",Madhya Pradesh,RAISEN,",vditirse.bcthoor_psaslb@s@gmsinahilg.csodm.edu",206256
1677,"Dr.K.N Modi Institute Of Engineering & Technology,Modinagar",Uttar Pradesh,Ghaziabad,director@knmiet.edu,8791082230
1678,SITARAMAIAH COLLEGE OF NURSING,Andhra Pradesh,Rangareddy,sitaramaiah61@gmail.com,8686706226
1679,PYDAH COLLEGE of Enginnering,Andhra Pradesh,East Godavari,princengg@pydah.co.in,2315333
1680,Padmashree Krutarth Acharya Institute of Engineering Technology,Orissa,Bargarh,pkaietadmission@gmail.com,262016
1681,B.V.RAJU INSTITUTE OF TECHNOLOGY,Andhra Pradesh,Medak,bvrit@bvrit.ac.in,222000
1682,"SunRise University,Alwar",Rajasthan,Alwar,provc@sunriseuniversity.in,9649903052
1683,S. SINA COLLEGE,Bihar,Aurangabad,facultyofpharmacyssc@gmai,223133
1684,St. John College of EngineeringTechnology,Maharashtra,Thane,sjcet.aldel@rediffmail.co,254846
1685,Shivajirao S.Jondhale College Of Engineering Dombivli,Maharashtra,Thane,abc@abc.com,
1686,CDRZ POLYTECHNIC,Haryana,Jhajjar,cdrzpolytechnic@gmail.com,9813238547
1687,Maruthi Paramedical Academy College Of Nursing B.Sc (Nusing),Andhra Pradesh,Khammam,maruthi.bcm@gmail.com,9849456695
1688,AP GOYAL SHIMLA UNIVERSITY,Himachal Pradesh,Shimla,da@apg.edu.in,9805502114
1689,Maruthi Paramedical Academy School Of Nursing GNM(Nusing),Andhra Pradesh,Khammam,"maruthi.bcm@gmail.com, dr",9849456695
1690,INSTITUTE OF INDUSTRIAL EDUCATION & TRAINING,Orissa,Mayurbhanj,iiet.itc@gmail.com,9777331565
1691,BHAWNA INSTITUTE OF PROFESSIONAL STUDIES,Uttar Pradesh,Allahabad,contact@bhawnastudies.com,9307960011
1692,"DEV POLYTECHNIC COLLEGE, DHEEN (AMBALA)",Haryana,Ambala,devpolytechnic1@gmail.com,8685000457
1693,Mahavir Engneering College,Orissa,Khordha,mecbhubaneswar@gmail.com,2556582
1694,P R R MEMORIAL ENGINEERING COLLEGE,Andhra Pradesh,Rangareddy,prrm1998@gmail.com,9052223769
1695,"Poornima Institute of Engg & Technology,Jaipur",Rajasthan,Jaipur,info@poornima.org,2771628
1696,Rao Jai  Ram College of Education,Haryana,Mahendragarh,rjrpbm@gmail.com,9416130996
1697,"Jind Institute of Engineering & Technology, Jind",Haryana,Jind,JIETPRINCIPAL@GMAIL.COM,9896948005
1698,VANDANA SCHOOL OF NURSING,Andhra Pradesh,Nalgonda,vandanason2004@gmail.com,9848993664
1699,SRIGURU ITI,Orissa,Cuttack,sriguruitc@ymail.com,2491120
1700,GALAXY PARAMEDICAL COLLEGE,Jammu,Jammu,galaxyjammu7@gmail.com,9419141189
1701,"Swami Dayanand College of Pharmacy, Bathinda",Punjab,Bathinda,sdceedu1@gmail.com,3291192
1702,NEELKANTH VIDYAPEETH,Uttar Pradesh,Meerut,info@neelkanth.edu.in,1212575185
1703,SARASWAT INSTITUTE OF MANAGEMENT,Orissa,Khordha,saraswat_mba@yahoo.in,243778
1704,Swami Devi Dyal Institute of Engg. & Tech.,Haryana,Panchkula,sddiet_panchkula@yahoo.co,258266
1705,Swami Devi Dyal School of Nursing,Haryana,Panchkula,sddiet_panchkula@yahoo.co,258627
1706,North Odisha School of Engineering,Orissa,Mayurbhanj,northodishaschoolofengineering@gmail.,8093023402
1707,ISB&M College of  Commerce,Maharashtra,Pune,isbmcc@isbm.ac.in,667546625
1708,Shri Shankaracharya College of nursing,Chhattisgarh,Durg,sscn.bhilai@yahoo.com,7882241733
1709,STES Smt. Kashibai navale college of engineering,Maharashtra,Pune,",psrsicnnc_ibphaill.asik@ncyoaheo@o.scionmhgad.edu",24354938
1710,veltech rangarajan Dr.sagunthala R&D institute  of sciencetechnology,Tamil Nadu,Tiruvallur,veltech@vsnl.com,26840605
1711,RAM NANDAN PANDEY PVT ITI,Bihar,Aurangabad,vickysi2002est@gmail.com,9431417084
1712,United College of Engineering & Research(AICTE),Uttar Pradesh,Gautam Buddha N,ignafor gn@united.ac.in,2328236
1713,Inderprastha Polytechnic College,Haryana,Kaithal,ippcollege@gmail.com,96200
1714,"RADHARAMAN ENGINEERING COLLEGE, POLYTECHNIC WING",Madhya Pradesh,Bhopal,rgirecdip@gmail.com,7552896303
1715,Baba Farid College of Engg. & Technology,Punjab,Bathinda,principalbfcet@babafaridgroup.com,1642786041
1716,SANA ColLEGE OF PHARMACY,Andhra Pradesh,Nalgonda,sanaftkdd@gmail.com,255763
1717,ANAND INTERNATIONAL COLLEGE OF ENGINEERING,Rajasthan,Jaipur,director@anandice.ac.in,234995
1718,Indo Global College of Engineering,Punjab,SAS Nagar,principaligce@gmail.com,9876012402
1719,"birla institute of technology ,mesra, ranchi (noida campus)",Uttar Pradesh,Gautam Buddha N,bgiatrnoida@bitmesra.ac.in,2440408
1720,School of Engineering & Applied Science,Gujarat,Ahmedabad,Registrar@raiunivesity.ed,8980004322
1721,MAHABIR ITC,Orissa,Balasore,mahabir.iti@gmail.com,8093796949
1722,AUROBINDO INSTITUTE OF ENGINEERING AND TECHNOLOGY(POLYTECHNIC),Andhra Pradesh,Rangareddy,abietcareers@gmail.com,9705388662
1723,SREEDATTHA INSTITUTE OF ENGINEERING AND SCIENCE,Andhra Pradesh,Rangareddy,info@sreedattha.ac.in,8801099941
1724,SREEDATTHA INSTITUTE OF ENGINEERING AND SCIENCE (polytechnic),Andhra Pradesh,Rangareddy,info@sreedattha.ac.in,8801099921
1725,Jaya Prakash Narayan College of Engineering,Andhra Pradesh,Mahabubnagar,principal@jpnce.ac.in,275313
1726,"Peoples Institute of Hotel Management, Catering Technology & Applied Nutrition",Madhya Pradesh,Bhopal,"ed@pihmct.peoplesgroup.in ,princ@pihmct.peoplesgroup.in",7554005062
1727,"Institute of Management Technology, Hyderabad",Andhra Pradesh,Rangareddy,registrar@imthyderabad.edu.in,30461662
1728,HOLY MARY INSTITUTE OF TECHNOLOGY,Andhra Pradesh,Rangareddy,principalhit@gmail.com,9010642888
1729,ORISSA ITC,Orissa,Khordha,orissaitcbbsr@gmail.com,9437233224
1730,"SHRI RAWATPURA SARKAR COLLEGE OF EDUCATION, NAYA RAIPUR",Chhattisgarh,Raipur,sritechraipur@gmail.com,2120175
1731,Bhagwan Buddha Primary Teachers Education College,Bihar,Siwan,bhagwanbudh@yahoo.com,242045
1732,"Pinkcity Engineering College And Research Center, Jaipur",Rajasthan,Jaipur,pcecrc@gmail.com,9785644671
1733,NARAYAN NURSING COLLEGE,Bihar,Rohtas,nncjamuhar@gmail.com,281899
1734,R.N.Modi Engineering College,Rajasthan,Kota,support@rmeckota.com,7443290960
1735,SANA POLYTECHNIC,Andhra Pradesh,Nalgonda,148.sana@gmail.com,255776
1736,NARAYANI INSTITUTE OF ENGINEERING & TCHNOLOGY,Orissa,Angul,nietangul@gmail.com,9937063437
1737,SHANTI NIKETAN GROUP OF INSTITUTIONS,Uttar Pradesh,Meerut,infosngi.mrt@gmail.com,8937002008
1738,Draupadi Insititute for Education & Training - ITC (DIET - ITC),Orissa,Jharsuguda,dietitc_jsg@yahoo.in,9861236657
1739,"TIT College, Bhopal",Madhya Pradesh,Bhopal,titcollegebpl2008@gmail.c,7898452039
1740,SUPER AADARSH PVT ITI,Bihar,Aurangabad,vickysi2002est@gmail.com,9431417084
1741,Peoples Institute of Management & Research,Madhya Pradesh,Bhopal,puso@peoplesgroup.in,7554005421
1742,JJ COLLEGE OF PHARMACY,Andhra Pradesh,Rangareddy,principal.jjcpm@gmail.com,9441119508
1743,RADHARAMAN INSTITUTE OF PHARMACEUTICAL SCIENCES,Madhya Pradesh,Bhopal,ripsbhopal@gmail.com,9827328505
1744,RADHARAMAN COLLEGE OF PHARMACY BHOPAL M.P.,Madhya Pradesh,Bhopal,rcpbhopal@gmail.com,2896218
1745,MEGHNAD SAHA INSTITUTE OF TEC HNOLOGY,West Bengal,Kolkata,msitcollege09@gmail.com,24431031
1746,MOTHER THERESA SCHOOL OF NURSING(G.N.M COURSE),Andhra Pradesh,Krishna,vims_nursing@yahoo.com,2440554
1747,Dr. S P Singh Institute of Nursing,Madhya Pradesh,Bhopal,drspsinghacademy@gmail.co,9425013162
1748,VIDYA BHARATHI INSTITUTE OF TECHNOLOGY,Andhra Pradesh,Warangal,webmaster_vbit@yahoo.com,9948295183
1749,K C Public School,Punjab,Nawanshahar,kcpian@rediffmail.com,1823504221
1750,MOTHER VANNINI COLLEGE OF NURSING,Andhra Pradesh,West Godavari,vannini_nsg@yahoo.com,9440054889
1751,Sriganaganagar Engineering College,Rajasthan,Sri Ganganagar,sips.gogia061@gmail.com,1542494127
1752,Krihsna Polytechnic College,Haryana,Rewari,krishnapolytechnicalcolle,9728505055
1753,Career Point University,Rajasthan,Kota,sandeep.cpuk@gmail.com,9672980182
1754,Indo American Institutions Technical Campus,Andhra Pradesh,Visakhapatnam,"ao@iaitc.in, sudhakar@iai",9393333123
1755,Indo American Institutions,Andhra Pradesh,Visakhapatnam,"ao@iaitc.in, sudhakar@iai",2858000
1756,SUM NURSING COLLEGE,Orissa,Khordha,dean.snc@soauniversity.ac,9437035927
1757,BALAJI INSTITUTE OF TECHNOLOGY KERWAN (M.P.),Madhya Pradesh,Barwani,balaji.engg.college@gmail.com,9826029109
1758,KRUTI INSTITUE OF TECHNOLOGY & ENGINEERING,Chhattisgarh,Raipur,kiteraipurcg@gmail.com,7712104648
1759,LAKSHMI NARAIN COLLEGE OF TECHNOLOGY & SCIENCE(LNCT&S),Madhya Pradesh,Bhopal,lnctsbhopal@lnctgroup.in,7553985300
1760,YASHODA COLLEGE OF NURSING,Andhra Pradesh,Rangareddy,yashodacollegeofnursing@ymail.com,24072334
1761,World Institute of Technology,Haryana,Gurgaon,Info@wit.net.in,9991953594
1762,"RAJIV GANDHI PROUDYOGIKI VISHWAVIDYALAYA,BHOPAL",Madhya Pradesh,Bhopal,sirtsbhopal@sirtsbhopal.ac.in,3983170
1763,St.MARY'S TECHNICAL CAMPUS KOLKATA,West Bengal,South 24 Parganas,SMTCK1214@GMAIL.COM,8420247078
1764,GIET SCHOOL OF PHARMACY,Andhra Pradesh,East Godavari,"principalgipr@gmail.com,gietpharmacy@gmail.com, gm@giet.ac.in",9849146655
1765,ST. MARYS GROUP OF INSTITUTIONS HYDERABAD,Andhra Pradesh,Nalgonda,compass@stmarysgroup.com,8498055650
1766,ST. MARYS INTEGRATED CAMPUS,Andhra Pradesh,Nalgonda,compass@stmarysgroup.com,8498055650
1767,"INSTITUTE OF HOTEL MANAGEMENT CATERING TECHNOLOGY & APPLIEDNUTRITION",Orissa,Bhubaneswar,hospitality@ihmbbs.org,2589241
1768,AKHIL BHARTIYA SHIKSHA AUAM PRASHIKSHAN MAHAVIDYALAYA,Madhya Pradesh,Bhopal,akhilbhartiyacollege@gmai,0
1769,Madhavan Memorial College of Education,Bihar,Banka,mmce.shivdham.365@gmail.c,9771459016
1770,Indian Institute of Cos & tManagement Studies & Research (IndSearch),Maharashtra,Pune,search@indsearch.org,22917000
1771,"ST JOSEPHS SCHOOL OF NURSING, GUNTUR",Andhra Pradesh,Guntur,stjshoolofnursing@gmail.c,2320902
1772,OM I.T.C,Bihar,Aurangabad,om.jeiti@gmail.com,9097857810
1773,CMR Group of Institutions,Andhra Pradesh,Hyderabad,"principal.cmrcet@cmrinstitutions.org,cmrgi.tpc@gmail.com",200699
1774,HI-TECH COLLEGE OF PHARMACY,Orissa,Bhubaneswar,hitechpharmacy@gmail.com,2371406
1775,NIT MIZORAM,Mizoram,Aizawl,nit_mizoram@nitmz.ac.in,2341236
1776,Rao Pahlad Singh Group of Institutions,Haryana,Mahendragarh,rpsbalana@gmail.com,241431
1777,"B.N. College of Engineering & Technology, (BNCET)",Uttar Pradesh,Lucknow,contact@bncet.ac.in,9918904214
1778,"RAMARANI INSTITUTE OF TECHNOLOGY,BALASORE",Orissa,Balasore,principalramarani@yahoo.,256633
1779,Madhav University,Rajasthan,Sirohi,info@madhavuniversity.edu,8875028994
1780,"DAV UNIVERSITY, JALANDHAR",Punjab,Jalandhar,dpr@davuniversity.org,2708848
1781,P.B.G.M College,Madhya Pradesh,Bhopal,pbgmcollege@gmail.com,3261511
1782,MANAV BHARTI UNIVERSITY,Himachal Pradesh,Solan,info@manavbhartiuniversit,8091100003
1783,Advanced Institute of Education,Haryana,Palwal,info@advancedinstitutions,302222
1784,Sri Chaitanya Engineering College,Andhra Pradesh,Visakhapatnam,CAO@ cec.ac.in,9949993477
1785,Chaitanya Engineering College (II Shift) Polytechnic,Andhra Pradesh,Visakhapatnam,CAO@ cec.ac.in,9949993477
1786,RAGHURAM MAHAVIDYALAY,Uttar Pradesh,Agra,raghurammahavidyalaya@gma,8979559955
1787,KHAJAN SINGH GIRLS DEGREE COLLEGE,Uttar Pradesh,Agra,khajansinghksgdc@gmail.co,0
1788,DOON BUSINESS SCHOOL GLOBAL,Uttarakhand,Dehradun,vinodverma234@gm  ail.com,989703037
1789,S.S. College of Polytechnic,Haryana,Karnal,info@sspolytechnic.com,9215844020
1790,Bells Instititue of Management & Technology,Himachal Pradesh,Shimla,principal@bells.ac.in,2620313
1791,AURORAS RESEARCH & TECHNOLOGICAL INSTITUTE,Andhra Pradesh,Warangal,principal.arti@gmail.com,2524111
1792,Aryavart College of Education,Haryana,Bhiwani,aryavart2003@gmail.com,9812020375
1793,SHYAM COLLEGE OF ENGINEERING,Rajasthan,Dausa,shyamcollege@gmail.com,8890209999
1794,HERITAGE TECHNICAL COLLEGE,Uttar Pradesh,Agra,rajtomar.hiht@gmail.com,5622962415
1795,JAYA COLLEGE OF NURSING,Andhra Pradesh,Hyderabad,JAYACOLLEGE357@GMAIL.COM,9441126730
1796,VIJAY SCHOOL OF NURSING(G.N.M COURSE),Andhra Pradesh,Krishna,vims_nursing@yahoo.com,2440554
1797,The City College,Madhya Pradesh,Bhopal,thecitycollege@rediffmail,4000662
1798,Tirumala School of Nursing,Andhra Pradesh,Vizianagaram,tson.vzm@gmail.com,8922233558
1799,OmDayal Group of Institutions,West Bengal,Howrah,contact@oders.in,26613366
1800,SLCS INSTITUTE OF ENGINEERING & TECHNOLOGY,Andhra Pradesh,Rangareddy,slciet@yahoo.com,9866502063
1801,Tirumala College of Nursing,Andhra Pradesh,Vizianagaram,tcon.vzm@gmail.com,8922233558
1802,GANDHI ACADEMY OF TECHNICAL EDUCATION,Andhra Pradesh,Nalgonda,principal.qe@gmail.com,8498053357
1803,Baddi University of Emerging Sciences & Technology,Himachal Pradesh,Solan,registrar.academics@baddiuniv.ac.in,247353
1804,School of Diploma Engineering,Haryana,Jhajjar,gtcbahadurgarh@gmail.com,8684000904
1805,S.V COLLEGE OF EDUCATION,Madhya Pradesh,Bhopal,vncollege@rediffmail.com,0
1806,Jalpaiguri Government Engineering College,West Bengal,Jalpaiguri,principal_jgec @rediffmai,35612551
1807,VNS BUSINESS SCHOOL,Madhya Pradesh,Bhopal,principal@vnsbs.org,7552696787
1808,KAMALKANT INSTITUTE OF TECHNOLOGY & MANAGEMENT,Madhya Pradesh,Gwalior,Kkitm.college5@gmail.com,7512566240
1809,CENTRAL INSTITUTE OF PLASTICS ENGINEERING & TECHNOLOGY ( CIPET ),Bihar,Vaishali,cipetpatna@gmail.com,62242774
1810,INDUSTRIAL TRAINING CENTRE RAGHUNATH PALLI,Orissa,Sundargarh,rnpalliitc@rediffmail.com,6612481814
1811,TADIPATRI ENGINEERING COLLEGE,Andhra Pradesh,Anantapur,tectdp@gmail.com,8558200266
1812,KUMAR INSTITUTE FOR HIGHER STUDIES,Uttar Pradesh,Lucknow,kumarinstituteforhigherstudies@gmail.c,8858518833
1813,S.E.TS COLLEGE OF PHARMACY,Karnataka,Dharwad,setcpd@rediffmail.com,8362448540
1814,SHREE JAGANNATH I.T.C,Orissa,Bhadrak,sjitcbdk@gmail.com,9437266634
1815,Lala Lajpat Rai Memroial Polytechnic College,Punjab,Moga,llrmpc_principal@yahoo.co,9814438161
1816,Indira School of Business Studies,Maharashtra,Pune,isbs@indiraedu.com,66759404
1817,"Dr. k.N. Modi University, Newai",Rajasthan,Tonk,registrar@dknmu.org,8875010008
1818,SRISATYASAI ITI,Orissa,Khordha,srisatyasaipvtiti@gmail.c,9437029571
1819,KSERT COLLEGE OF EDUCATION HUMHAMA BUDGAM KASHMIR,Jammu,Budgam,ksertcoe@gmail.com,1942303800
1820,NOVA'S INSTITUTE OF TECHNOLOGY,Andhra Pradesh,West Godavari,elurucollege.nova@gmail,8812215524
1821,PRABHAT ENGINEERING COLLEGE,Uttar Pradesh,Kanpur Dehat,info@prabhatengg.co.in,9336112249
1822,SOUTH POINT INSTITUTE OF TECHNOLOGY & MANAGEMENT,Haryana,Sonipat,southpointin@gmail.com,2216823
1823,VANDE MAATRAM SCHOOL OF NURSING,Madhya Pradesh,Gwalior,VANDEMATRAMCOLLEGE@GMAIL.,2470793
1824,MARGDARSHAN SANSTHAN SHIKSHA MAHAVIDYALAYA,Chhattisgarh,Korea,margdarshan_ambikapur@yah,9425580571
1825,AZAD COLLEGE OF ENGINEERING & TECHNOLOGY,Andhra Pradesh,Rangareddy,directorazad1@gmail.com,9849026369
1826,Brindavan College of Engineering,Karnataka,Bengaluru,engineering@brindavancollege.com,28478366
1827,National Institute of Fashion Technology,Karnataka,Bangalore,director.bengaluru@nift.a,8022552565
1828,J.S. School Of Nursing,Andhra Pradesh,Prakasam,jsson.ongole@gmail.com,9248011331
1829,Sharavathi Dental CollegeHospital,Karnataka,Shimoga,sharavathidentalcollege@g,8182250816
1830,USHA MARTIN ACADEMY,Bihar,Patna,ushamartin367@gmail.com,6122320968
1831,SRI YPR COLLEGE  OF ENGINNERING & TECHNOLOGY,Andhra Pradesh,Medak,principal@yprcet.in,9848379183
1832,"BRCM College of engineeringtechnology, Bahal",Haryana,Bhiwani,infocollege@brcm.edu.in,1255265101
1833,SLCS POLYTECHNIC  COLLEGE,Andhra Pradesh,Rangareddy,slciet@yahoo.com,9866502063
1834,TECHNO INDIA UNIVERSITY,West Bengal,North 24 Parganas,tiuhodconnects@gmail.com,9836544417
1835,RP Educational Trust Group of Institutions,Haryana,Karnal,director@rpiit.com,1748251612
1836,CGC-College Of Engineering,Punjab,SAS Nagar,cgc.registrar@gmail.com,1723984250
1837,"NEW HORIZON DENTAL COLLEGE & RESEARCH INSTITUTE, SAKRI, BILASPUR,CHATTISGARH",Chhattisgarh,Bilaspur,nhdcribsp@gmail.com,7752652980
1838,Modern Institute of Higher Studies,Uttar Pradesh,Allahabad,director.mihs@gmail.com,8573067907
1839,RAWAL INSTIUTIONS,Haryana,Faridabad,info@rawalinstitutions.co,1292400400
1840,Shri Ramswaroop Memorial University,Uttar Pradesh,Barabanki,registrar.office@srmu.ac.,9554953791
1841,"BLACK DIAMOND SCHOOL OF ENGINEERING,BRAJRAJNAGAR,JHARSUGUDA",Orissa,Jharsuguda,amirkabdse@gmail.com,6645242202
1842,ST.JOSEPH S COLLEGE OF NURSING,Andhra Pradesh,Nellore,stjosephcon@yahoo.com,2347374
1843,Central University Of Karnataka,Karnataka,Gulbarga,cukdsw@cuk.ac.in,8477226729
1844,Central University Of Haryana,Haryana,Mahendragarh,vijaykumar@cuh.ac.in,1285249432
1845,Noble Polytechnic college,Andhra Pradesh,Medak,noblepolytechnic324@gmail,8498053324
1846,"Thakur Hari Prasad Institute of ResearchRehabilitation for the MentallyHandicapped",Andhra Pradesh,Rangareddy,thpihyd@hotmail.com,24045454
1847,"Lakshmi School of Nursing, Vizianagaram",Andhra Pradesh,Vizianagaram,lsn.vzm@gmail.com,9440540315
